<?xml version="1.0" encoding="UTF-8"?><kml xmlns="http://www.opengis.net/kml/2.2"><Document><name>city-limits</name><Placemark><name>Rogue River</name><ExtendedData><Data name="featureClass"><value>city</value></Data><Data name="osmType"><value>relation</value></Data><Data name="osmId"><value>186366</value></Data></ExtendedData><MultiGeometry><LineString><tessellate>1</tessellate><coordinates>-123.1717669,42.4315700,0 -123.1714280,42.4314070,0 -123.1710721,42.4312579,0 -123.1709664,42.4312137,0 -123.1708783,42.4313632,0 -123.1706998,42.4315919,0 -123.1711269,42.4317918,0 -123.1714030,42.4319210,0 -123.1717090,42.4320510,0 -123.1719850,42.4322670,0 -123.1721760,42.4324080,0 -123.1726230,42.4326110,0 -123.1727910,42.4327440,0 -123.1732950,42.4329120,0 -123.1735070,42.4330010,0 -123.1739050,42.4331120,0 -123.1742340,42.4332410,0 -123.1747860,42.4334500,0 -123.1745560,42.4337550,0 -123.1746340,42.4337870,0 -123.1746740,42.4338040,0 -123.1747950,42.4336730,0 -123.1749870,42.4335650,0 -123.1752300,42.4335770,0 -123.1755210,42.4336210,0 -123.1758120,42.4336740,0 -123.1760230,42.4337290,0 -123.1762790,42.4337660,0 -123.1768330,42.4337530,0 -123.1772120,42.4337180,0 -123.1778430,42.4335920,0 -123.1782040,42.4333950,0 -123.1786520,42.4331820,0 -123.1788270,42.4330980,0 -123.1789950,42.4329740,0 -123.1791630,42.4328670,0 -123.1794130,42.4327670,0 -123.1797220,42.4326910,0 -123.1800080,42.4326330,0 -123.1803390,42.4325480,0 -123.1805810,42.4333450,0 -123.1819740,42.4328930,0 -123.1820780,42.4330390,0 -123.1817920,42.4332040,0 -123.1818090,42.4332610,0 -123.1818090,42.4333090,0 -123.1818644,42.4335493,0 -123.1817932,42.4336513,0 -123.1817201,42.4337953,0 -123.1816611,42.4340158,0 -123.1815981,42.4342784,0 -123.1815493,42.4344104,0 -123.1814802,42.4345829,0 -123.1814456,42.4346355,0 -123.1815869,42.4346624,0 -123.1816870,42.4346740,0 -123.1825630,42.4348590,0 -123.1834480,42.4348610,0 -123.1834540,42.4353170,0 -123.1834770,42.4370060,0 -123.1810760,42.4369900,0 -123.1802460,42.4369840,0 -123.1797790,42.4369810,0 -123.1790800,42.4367540,0 -123.1789780,42.4367210,0 -123.1786480,42.4366710,0 -123.1786385,42.4366329,0 -123.1782609,42.4365469,0 -123.1779540,42.4364770,0 -123.1780190,42.4357590,0 -123.1772740,42.4356270,0 -123.1772410,42.4362980,0 -123.1770240,42.4362430,0 -123.1770310,42.4359550,0 -123.1767040,42.4359370,0 -123.1766970,42.4361610,0 -123.1761830,42.4360310,0 -123.1761180,42.4361880,0 -123.1760210,42.4364230,0 -123.1773410,42.4366970,0 -123.1773080,42.4368000,0 -123.1776750,42.4368570,0 -123.1774200,42.4376450,0 -123.1765290,42.4374180,0 -123.1763680,42.4380570,0 -123.1762640,42.4380320,0 -123.1762380,42.4381190,0 -123.1761810,42.4381070,0 -123.1759990,42.4386670,0 -123.1755490,42.4385710,0 -123.1756510,42.4382630,0 -123.1750690,42.4381680,0 -123.1749243,42.4381449,0 -123.1746374,42.4390094,0 -123.1747100,42.4390260,0 -123.1748230,42.4390460,0 -123.1766740,42.4393640,0 -123.1768490,42.4387660,0 -123.1768180,42.4387570,0 -123.1768410,42.4386790,0 -123.1769680,42.4382600,0 -123.1769930,42.4381770,0 -123.1775570,42.4382810,0 -123.1776730,42.4382910,0 -123.1781750,42.4390760,0 -123.1782160,42.4393180,0 -123.1784540,42.4393500,0 -123.1796476,42.4395130,0 -123.1798230,42.4395370,0 -123.1798390,42.4402490,0 -123.1798480,42.4406440,0 -123.1798150,42.4406500,0 -123.1796770,42.4406500,0 -123.1792686,42.4406493,0 -123.1791260,42.4406490,0 -123.1784920,42.4406490,0 -123.1781960,42.4406483,0 -123.1780440,42.4406480,0 -123.1774540,42.4406470,0 -123.1767850,42.4406460,0 -123.1740540,42.4406430,0 -123.1738850,42.4406430,0 -123.1738697,42.4405898,0 -123.1718940,42.4405790,0 -123.1719210,42.4407090,0 -123.1719910,42.4409260,0 -123.1720580,42.4410770,0 -123.1720950,42.4412060,0 -123.1721240,42.4413680,0 -123.1721590,42.4418610,0 -123.1721620,42.4419870,0 -123.1721290,42.4422740,0 -123.1720850,42.4425100,0 -123.1720380,42.4426690,0 -123.1717860,42.4432360,0 -123.1716570,42.4434740,0 -123.1715530,42.4436320,0 -123.1714930,42.4437780,0 -123.1713930,42.4439090,0 -123.1712540,42.4439940,0 -123.1711280,42.4440190,0 -123.1710200,42.4440730,0 -123.1708950,42.4441680,0 -123.1707800,42.4442630,0 -123.1707000,42.4443390,0 -123.1704500,42.4444840,0 -123.1703580,42.4446170,0 -123.1701170,42.4450170,0 -123.1698480,42.4454050,0 -123.1697440,42.4456430,0 -123.1696790,42.4458400,0 -123.1696410,42.4459730,0 -123.1696030,42.4460340,0 -123.1685890,42.4460370,0 -123.1684810,42.4460380,0 -123.1683900,42.4460380,0 -123.1683721,42.4460464,0 -123.1682450,42.4460390,0 -123.1678690,42.4467120,0 -123.1676640,42.4478680,0 -123.1667560,42.4478720,0 -123.1667720,42.4476750,0 -123.1669210,42.4472100,0 -123.1671270,42.4468480,0 -123.1672240,42.4467050,0 -123.1673950,42.4464520,0 -123.1676050,42.4460430,0 -123.1651830,42.4460540,0 -123.1651640,42.4442340,0 -123.1651690,42.4419780,0 -123.1647970,42.4419820,0 -123.1647860,42.4417570,0 -123.1642350,42.4417650,0 -123.1641970,42.4417010,0 -123.1642400,42.4414090,0 -123.1647980,42.4414080,0 -123.1648070,42.4410190,0 -123.1647910,42.4406970,0 -123.1644080,42.4406300,0 -123.1603380,42.4406230,0 -123.1602610,42.4406230,0 -123.1602340,42.4406230,0 -123.1602317,42.4405901,0 -123.1602000,42.4405780,0 -123.1572950,42.4405810,0 -123.1572950,42.4405610,0 -123.1573090,42.4400020,0 -123.1579800,42.4392150,0 -123.1581550,42.4390100,0 -123.1580870,42.4374250,0 -123.1583600,42.4370620,0 -123.1583760,42.4369750,0 -123.1583630,42.4366750,0 -123.1583230,42.4366470,0 -123.1586470,42.4364400,0 -123.1589300,42.4363600,0 -123.1592370,42.4361990,0 -123.1594070,42.4362450,0 -123.1596300,42.4362670,0 -123.1597600,42.4362830,0 -123.1598270,42.4362780,0 -123.1599110,42.4362230,0 -123.1602120,42.4360470,0 -123.1602100,42.4350270,0 -123.1602070,42.4335850,0 -123.1602070,42.4333890,0 -123.1602040,42.4315160,0 -123.1601940,42.4297320,0 -123.1601850,42.4250250,0 -123.1612891,42.4250346,0 -123.1612127,42.4245689,0 -123.1611240,42.4241161,0 -123.1610639,42.4239245,0 -123.1610040,42.4237515,0 -123.1609161,42.4235592,0 -123.1607353,42.4232195,0 -123.1605580,42.4228935,0 -123.1603191,42.4224444,0 -123.1601371,42.4221466,0 -123.1599295,42.4218431,0 -123.1597467,42.4215897,0 -123.1596552,42.4214633,0 -123.1603190,42.4214050,0 -123.1618360,42.4232950,0 -123.1625150,42.4241780,0 -123.1640400,42.4261180,0 -123.1645540,42.4261390,0 -123.1647800,42.4261480,0 -123.1649398,42.4261884,0 -123.1652410,42.4261650,0 -123.1661620,42.4261990,0 -123.1665950,42.4262150,0 -123.1666550,42.4262980,0 -123.1668340,42.4264310,0 -123.1669370,42.4266910,0 -123.1670910,42.4269820,0 -123.1673440,42.4272660,0 -123.1676910,42.4278230,0 -123.1679090,42.4280400,0 -123.1680100,42.4282600,0 -123.1682100,42.4285980,0 -123.1683120,42.4288180,0 -123.1684930,42.4290110,0 -123.1685390,42.4291000,0 -123.1686570,42.4293240,0 -123.1689143,42.4297933,0 -123.1690523,42.4299552,0 -123.1689366,42.4300277,0 -123.1690531,42.4301682,0 -123.1693980,42.4304360,0 -123.1695367,42.4308014,0 -123.1696225,42.4308670,0 -123.1698510,42.4310160,0 -123.1700510,42.4311140,0 -123.1701157,42.4311822,0 -123.1702854,42.4313610,0 -123.1704549,42.4314834,0 -123.1704962,42.4315132,0 -123.1706930,42.4313520,0 -123.1708070,42.4312210,0 </coordinates></LineString><LineString><tessellate>1</tessellate><coordinates>-123.1708070,42.4312210,0 -123.1708820,42.4311350,0 -123.1707320,42.4310890,0 -123.1704830,42.4309410,0 -123.1704674,42.4309238,0 -123.1702400,42.4306730,0 -123.1700460,42.4304460,0 -123.1698940,42.4301420,0 -123.1698763,42.4300938,0 -123.1697630,42.4297850,0 -123.1695420,42.4294820,0 -123.1694810,42.4294070,0 -123.1697272,42.4293167,0 -123.1697920,42.4292930,0 -123.1721020,42.4284410,0 -123.1722070,42.4284020,0 -123.1722010,42.4287240,0 -123.1722000,42.4288470,0 -123.1721920,42.4298020,0 -123.1731170,42.4297900,0 -123.1734562,42.4297870,0 -123.1732140,42.4296810,0 -123.1741000,42.4296640,0 -123.1740030,42.4297740,0 -123.1737950,42.4299940,0 -123.1740970,42.4302630,0 -123.1742031,42.4303497,0 -123.1743217,42.4304408,0 -123.1740670,42.4307230,0 -123.1739870,42.4308600,0 -123.1739380,42.4308500,0 -123.1738560,42.4310930,0 -123.1739200,42.4310920,0 -123.1741080,42.4310760,0 -123.1741820,42.4310690,0 -123.1743560,42.4310700,0 -123.1743660,42.4318320,0 -123.1743890,42.4328650,0 -123.1742850,42.4328290,0 -123.1740500,42.4327230,0 -123.1737541,42.4326294,0 -123.1737370,42.4326240,0 -123.1733320,42.4324400,0 -123.1730530,42.4322710,0 -123.1726700,42.4320790,0 -123.1723160,42.4319160,0 -123.1720780,42.4317420,0 -123.1717669,42.4315700,0 </coordinates></LineString><LineString><tessellate>1</tessellate><coordinates>-123.1786385,42.4366329,0 -123.1787879,42.4366691,0 -123.1789140,42.4366709,0 -123.1789887,42.4366640,0 -123.1791031,42.4366226,0 -123.1791860,42.4357980,0 -123.1787520,42.4358220,0 -123.1786420,42.4364130,0 -123.1786385,42.4366329,0 </coordinates></LineString></MultiGeometry></Placemark><Placemark><name>Shady Cove</name><ExtendedData><Data name="featureClass"><value>city</value></Data><Data name="osmType"><value>relation</value></Data><Data name="osmId"><value>186678</value></Data></ExtendedData><MultiGeometry><LineString><tessellate>1</tessellate><coordinates>-122.8205513,42.5957690,0 -122.8263360,42.5957590,0 -122.8263687,42.6000388,0 -122.8312778,42.6000288,0 -122.8312801,42.6027280,0 -122.8326691,42.6027432,0 -122.8326549,42.6034665,0 -122.8322489,42.6036634,0 -122.8312784,42.6036640,0 -122.8312819,42.6072984,0 -122.8361979,42.6072985,0 -122.8361964,42.6073614,0 -122.8335160,42.6073691,0 -122.8335053,42.6081979,0 -122.8312805,42.6081995,0 -122.8312575,42.6145586,0 -122.8209353,42.6145696,0 -122.8164834,42.6145657,0 -122.8165106,42.6254399,0 -122.8214244,42.6254456,0 -122.8214636,42.6326627,0 -122.8116182,42.6326720,0 -122.8116199,42.6290653,0 -122.8063383,42.6290681,0 -122.8062471,42.6290665,0 </coordinates></LineString><LineString><tessellate>1</tessellate><coordinates>-122.8240380,42.5891462,0 -122.8239477,42.5893353,0 -122.8239282,42.5894796,0 -122.8239000,42.5898064,0 -122.8238745,42.5902596,0 -122.8238987,42.5909073,0 -122.8238651,42.5914266,0 -122.8237525,42.5917050,0 -122.8236774,42.5918494,0 -122.8234574,42.5920259,0 -122.8232429,42.5922441,0 -122.8226689,42.5925966,0 -122.8220023,42.5930310,0 -122.8213845,42.5935359,0 -122.8212509,42.5937075,0 -122.8210059,42.5939486,0 -122.8208920,42.5940797,0 -122.8206481,42.5946679,0 -122.8205868,42.5950595,0 -122.8205743,42.5954838,0 -122.8205513,42.5957690,0 </coordinates></LineString><LineString><tessellate>1</tessellate><coordinates>-122.8080375,42.6217323,0 -122.8067355,42.6217274,0 -122.8066920,42.6204390,0 -122.8067132,42.6192520,0 -122.8058451,42.6192511,0 -122.8057344,42.6186632,0 -122.8057007,42.6178771,0 -122.8057007,42.6175197,0 -122.8057689,42.6168495,0 -122.8058477,42.6164643,0 -122.8062785,42.6152196,0 -122.8065957,42.6145001,0 -122.8063140,42.6145058,0 -122.8043060,42.6144880,0 -122.8017295,42.6144755,0 -122.8017540,42.6108634,0 -122.8063986,42.6108830,0 -122.8065857,42.6106628,0 -122.8069889,42.6104054,0 -122.8074944,42.6101558,0 -122.8079864,42.6100179,0 -122.8084950,42.6099715,0 -122.8089932,42.6100007,0 -122.8094293,42.6100885,0 -122.8098670,42.6102222,0 -122.8098647,42.6096862,0 -122.8098863,42.6095514,0 -122.8098280,42.6072684,0 -122.8126550,42.6072750,0 -122.8140618,42.6072713,0 -122.8140637,42.6067270,0 -122.8155950,42.6067318,0 -122.8160317,42.6060672,0 -122.8165167,42.6050344,0 -122.8165556,42.5917360,0 -122.8167178,42.5912081,0 -122.8165698,42.5903358,0 -122.8165581,42.5900246,0 -122.8165614,42.5895196,0 -122.8165646,42.5891327,0 -122.8240380,42.5891462,0 </coordinates></LineString><LineString><tessellate>1</tessellate><coordinates>-122.8080375,42.6217323,0 -122.8079688,42.6222034,0 -122.8077883,42.6230966,0 -122.8077246,42.6234170,0 -122.8074238,42.6243961,0 -122.8072469,42.6248857,0 -122.8072964,42.6250185,0 -122.8071902,42.6253180,0 -122.8071336,42.6253831,0 -122.8070947,42.6257451,0 -122.8068894,42.6264638,0 -122.8066310,42.6270732,0 -122.8065107,42.6274429,0 -122.8064116,42.6276695,0 -122.8062559,42.6282580,0 -122.8062842,42.6288074,0 -122.8062471,42.6290665,0 </coordinates></LineString><LineString><tessellate>1</tessellate><coordinates>-122.8117840,42.6106590,0 -122.8119990,42.6110480,0 -122.8122740,42.6112040,0 -122.8126520,42.6111050,0 -122.8126760,42.6109350,0 -122.8128230,42.6107770,0 -122.8126000,42.6106290,0 -122.8122450,42.6103280,0 -122.8117490,42.6104600,0 -122.8117840,42.6106590,0 </coordinates></LineString></MultiGeometry></Placemark><Placemark><name>Gold Hill</name><ExtendedData><Data name="featureClass"><value>city</value></Data><Data name="osmType"><value>relation</value></Data><Data name="osmId"><value>186683</value></Data></ExtendedData><MultiGeometry><LineString><tessellate>1</tessellate><coordinates>-123.0651101,42.4315496,0 -123.0648448,42.4323516,0 </coordinates></LineString><LineString><tessellate>1</tessellate><coordinates>-123.0648448,42.4323516,0 -123.0647731,42.4326211,0 -123.0646901,42.4328919,0 -123.0646069,42.4331912,0 -123.0645241,42.4334937,0 -123.0644671,42.4337039,0 </coordinates></LineString><LineString><tessellate>1</tessellate><coordinates>-123.0644671,42.4337039,0 -123.0637905,42.4335766,0 -123.0638472,42.4334012,0 -123.0636869,42.4333897,0 -123.0636812,42.4335592,0 -123.0634625,42.4335215,0 -123.0628425,42.4334147,0 -123.0628989,42.4333105,0 -123.0625303,42.4332942,0 -123.0625312,42.4335185,0 </coordinates></LineString><LineString><tessellate>1</tessellate><coordinates>-123.0625312,42.4335185,0 -123.0659238,42.4341058,0 -123.0663179,42.4341715,0 -123.0665001,42.4342006,0 -123.0670463,42.4342944,0 -123.0681606,42.4344902,0 -123.0689859,42.4346263,0 -123.0698098,42.4347677,0 -123.0697797,42.4348705,0 -123.0697526,42.4349622,0 -123.0697246,42.4350570,0 -123.0696888,42.4351744,0 -123.0696572,42.4352643,0 -123.0670704,42.4348493,0 -123.0626970,42.4341237,0 -123.0626904,42.4343778,0 -123.0644864,42.4346807,0 -123.0661477,42.4349588,0 -123.0678605,42.4352454,0 -123.0685574,42.4353621,0 -123.0686213,42.4369360,0 -123.0670600,42.4369030,0 -123.0662850,42.4369030,0 -123.0627261,42.4368252,0 -123.0627180,42.4359682,0 -123.0626240,42.4359688,0 -123.0625760,42.4368280,0 -123.0608390,42.4368670,0 -123.0526530,42.4368220,0 -123.0477750,42.4368190,0 -123.0477490,42.4477080,0 -123.0425390,42.4477140,0 -123.0426520,42.4473540,0 -123.0429290,42.4470500,0 -123.0429940,42.4466790,0 -123.0432190,42.4462800,0 -123.0433630,42.4458600,0 -123.0433960,42.4455020,0 -123.0434467,42.4453638,0 -123.0435990,42.4449490,0 -123.0436670,42.4446380,0 -123.0436471,42.4444084,0 -123.0436360,42.4442810,0 -123.0435420,42.4439500,0 -123.0434900,42.4438250,0 -123.0441300,42.4419805,0 -123.0443720,42.4412830,0 -123.0443610,42.4400840,0 -123.0442620,42.4395420,0 -123.0439450,42.4392330,0 -123.0428820,42.4390270,0 -123.0428920,42.4389780,0 -123.0428610,42.4388860,0 </coordinates></LineString><LineString><tessellate>1</tessellate><coordinates>-123.0428610,42.4388860,0 -123.0427435,42.4386613,0 -123.0425830,42.4384170,0 -123.0424781,42.4382380,0 -123.0423776,42.4380665,0 -123.0422420,42.4378350,0 -123.0420982,42.4375216,0 -123.0420074,42.4373390,0 -123.0419368,42.4372371,0 -123.0417912,42.4370269,0 -123.0415560,42.4367770,0 -123.0414091,42.4365460,0 -123.0412932,42.4362848,0 -123.0411146,42.4359103,0 -123.0409737,42.4356583,0 -123.0408480,42.4353200,0 -123.0408327,42.4348468,0 -123.0408891,42.4344862,0 -123.0409674,42.4342874,0 -123.0411052,42.4341325,0 -123.0413060,42.4340090,0 -123.0414895,42.4339248,0 -123.0416315,42.4338597,0 -123.0419886,42.4336724,0 -123.0422047,42.4335036,0 -123.0423614,42.4333187,0 -123.0424804,42.4330759,0 -123.0425618,42.4328540,0 -123.0426135,42.4325928,0 -123.0426213,42.4325534,0 -123.0427216,42.4323315,0 -123.0427260,42.4321560,0 -123.0428751,42.4319222,0 -123.0431006,42.4316934,0 -123.0432823,42.4313743,0 -123.0435360,42.4311292,0 -123.0435722,42.4310758,0 -123.0436237,42.4309998,0 -123.0436926,42.4308888,0 -123.0437390,42.4308341,0 -123.0438461,42.4307755,0 -123.0439272,42.4307348,0 -123.0441216,42.4305844,0 -123.0442635,42.4304779,0 -123.0442792,42.4304202,0 -123.0443269,42.4303377,0 -123.0443440,42.4302929,0 -123.0444008,42.4301000,0 -123.0445720,42.4298650,0 -123.0450749,42.4296971,0 -123.0454122,42.4296620,0 -123.0455993,42.4296426,0 -123.0456540,42.4296620,0 -123.0457550,42.4297740,0 -123.0459190,42.4297630,0 -123.0461460,42.4296720,0 -123.0467200,42.4295450,0 -123.0471060,42.4295440,0 -123.0476790,42.4296240,0 -123.0480160,42.4296160,0 -123.0483600,42.4295370,0 -123.0489200,42.4294900,0 -123.0495320,42.4294030,0 -123.0503090,42.4295070,0 -123.0509790,42.4296130,0 -123.0522080,42.4299360,0 -123.0530150,42.4300890,0 -123.0537250,42.4302090,0 -123.0553940,42.4304290,0 -123.0564710,42.4305830,0 -123.0568390,42.4306110,0 -123.0573150,42.4306170,0 -123.0577860,42.4306390,0 -123.0586550,42.4306480,0 -123.0600130,42.4308100,0 -123.0602530,42.4307840,0 -123.0605650,42.4308620,0 -123.0608760,42.4309120,0 -123.0612710,42.4309030,0 -123.0632050,42.4312240,0 -123.0637000,42.4312920,0 -123.0642150,42.4313870,0 -123.0646540,42.4314990,0 -123.0651101,42.4315496,0 </coordinates></LineString></MultiGeometry></Placemark><Placemark><name>Eagle Point</name><ExtendedData><Data name="featureClass"><value>city</value></Data><Data name="osmType"><value>relation</value></Data><Data name="osmId"><value>186684</value></Data></ExtendedData><MultiGeometry><LineString><tessellate>1</tessellate><coordinates>-122.8116948,42.4812124,0 -122.8116284,42.4812168,0 -122.8116220,42.4820399,0 -122.8115484,42.4820410,0 -122.8115434,42.4825894,0 -122.8116918,42.4825902,0 -122.8116846,42.4843729,0 -122.8116476,42.4843732,0 -122.8116514,42.4864345,0 -122.8116869,42.4864362,0 -122.8116807,42.4870505,0 -122.8007091,42.4870559,0 -122.8007277,42.4854248,0 -122.7981327,42.4846635,0 -122.7946582,42.4846609,0 -122.7921812,42.4846025,0 -122.7922027,42.4832682,0 -122.7920908,42.4832664,0 -122.7920915,42.4815804,0 -122.7922067,42.4815813,0 -122.7921737,42.4800001,0 -122.7921633,42.4785824,0 -122.7931112,42.4785829,0 -122.7931947,42.4784468,0 -122.7932304,42.4782756,0 -122.7932431,42.4780802,0 -122.7928844,42.4780893,0 -122.7928460,42.4774302,0 -122.7937719,42.4770481,0 -122.7937735,42.4760180,0 -122.7921006,42.4760195,0 -122.7921840,42.4728529,0 -122.7921760,42.4726367,0 -122.7907679,42.4726423,0 -122.7897165,42.4726553,0 -122.7897098,42.4718943,0 -122.7882854,42.4710643,0 -122.7887353,42.4701981,0 -122.7874931,42.4700653,0 -122.7874128,42.4700497,0 -122.7873455,42.4700240,0 -122.7872919,42.4699833,0 -122.7872431,42.4699212,0 -122.7872277,42.4698476,0 -122.7871754,42.4691615,0 -122.7896970,42.4691520,0 -122.7896854,42.4672604,0 -122.7921496,42.4672555,0 -122.7921411,42.4655146,0 -122.7901810,42.4655131,0 -122.7896708,42.4655170,0 -122.7896657,42.4643523,0 -122.7896654,42.4642903,0 -122.7896645,42.4640335,0 -122.7896636,42.4637903,0 -122.7896589,42.4622826,0 -122.7896579,42.4622405,0 -122.7896560,42.4611293,0 -122.7896564,42.4611173,0 -122.7850113,42.4611235,0 -122.7847325,42.4608597,0 -122.7847321,42.4582467,0 -122.7822777,42.4582483,0 -122.7822804,42.4509707,0 -122.7921158,42.4509493,0 -122.7921230,42.4511458,0 -122.7923672,42.4512835,0 -122.7925241,42.4514557,0 -122.7931852,42.4522775,0 -122.7933532,42.4521644,0 -122.7953581,42.4545865,0 -122.7970427,42.4545851,0 -122.7970415,42.4546736,0 -122.8019333,42.4546659,0 -122.8021384,42.4545831,0 -122.8117720,42.4545799,0 -122.8117708,42.4541931,0 -122.8125633,42.4541933,0 -122.8138538,42.4548455,0 -122.8138035,42.4551580,0 -122.8138229,42.4553215,0 -122.8139871,42.4556886,0 -122.8139882,42.4558361,0 -122.8138882,42.4561234,0 -122.8140830,42.4562407,0 -122.8143208,42.4563244,0 -122.8145423,42.4564477,0 -122.8150958,42.4566856,0 -122.8155107,42.4567631,0 -122.8155166,42.4556010,0 -122.8196157,42.4555876,0 -122.8186930,42.4569790,0 -122.8182045,42.4576513,0 -122.8175022,42.4587607,0 -122.8164992,42.4608910,0 -122.8152895,42.4626451,0 -122.8150549,42.4628237,0 -122.8145074,42.4631021,0 -122.8140178,42.4634498,0 -122.8144228,42.4635645,0 -122.8152569,42.4638457,0 -122.8155737,42.4633180,0 -122.8175388,42.4632907,0 -122.8175366,42.4634712,0 -122.8174316,42.4636242,0 -122.8173415,42.4638194,0 -122.8171699,42.4639672,0 -122.8167643,42.4641878,0 -122.8167685,42.4648377,0 -122.8173750,42.4648351,0 -122.8173708,42.4657892,0 -122.8184721,42.4657935,0 -122.8184759,42.4670386,0 -122.8173864,42.4670347,0 -122.8173762,42.4703167,0 -122.8168180,42.4703085,0 -122.8168319,42.4727547,0 -122.8166757,42.4727833,0 -122.8164924,42.4728256,0 -122.8157556,42.4730464,0 -122.8155766,42.4730862,0 -122.8153202,42.4731283,0 -122.8149031,42.4731663,0 -122.8147220,42.4731774,0 -122.8145721,42.4731657,0 -122.8143509,42.4731129,0 -122.8141378,42.4730107,0 -122.8140201,42.4729115,0 -122.8138409,42.4730053,0 -122.8132939,42.4730042,0 -122.8132812,42.4730503,0 -122.8132888,42.4731354,0 -122.8133738,42.4734845,0 -122.8134221,42.4735901,0 -122.8136569,42.4739188,0 -122.8136935,42.4740705,0 -122.8117351,42.4740905,0 -122.8116948,42.4812124,0 </coordinates></LineString><LineString><tessellate>1</tessellate><coordinates>-122.8135416,42.4644816,0 -122.8130818,42.4641165,0 -122.8126526,42.4644203,0 -122.8124891,42.4645491,0 -122.8123715,42.4646596,0 -122.8122110,42.4648400,0 -122.8118190,42.4648365,0 -122.8118209,42.4646783,0 -122.8114738,42.4648403,0 -122.8110434,42.4651130,0 -122.8106708,42.4652755,0 -122.8112642,42.4661371,0 -122.8105779,42.4661397,0 -122.8105773,42.4663020,0 -122.8121825,42.4663019,0 -122.8121837,42.4664216,0 -122.8123200,42.4665147,0 -122.8128737,42.4660747,0 -122.8136306,42.4654724,0 -122.8134942,42.4653768,0 -122.8128369,42.4652083,0 -122.8130899,42.4648384,0 -122.8130358,42.4648403,0 -122.8131286,42.4647761,0 -122.8135416,42.4644816,0 </coordinates></LineString></MultiGeometry></Placemark></Document></kml>
