<?xml version="1.0" encoding="UTF-8"?><kml xmlns="http://www.opengis.net/kml/2.2"><Document><name>county-borders</name><Placemark><name>Douglas County</name><ExtendedData><Data name="featureClass"><value>county</value></Data><Data name="osmType"><value>relation</value></Data><Data name="osmId"><value>1837112</value></Data></ExtendedData><MultiGeometry><LineString><tessellate>1</tessellate><coordinates>-122.0160695,43.3241688,0 -122.0160463,43.3241471,0 -122.0159467,43.3237642,0 -122.0153202,43.3232045,0 -122.0141503,43.3225613,0 -122.0138548,43.3223155,0 -122.0133926,43.3215642,0 -122.0131028,43.3206377,0 -122.0129191,43.3188372,0 -122.0125491,43.3181615,0 -122.0120961,43.3179233,0 -122.0110414,43.3175282,0 -122.0091375,43.3172926,0 -122.0086188,43.3172885,0 -122.0084599,43.3172495,0 -122.0075176,43.3165263,0 -122.0071642,43.3163691,0 -122.0060688,43.3156919,0 -122.0058343,43.3154728,0 -122.0056461,43.3151597,0 -122.0044384,43.3143412,0 -122.0039624,43.3140950,0 -122.0030432,43.3133936,0 -122.0024688,43.3131103,0 -122.0019112,43.3128980,0 -122.0016998,43.3125577,0 -122.0014377,43.3113730,0 -122.0011251,43.3107322,0 -122.0011348,43.3105469,0 -121.9995631,43.3091502,0 -121.9994140,43.3088971,0 </coordinates></LineString><LineString><tessellate>1</tessellate><coordinates>-121.9856327,43.2571024,0 -121.9847575,43.2575208,0 -121.9830793,43.2580730,0 -121.9795500,43.2597310,0 -121.9781120,43.2602400,0 -121.9765325,43.2605704,0 -121.9752703,43.2610471,0 -121.9742916,43.2616577,0 -121.9752038,43.2620031,0 -121.9763587,43.2622540,0 -121.9771580,43.2627440,0 -121.9804125,43.2650537,0 -121.9823859,43.2688225,0 -121.9828620,43.2694100,0 -121.9839200,43.2705390,0 -121.9846151,43.2735428,0 -121.9861290,43.2745410,0 -121.9867280,43.2754430,0 -121.9876157,43.2774380,0 -121.9881617,43.2780030,0 -121.9894020,43.2784570,0 -121.9905111,43.2785501,0 -121.9919430,43.2791250,0 -121.9929512,43.2795666,0 -121.9944634,43.2804547,0 -121.9959390,43.2807060,0 -121.9980660,43.2808660,0 -122.0000380,43.2812100,0 -122.0011380,43.2816000,0 -122.0011380,43.2817500,0 -122.0022380,43.2823500,0 -122.0058380,43.2854500,0 -122.0069380,43.2871500,0 -122.0076370,43.2883273,0 -122.0078302,43.2894831,0 -122.0087392,43.2911340,0 -122.0089659,43.2925585,0 -122.0095468,43.2952150,0 -122.0086234,43.2960800,0 -122.0085812,43.2974483,0 -122.0090380,43.2988049,0 -122.0085169,43.3007301,0 -122.0080761,43.3016649,0 -122.0064783,43.3024767,0 -122.0055557,43.3026017,0 -122.0031153,43.3047919,0 -122.0021955,43.3063547,0 -122.0016530,43.3074364,0 -122.0012352,43.3077072,0 -122.0008820,43.3078034,0 -121.9999558,43.3082517,0 -121.9994140,43.3088971,0 </coordinates></LineString><LineString><tessellate>1</tessellate><coordinates>-122.0907577,43.0887764,0 -122.0906194,43.0889639,0 -122.0894535,43.0897020,0 -122.0888043,43.0903992,0 -122.0873574,43.0910271,0 -122.0870212,43.0913305,0 -122.0869575,43.0914831,0 -122.0870620,43.0918892,0 -122.0874237,43.0923513,0 -122.0876983,43.0928938,0 -122.0876680,43.0932808,0 -122.0877482,43.0936686,0 -122.0879655,43.0939315,0 -122.0881455,43.0940491,0 -122.0883545,43.0942137,0 -122.0885692,43.0945544,0 -122.0886685,43.0947415,0 -122.0886771,43.0948286,0 -122.0885897,43.0949270,0 -122.0877102,43.0953972,0 -122.0871517,43.0958873,0 -122.0870954,43.0959862,0 -122.0870122,43.0960671,0 -122.0866273,43.0963341,0 -122.0863863,43.0968365,0 -122.0863946,43.0971067,0 -122.0869701,43.0988943,0 -122.0870143,43.0992278,0 -122.0869694,43.0997677,0 -122.0867906,43.1002256,0 -122.0866401,43.1004315,0 -122.0862554,43.1006805,0 -122.0844362,43.1015395,0 -122.0840630,43.1018427,0 -122.0835257,43.1024327,0 -122.0831112,43.1030327,0 -122.0829585,43.1033827,0 -122.0828546,43.1037390,0 -122.0826960,43.1046333,0 -122.0827389,43.1055106,0 -122.0831251,43.1062077,0 -122.0830822,43.1068814,0 -122.0832431,43.1072260,0 -122.0834684,43.1085654,0 -122.0828462,43.1099909,0 -122.0828247,43.1103434,0 -122.0820201,43.1116044,0 -122.0814836,43.1133432,0 -122.0807219,43.1146276,0 -122.0800996,43.1153795,0 -122.0799172,43.1159199,0 -122.0781469,43.1167422,0 -122.0772779,43.1177446,0 -122.0770955,43.1182537,0 -122.0772243,43.1188959,0 -122.0769775,43.1194910,0 -122.0771599,43.1199218,0 -122.0770848,43.1202428,0 -122.0766235,43.1207754,0 -122.0760334,43.1221066,0 -122.0761192,43.1226313,0 -122.0760656,43.1232969,0 -122.0759797,43.1243619,0 -122.0756257,43.1252389,0 -122.0756793,43.1258967,0 -122.0752716,43.1266171,0 -122.0744884,43.1272905,0 -122.0736730,43.1277916,0 -122.0721173,43.1293655,0 -122.0707011,43.1302268,0 -122.0685017,43.1312447,0 -122.0679546,43.1317771,0 -122.0677995,43.1323335,0 -122.0676434,43.1328967,0 -122.0661628,43.1346662,0 -122.0659375,43.1351125,0 -122.0651651,43.1358484,0 -122.0650148,43.1370776,0 -122.0646608,43.1380562,0 -122.0646930,43.1388704,0 -122.0646286,43.1398725,0 -122.0642853,43.1407806,0 -122.0642316,43.1415478,0 -122.0641780,43.1425655,0 -122.0643175,43.1434188,0 -122.0652402,43.1452975,0 -122.0651114,43.1455246,0 -122.0651864,43.1457388,0 -122.0653260,43.1461351,0 -122.0659375,43.1465187,0 -122.0664525,43.1471841,0 -122.0664311,43.1476850,0 -122.0666564,43.1480216,0 -122.0665276,43.1484600,0 -122.0670962,43.1493367,0 -122.0671606,43.1500020,0 -122.0667958,43.1505186,0 -122.0659804,43.1509100,0 -122.0659161,43.1512074,0 -122.0664096,43.1517318,0 -122.0665062,43.1522328,0 -122.0662487,43.1527572,0 -122.0658517,43.1527572,0 -122.0650792,43.1524911,0 -122.0647788,43.1525693,0 -122.0644891,43.1529372,0 -122.0638454,43.1531485,0 -122.0631802,43.1531016,0 -122.0628476,43.1532346,0 -122.0627189,43.1536651,0 -122.0604658,43.1542443,0 -122.0593930,43.1550739,0 -122.0573974,43.1558410,0 -122.0566249,43.1558723,0 -122.0554233,43.1564045,0 -122.0549941,43.1569210,0 -122.0544362,43.1572184,0 -122.0538998,43.1575628,0 -122.0535350,43.1580011,0 -122.0537710,43.1598481,0 -122.0543075,43.1621176,0 -122.0534492,43.1630567,0 -122.0523548,43.1645592,0 -122.0522475,43.1654044,0 -122.0531702,43.1673137,0 -122.0546723,43.1686753,0 -122.0546937,43.1697238,0 -122.0543933,43.1703655,0 -122.0544362,43.1711167,0 -122.0542002,43.1714296,0 -122.0540500,43.1726972,0 -122.0533204,43.1738865,0 -122.0522046,43.1745751,0 -122.0519257,43.1759208,0 -122.0511532,43.1768597,0 -122.0490933,43.1780020,0 -122.0481062,43.1788470,0 -122.0472908,43.1810375,0 -122.0454669,43.1831185,0 -122.0453811,43.1840104,0 -122.0448661,43.1849335,0 -122.0447374,43.1857158,0 -122.0445872,43.1866858,0 -122.0436001,43.1871708,0 -122.0425058,43.1872960,0 -122.0402527,43.1892672,0 -122.0389438,43.1913323,0 -122.0390725,43.1926464,0 -122.0396519,43.1935381,0 -122.0393944,43.1939448,0 -122.0394373,43.1947426,0 -122.0399094,43.1958064,0 -122.0400596,43.1963539,0 -122.0408535,43.1972142,0 -122.0408106,43.1978869,0 -122.0397377,43.1989193,0 -122.0394588,43.2001393,0 -122.0375276,43.2017974,0 -122.0373559,43.2026264,0 -122.0361972,43.2033302,0 -122.0357681,43.2042374,0 -122.0345235,43.2051758,0 -122.0337296,43.2065522,0 -122.0337296,43.2073968,0 -122.0344806,43.2083664,0 -122.0352316,43.2089608,0 -122.0355964,43.2094769,0 -122.0373774,43.2112128,0 -122.0379782,43.2125109,0 -122.0385146,43.2133084,0 -122.0396304,43.2139652,0 -122.0398021,43.2150286,0 -122.0407462,43.2166706,0 -122.0407891,43.2180311,0 -122.0400381,43.2185628,0 -122.0392227,43.2185940,0 -122.0386219,43.2183595,0 -122.0382357,43.2177340,0 -122.0376563,43.2174838,0 -122.0369053,43.2175307,0 -122.0353604,43.2182656,0 -122.0327640,43.2189537,0 -122.0314765,43.2190631,0 -122.0293951,43.2198919,0 -122.0287943,43.2198763,0 -122.0275927,43.2201734,0 -122.0274210,43.2207050,0 -122.0272279,43.2209865,0 -122.0262408,43.2214087,0 -122.0261979,43.2217683,0 -122.0265627,43.2223625,0 -122.0263696,43.2226439,0 -122.0245028,43.2231912,0 -122.0239878,43.2234570,0 -122.0234943,43.2243013,0 -122.0225930,43.2250206,0 -122.0210052,43.2256929,0 -122.0203185,43.2264590,0 -122.0193744,43.2269594,0 -122.0184946,43.2271157,0 -122.0167566,43.2268030,0 -122.0158768,43.2268968,0 -122.0146537,43.2285697,0 -122.0146537,43.2301176,0 -122.0141387,43.2306648,0 -122.0137954,43.2318842,0 -122.0133019,43.2322750,0 -122.0128942,43.2326815,0 -122.0127440,43.2333225,0 -122.0122290,43.2339478,0 -122.0108986,43.2345732,0 -122.0095253,43.2346670,0 -122.0064354,43.2340104,0 -122.0042038,43.2343856,0 -122.0033884,43.2341980,0 -122.0023585,43.2344168,0 -122.0017147,43.2351360,0 -122.0014573,43.2363241,0 -121.9993973,43.2386064,0 -121.9967366,43.2398882,0 -121.9962645,43.2405447,0 -121.9963074,43.2418890,0 -121.9958353,43.2435459,0 -121.9946337,43.2449214,0 -121.9942475,43.2463594,0 -121.9926286,43.2484855,0 -121.9925186,43.2493155,0 -121.9928516,43.2499125,0 -121.9930999,43.2504460,0 -121.9929266,43.2510458,0 -121.9916886,43.2518364,0 -121.9903376,43.2524984,0 -121.9884465,43.2547429,0 -121.9867805,43.2558416,0 -121.9856327,43.2571024,0 </coordinates></LineString><LineString><tessellate>1</tessellate><coordinates>-122.2827572,42.9965560,0 -122.2825454,43.0677038,0 -122.1838480,43.0673690,0 -122.0763002,43.0677576,0 -122.0768577,43.0682262,0 -122.0795846,43.0694835,0 -122.0807433,43.0698440,0 -122.0820952,43.0697970,0 -122.0834470,43.0699224,0 -122.0848758,43.0708819,0 -122.0854390,43.0716500,0 -122.0858932,43.0720071,0 -122.0868373,43.0720855,0 -122.0882106,43.0721796,0 -122.0895195,43.0727282,0 -122.0910216,43.0736216,0 -122.0917082,43.0743426,0 -122.0926094,43.0750793,0 -122.0935750,43.0758317,0 -122.0938540,43.0763959,0 -122.0939613,43.0774617,0 -122.0935321,43.0804239,0 -122.0930171,43.0823046,0 -122.0923734,43.0832292,0 -122.0917726,43.0837307,0 -122.0917082,43.0848121,0 -122.0920400,43.0856500,0 -122.0922232,43.0865829,0 -122.0917726,43.0875545,0 -122.0907577,43.0887764,0 </coordinates></LineString><LineString><tessellate>1</tessellate><coordinates>-123.2296211,42.7026122,0 -123.2295657,42.7099708,0 -123.2104037,42.7099673,0 -123.2099175,42.7171821,0 -123.2005313,42.7173093,0 -123.2004035,42.7244595,0 -123.1905560,42.7245284,0 -123.1904211,42.7317006,0 -123.1803547,42.7316693,0 -123.1804292,42.7377250,0 -123.1521649,42.7377530,0 -123.1522876,42.7558452,0 -123.1126691,42.7557797,0 -123.1127149,42.7522483,0 -123.0097569,42.7521263,0 -123.0097794,42.7580079,0 -123.0097854,42.7594236,0 -122.9901410,42.7595225,0 -122.9901410,42.7610034,0 -122.9705197,42.7610266,0 -122.9710372,42.7681358,0 -122.9512971,42.7677012,0 -122.9509660,42.7748540,0 -122.8686395,42.7746630,0 -122.8529308,42.7746266,0 -122.8537376,42.7817629,0 -122.8419792,42.7811393,0 -122.8401689,42.7810433,0 -122.8341279,42.7807229,0 -122.8144141,42.7805404,0 -122.7948515,42.7782660,0 -122.7946857,42.7927375,0 -122.7848210,42.7927780,0 -122.7846910,42.8077890,0 -122.7759480,42.8079410,0 -122.7756200,42.8170430,0 -122.7753450,42.8275070,0 -122.7553480,42.8278500,0 -122.7551730,42.8223950,0 -122.7376860,42.8227010,0 -122.7371517,42.8374749,0 -122.7171407,42.8373639,0 -122.7163547,42.8519286,0 -122.6969837,42.8522566,0 -122.6968227,42.8665617,0 -122.6772672,42.8667806,0 -122.6771507,42.8809336,0 -122.6735745,42.8809489,0 -122.6378160,42.8811014,0 -122.6377269,42.8969157,0 -122.6194310,42.8967691,0 -122.6002709,42.8957297,0 -122.6001945,42.9109993,0 -122.5801461,42.9108085,0 -122.5799857,42.9246215,0 -122.5603192,42.9246620,0 -122.5601711,42.9392187,0 -122.5206900,42.9390826,0 -122.5206860,42.9396875,0 -122.4601913,42.9398460,0 -122.4602167,42.9543273,0 -122.4405796,42.9544869,0 -122.4405346,42.9688754,0 -122.4209143,42.9688914,0 -122.4207769,42.9833936,0 -122.4011099,42.9835175,0 -122.4009716,42.9966180,0 -122.2827572,42.9965560,0 </coordinates></LineString><LineString><tessellate>1</tessellate><coordinates>-123.2296211,42.7026122,0 -123.2492858,42.7024374,0 -123.2493720,42.7245430,0 -123.2742309,42.7247573,0 -123.2742596,42.7319572,0 -123.3091036,42.7320247,0 -123.3091167,42.7282410,0 -123.3280740,42.7282410,0 -123.3280740,42.7318410,0 -123.3659750,42.7320400,0 -123.3659750,42.7394400,0 -123.3711750,42.7393400,0 -123.3714750,42.7246400,0 -123.4006760,42.7246390,0 -123.4014760,42.7245900,0 -123.4016280,42.7100210,0 -123.4058760,42.7099390,0 -123.4057760,42.7137390,0 -123.4250760,42.7141390,0 -123.4248760,42.7102390,0 -123.4441770,42.7104380,0 -123.4441770,42.7031380,0 -123.4552290,42.7029220,0 -123.4552960,42.6992490,0 -123.4647770,42.6993380,0 -123.4647770,42.7028380,0 -123.4938780,42.7027370,0 -123.4937780,42.7100370,0 -123.5424800,42.7085765,0 -123.5423513,42.7158294,0 -123.5620956,42.7174902,0 -123.5619848,42.7247084,0 -123.5669492,42.7247478,0 -123.5667381,42.7355824,0 -123.5716713,42.7355903,0 -123.5717429,42.7320006,0 -123.5818039,42.7320365,0 -123.5816322,42.7397790,0 -123.6287840,42.7400360,0 -123.6601475,42.7396720,0 -123.6770743,42.7396682,0 -123.6772692,42.7432145,0 -123.6773443,42.7468073,0 -123.6775656,42.7503804,0 -123.6871677,42.7503860,0 -123.6872480,42.7539333,0 -123.6970186,42.7539695,0 -123.6968838,42.7397192,0 -123.6985382,42.7397350,0 -123.7165042,42.7396089,0 -123.7165186,42.7431678,0 -123.7165036,42.7453753,0 -123.7165011,42.7840844,0 </coordinates></LineString><LineString><tessellate>1</tessellate><coordinates>-123.8108800,42.7888441,0 -123.8108787,42.7882004,0 -123.8101677,42.7881984,0 -123.8093711,42.7880599,0 -123.8085359,42.7877687,0 -123.8072555,42.7870933,0 -123.8069242,42.7870056,0 -123.8065453,42.7870082,0 -123.8058251,42.7871034,0 -123.8047155,42.7873363,0 -123.8038142,42.7876038,0 -123.8024521,42.7881717,0 -123.8018451,42.7885091,0 -123.8014092,42.7888364,0 -123.7991620,42.7909414,0 -123.7984720,42.7914865,0 -123.7972954,42.7922242,0 -123.7966427,42.7928141,0 -123.7951262,42.7937522,0 -123.7947146,42.7940702,0 -123.7928534,42.7957942,0 -123.7915525,42.7973431,0 -123.7911636,42.7975349,0 -123.7905423,42.7977193,0 -123.7849339,42.7990547,0 -123.7843848,42.7991485,0 -123.7838716,42.7991790,0 -123.7825665,42.7994491,0 -123.7823097,42.7994509,0 -123.7811179,42.7990087,0 -123.7806279,42.7989400,0 -123.7801738,42.7988170,0 -123.7793247,42.7983906,0 -123.7784851,42.7977479,0 -123.7782270,42.7976506,0 -123.7778470,42.7975721,0 -123.7773697,42.7975483,0 -123.7753421,42.7977332,0 -123.7748285,42.7977367,0 -123.7744242,42.7976764,0 -123.7737118,42.7974290,0 -123.7732934,42.7972157,0 -123.7712944,42.7957703,0 -123.7707754,42.7953325,0 -123.7701803,42.7946791,0 -123.7699087,42.7944738,0 -123.7691232,42.7942359,0 -123.7678632,42.7941994,0 -123.7674955,42.7941298,0 -123.7670289,42.7939708,0 -123.7667707,42.7938555,0 -123.7650307,42.7925703,0 -123.7643038,42.7921249,0 -123.7640091,42.7920278,0 -123.7633241,42.7920054,0 -123.7627633,42.7921442,0 -123.7620458,42.7924641,0 -123.7615434,42.7923774,0 -123.7602365,42.7914946,0 -123.7595961,42.7911206,0 -123.7585869,42.7905869,0 -123.7580841,42.7904642,0 -123.7576903,42.7902597,0 -123.7572953,42.7899561,0 -123.7570616,42.7898406,0 -123.7551297,42.7898443,0 -123.7542471,42.7896610,0 -123.7536197,42.7893410,0 -123.7531752,42.7889837,0 -123.7527288,42.7884733,0 -123.7520867,42.7879552,0 -123.7516690,42.7877868,0 -123.7500950,42.7877043,0 -123.7496554,42.7877924,0 -123.7487314,42.7880839,0 -123.7481428,42.7882049,0 -123.7467267,42.7883045,0 -123.7464584,42.7882333,0 -123.7461823,42.7879535,0 -123.7457871,42.7878055,0 -123.7454294,42.7877782,0 -123.7446170,42.7878334,0 -123.7435588,42.7879712,0 -123.7433576,42.7879329,0 -123.7427461,42.7876862,0 -123.7422837,42.7872966,0 -123.7421194,42.7869344,0 -123.7417837,42.7865284,0 -123.7412466,42.7861333,0 -123.7411273,42.7859468,0 -123.7410524,42.7855735,0 -123.7411342,42.7854198,0 -123.7411192,42.7852880,0 -123.7408727,42.7846514,0 -123.7401712,42.7834110,0 -123.7399175,42.7831531,0 -123.7389931,42.7827748,0 -123.7380017,42.7825831,0 -123.7374651,42.7826107,0 -123.7368242,42.7825781,0 -123.7359747,42.7826334,0 -123.7357063,42.7825841,0 -123.7346699,42.7820027,0 -123.7340065,42.7817668,0 -123.7337976,42.7814595,0 -123.7333427,42.7810260,0 -123.7329921,42.7805705,0 -123.7324776,42.7801535,0 -123.7319856,42.7799397,0 -123.7317321,42.7799178,0 -123.7314714,42.7799618,0 -123.7309946,42.7802090,0 -123.7308754,42.7803353,0 -123.7304880,42.7805715,0 -123.7296163,42.7808189,0 -123.7284017,42.7809401,0 -123.7275522,42.7811105,0 -123.7265837,42.7816324,0 -123.7261665,42.7819125,0 -123.7253024,42.7825661,0 -123.7243043,42.7835106,0 -123.7239691,42.7837303,0 -123.7231866,42.7837745,0 -123.7221583,42.7839395,0 -123.7210329,42.7839233,0 -123.7201536,42.7842255,0 -123.7185662,42.7844675,0 -123.7178584,42.7847148,0 -123.7171655,42.7851267,0 -123.7164943,42.7853561,0 -123.7165011,42.7840844,0 </coordinates></LineString><LineString><tessellate>1</tessellate><coordinates>-123.8108800,42.7888441,0 -123.8107789,42.7958809,0 -123.8108658,42.8241134,0 -123.8199083,42.8241291,0 -123.8192654,42.8532848,0 -123.8193041,42.9096526,0 -123.8204033,42.9096465,0 -123.8209522,42.9199978,0 -123.8211841,42.9263518,0 -123.8210125,42.9320860,0 -123.8209252,42.9678784,0 -123.8210478,42.9723985,0 -123.8212739,42.9823934,0 -123.8212012,42.9962959,0 -123.7618032,42.9962904,0 -123.7615873,43.0079225,0 -123.7615722,43.0291514,0 -123.7613991,43.0546010,0 -123.7615764,43.0545993,0 -123.7619002,43.0831064,0 -123.7580796,43.0831437,0 -123.7495652,43.0833093,0 -123.7363044,43.0834469,0 -123.7212753,43.0834270,0 -123.7018862,43.0833723,0 -123.7019711,43.0979411,0 -123.7019844,43.1124695,0 -123.7018520,43.1270718,0 -123.7018506,43.1415054,0 -123.7019449,43.1511491,0 -123.7020553,43.1561446,0 -123.7018579,43.1608824,0 -123.7017853,43.1633614,0 -123.7015606,43.1706369,0 -123.7033287,43.1706455,0 -123.7031547,43.1853789,0 -123.7032109,43.1997649,0 -123.7034167,43.2148389,0 -123.7039453,43.2335568,0 -123.7042509,43.2443846,0 -123.7044425,43.2578499,0 -123.7374292,43.2580120,0 -123.7639809,43.2580585,0 -123.7639243,43.3069933,0 -123.7643564,43.3453078,0 -123.7617819,43.3587579,0 -123.7627692,43.3748106,0 -123.7623625,43.3971266,0 -123.7618754,43.4152924,0 -123.7613067,43.4222840,0 -123.7645313,43.4316660,0 -123.7885913,43.4315632,0 -123.8172340,43.4313402,0 -123.8171576,43.4745197,0 -123.8171614,43.4760512,0 -123.8172056,43.4903597,0 -123.8161809,43.5163367,0 -123.8370702,43.5161983,0 -123.8548311,43.5160628,0 -123.8643924,43.5157104,0 -123.8751554,43.5158598,0 -123.8752249,43.5304775,0 -123.8755930,43.5624066,0 -123.8754916,43.5743874,0 -123.8754623,43.5878897,0 -123.8756346,43.6085070,0 -123.8970209,43.6082367,0 -123.9244366,43.6080208,0 -123.9355900,43.6081170,0 -123.9496230,43.6082253,0 -123.9496290,43.6089968,0 -123.9785880,43.6091274,0 -123.9891455,43.6090740,0 -124.0010435,43.6092551,0 -124.0155919,43.6093728,0 -124.0283730,43.6093019,0 -124.0621879,43.6096018,0 -124.0832952,43.6108807,0 -124.1027611,43.6114494,0 -124.1212361,43.6112679,0 -124.1507864,43.6112225,0 -124.1804239,43.6111199,0 -124.1836219,43.6114052,0 -124.1836617,43.6104942,0 -124.2903270,43.6106190,0 </coordinates></LineString><LineString><tessellate>1</tessellate><coordinates>-124.2903270,43.6106190,0 -124.2902850,43.6107750,0 -124.2863030,43.6248370,0 -124.2803330,43.6483940,0 -124.2816140,43.6507260,0 -124.2825850,43.6534970,0 -124.2839440,43.6567670,0 -124.2849260,43.6598740,0 -124.2857600,43.6641240,0 -124.2858470,43.6682520,0 -124.2852960,43.6727260,0 -124.2814320,43.6838630,0 -124.2796350,43.6871460,0 -124.2777280,43.6899280,0 -124.2747290,43.6933970,0 -124.2715430,43.6968360,0 -124.2687500,43.6994970,0 -124.2657050,43.7015580,0 -124.2540500,43.7498400,0 -124.2512300,43.7607150,0 -124.2512300,43.7616510,0 -124.2496640,43.7666510,0 -124.2470160,43.7764580,0 -124.2436590,43.7916640,0 -124.2396940,43.8110550,0 -124.2344010,43.8398290,0 -124.2302310,43.8633600,0 </coordinates></LineString><LineString><tessellate>1</tessellate><coordinates>-122.1320440,43.4404450,0 -122.2511490,43.4402940,0 -122.2706866,43.4400042,0 -122.2707296,43.4416167,0 -122.4307394,43.4414220,0 -122.4889112,43.4414843,0 -122.5084580,43.4412430,0 -122.5084580,43.4400430,0 -122.6221610,43.4403420,0 -122.6221610,43.4384420,0 -122.7407650,43.4371420,0 -122.7403660,43.4825420,0 -122.7408930,43.4946420,0 -122.7412990,43.4998420,0 -122.7417710,43.5445530,0 -122.7832350,43.5445840,0 -122.8413230,43.5449680,0 -122.8520179,43.5447995,0 -122.8588025,43.5446926,0 -122.8761730,43.5447400,0 -122.9878350,43.5417820,0 -122.9878110,43.5397010,0 -123.0011780,43.5393740,0 -123.0301330,43.5393230,0 -123.0519460,43.5398650,0 -123.0557560,43.5395550,0 -123.0622610,43.5399220,0 -123.1074750,43.5400040,0 -123.1074830,43.5421749,0 -123.1077187,43.6058803,0 -123.1373692,43.6059095,0 -123.1375110,43.6248430,0 -123.1372870,43.6330610,0 -123.1375090,43.6493840,0 -123.1378810,43.6616860,0 -123.1381650,43.7366550,0 -123.1377860,43.7498440,0 -123.1376770,43.7796660,0 -123.2399640,43.7797030,0 -123.3476590,43.7801690,0 -123.3480160,43.8091650,0 -123.3673880,43.8086260,0 -123.3714020,43.8086410,0 -123.3879920,43.8088670,0 -123.3927300,43.8090730,0 -123.4119210,43.8090730,0 -123.4705060,43.8101960,0 -123.4706430,43.8106900,0 -123.4707290,43.8305170,0 -123.4788589,43.8302140,0 -123.5291310,43.8294710,0 -123.5289590,43.8681920,0 -123.5796810,43.8681380,0 -123.5794710,43.8748420,0 -123.5794900,43.8910570,0 -123.6193110,43.8916530,0 -123.6193015,43.9162011,0 -123.6193000,43.9201300,0 -123.6314023,43.9204331,0 -123.6589120,43.9211220,0 -123.6590460,43.9216710,0 -123.6589360,43.9358570,0 -123.7035860,43.9367980,0 -123.7036870,43.9442660,0 -123.7034610,43.9451310,0 -123.7514865,43.9443870,0 -123.8276220,43.9450450,0 -123.8278090,43.9430030,0 -123.8271130,43.9430020,0 -123.8271300,43.9426270,0 -123.8320570,43.9425890,0 -123.8321511,43.9420038,0 -123.8327240,43.9405486,0 -123.8330300,43.9350480,0 -123.8376170,43.9351100,0 -123.8377000,43.9316210,0 -123.8414340,43.9316200,0 -123.8414450,43.9288030,0 -123.8426650,43.9287620,0 -123.8427250,43.9274610,0 -123.8474110,43.9276060,0 -123.8474500,43.9272020,0 -123.8464110,43.9272590,0 -123.8464200,43.9250830,0 -123.8478830,43.9250760,0 -123.8480090,43.9238890,0 -123.8519760,43.9240660,0 -123.8519080,43.9233650,0 -123.8506410,43.9233220,0 -123.8507530,43.9215120,0 -123.8530730,43.9213780,0 -123.8531460,43.9204900,0 -123.8617700,43.9207320,0 -123.8617200,43.9195540,0 -123.8609450,43.9195400,0 -123.8610240,43.9175610,0 -123.8629180,43.9177040,0 -123.8629420,43.9173180,0 -123.8714210,43.9170160,0 -123.8713700,43.9156790,0 -123.8707620,43.9156960,0 -123.8708080,43.9140840,0 -123.8758750,43.9139850,0 -123.8760690,43.9118030,0 -123.8754390,43.9117780,0 -123.8755060,43.9101340,0 -123.8770170,43.9101430,0 -123.8774636,43.9101176,0 -123.8774570,43.9103730,0 -123.8809940,43.9103950,0 -123.8808700,43.9080340,0 -123.8805570,43.9080320,0 -123.8807240,43.9067300,0 -123.8822360,43.9065870,0 -123.8822420,43.9060820,0 -123.8959300,43.9058460,0 -123.8957050,43.9043650,0 -123.8958710,43.9031850,0 -123.8968820,43.9031340,0 -123.8968820,43.9028760,0 -123.9003170,43.9027960,0 -123.9004140,43.8995280,0 -123.9018320,43.8994390,0 -123.9018500,43.8992800,0 -123.9255130,43.8991670,0 -123.9261360,43.8844290,0 -123.9260580,43.8748410,0 -123.9253602,43.8744719,0 -123.9255100,43.8656330,0 -123.9455410,43.8710880,0 -123.9455740,43.8627410,0 -123.9557910,43.8626470,0 -124.0012220,43.8629500,0 -124.0075340,43.8627210,0 -124.0646570,43.8619310,0 -124.0647500,43.8641110,0 -124.0778670,43.8640320,0 -124.0824230,43.8636570,0 -124.1152730,43.8631220,0 -124.1213860,43.8631000,0 -124.1262270,43.8637250,0 -124.1586070,43.8635040,0 -124.2302310,43.8633600,0 </coordinates></LineString><LineString><tessellate>1</tessellate><coordinates>-122.1320440,43.4404450,0 -122.1320723,43.4401327,0 -122.1318110,43.4393924,0 -122.1317903,43.4391131,0 -122.1325727,43.4379755,0 -122.1328974,43.4377348,0 -122.1332333,43.4375753,0 -122.1333339,43.4374500,0 -122.1332549,43.4369271,0 -122.1331823,43.4368185,0 -122.1327792,43.4364913,0 -122.1321169,43.4361441,0 -122.1319443,43.4361158,0 -122.1306086,43.4362047,0 -122.1302259,43.4361748,0 -122.1297589,43.4360002,0 -122.1291243,43.4354461,0 -122.1285593,43.4352077,0 -122.1271249,43.4352868,0 -122.1260824,43.4352353,0 -122.1253257,43.4349489,0 -122.1241430,43.4347057,0 -122.1235616,43.4347553,0 -122.1212659,43.4354310,0 -122.1208818,43.4355001,0 -122.1203640,43.4354241,0 -122.1200460,43.4351965,0 -122.1196074,43.4347700,0 -122.1193163,43.4343895,0 -122.1185358,43.4328348,0 -122.1183662,43.4325994,0 -122.1181463,43.4324266,0 -122.1176316,43.4321345,0 -122.1173367,43.4320242,0 -122.1169912,43.4319945,0 -122.1161864,43.4321053,0 -122.1158417,43.4320216,0 -122.1154126,43.4317932,0 -122.1149331,43.4316274,0 -122.1146618,43.4315893,0 -122.1141821,43.4314415,0 -122.1139151,43.4311153,0 -122.1135554,43.4303651,0 -122.1124318,43.4294650,0 -122.1119411,43.4292271,0 -122.1110302,43.4289949,0 -122.1106350,43.4289828,0 -122.1098306,43.4290756,0 -122.1082456,43.4293154,0 -122.1074993,43.4296608,0 -122.1070398,43.4298192,0 -122.1067300,43.4298799,0 -122.1065078,43.4298691,0 -122.1060901,43.4297038,0 -122.1058093,43.4294765,0 -122.1052935,43.4292653,0 -122.1046321,43.4288730,0 -122.1044110,43.4287902,0 -122.1028181,43.4287237,0 -122.1019578,43.4284198,0 -122.1017024,43.4281477,0 -122.1017070,43.4278326,0 -122.1018594,43.4275546,0 -122.1016388,43.4265984,0 -122.1017677,43.4262393,0 -122.1020959,43.4257646,0 -122.1021229,43.4256118,0 -122.1018105,43.4250150,0 -122.1016634,43.4249328,0 -122.1015151,43.4249407,0 -122.1010865,43.4255136,0 -122.1006863,43.4258436,0 -122.1001893,43.4260378,0 -122.0996335,43.4260244,0 -122.0979508,43.4253628,0 -122.0974826,43.4252781,0 -122.0969142,43.4252826,0 -122.0966783,43.4253618,0 -122.0963786,43.4255756,0 -122.0960569,43.4264374,0 -122.0957535,43.4269033,0 -122.0953587,43.4276925,0 -122.0950938,43.4280596,0 -122.0939855,43.4286451,0 -122.0938228,43.4287879,0 -122.0936199,43.4291375,0 -122.0934441,43.4293252,0 -122.0932202,43.4294224,0 -122.0927756,43.4294099,0 -122.0913769,43.4287595,0 -122.0911450,43.4285686,0 -122.0909151,43.4282426,0 -122.0909706,43.4278378,0 -122.0911651,43.4272271,0 -122.0911859,43.4266600,0 -122.0907110,43.4261970,0 -122.0905675,43.4258807,0 -122.0902638,43.4255361,0 -122.0897260,43.4251536,0 -122.0892227,43.4249335,0 -122.0887213,43.4245964,0 -122.0883923,43.4242876,0 -122.0881880,43.4239078,0 -122.0879201,43.4236535,0 -122.0876381,43.4235072,0 -122.0864338,43.4230834,0 -122.0857202,43.4228886,0 -122.0851654,43.4228122,0 -122.0849442,43.4227384,0 -122.0847848,43.4226560,0 -122.0846635,43.4225110,0 -122.0844843,43.4221044,0 -122.0845397,43.4217086,0 -122.0846545,43.4214664,0 -122.0857108,43.4202323,0 -122.0858890,43.4198825,0 -122.0858923,43.4196665,0 -122.0858086,43.4194767,0 -122.0856257,43.4193222,0 -122.0853925,43.4192212,0 -122.0846650,43.4191344,0 -122.0840996,43.4189408,0 -122.0832535,43.4185288,0 -122.0831080,43.4183476,0 -122.0824982,43.4170100,0 -122.0820512,43.4155297,0 -122.0818712,43.4151771,0 -122.0813747,43.4145248,0 -122.0806286,43.4140326,0 -122.0790968,43.4132279,0 -122.0775298,43.4123058,0 -122.0750025,43.4111779,0 -122.0741303,43.4108647,0 -122.0735562,43.4104458,0 -122.0730720,43.4098026,0 -122.0726329,43.4094389,0 -122.0717133,43.4089992,0 -122.0710536,43.4085256,0 -122.0707962,43.4083975,0 -122.0705997,43.4083238,0 -122.0690961,43.4081135,0 -122.0685924,43.4079383,0 -122.0684332,43.4078470,0 -122.0677761,43.4072113,0 -122.0672253,43.4068827,0 -122.0667817,43.4068161,0 -122.0660440,43.4066029,0 -122.0641435,43.4065064,0 -122.0636885,43.4063766,0 -122.0633597,43.4060768,0 -122.0632517,43.4058688,0 -122.0631452,43.4047694,0 -122.0627274,43.4038295,0 -122.0625224,43.4035127,0 -122.0617578,43.4026420,0 -122.0610699,43.4016008,0 -122.0609166,43.4011313,0 -122.0606865,43.4008413,0 -122.0589680,43.4001699,0 -122.0580224,43.3998289,0 -122.0572105,43.3996242,0 -122.0571128,43.3995513,0 -122.0571890,43.3994169,0 -122.0576370,43.3991955,0 -122.0587804,43.3987276,0 -122.0597536,43.3980783,0 -122.0600188,43.3977023,0 -122.0607832,43.3969792,0 -122.0610732,43.3965944,0 -122.0616986,43.3960773,0 -122.0622897,43.3953798,0 -122.0627098,43.3947809,0 </coordinates></LineString><LineString><tessellate>1</tessellate><coordinates>-122.0160695,43.3241688,0 -122.0160700,43.3241851,0 -122.0160857,43.3242125,0 -122.0160423,43.3245949,0 -122.0159143,43.3248820,0 -122.0155893,43.3251493,0 -122.0150169,43.3254595,0 -122.0147770,43.3258087,0 -122.0146471,43.3262127,0 -122.0143804,43.3266877,0 -122.0120886,43.3288200,0 -122.0119254,43.3289987,0 -122.0114935,43.3297693,0 -122.0102882,43.3310736,0 -122.0094557,43.3314445,0 -122.0092810,43.3315691,0 -122.0094565,43.3321559,0 -122.0094023,43.3324526,0 -122.0092749,43.3327036,0 -122.0094876,43.3332727,0 -122.0094297,43.3345599,0 -122.0092985,43.3350450,0 -122.0089665,43.3357354,0 -122.0085614,43.3363712,0 -122.0081777,43.3372053,0 -122.0082362,43.3374039,0 -122.0090112,43.3382931,0 -122.0096150,43.3390997,0 -122.0098839,43.3400115,0 -122.0103443,43.3405287,0 -122.0104879,43.3408001,0 -122.0105270,43.3414307,0 -122.0106629,43.3421793,0 -122.0106399,43.3428364,0 -122.0108489,43.3436396,0 -122.0107083,43.3439446,0 -122.0101724,43.3442731,0 -122.0102068,43.3444355,0 -122.0104134,43.3446263,0 -122.0115029,43.3451580,0 -122.0119424,43.3454410,0 -122.0127275,43.3464832,0 -122.0129621,43.3472326,0 -122.0130942,43.3474589,0 -122.0137218,43.3483197,0 -122.0139041,43.3484924,0 -122.0143601,43.3492887,0 -122.0148919,43.3499776,0 -122.0155601,43.3506227,0 -122.0165479,43.3513425,0 -122.0171927,43.3519153,0 -122.0180175,43.3527958,0 -122.0186176,43.3538455,0 -122.0186611,43.3542060,0 -122.0188390,43.3546578,0 -122.0190689,43.3557043,0 -122.0200916,43.3580992,0 -122.0202369,43.3582715,0 -122.0207631,43.3585462,0 -122.0214581,43.3590744,0 -122.0220481,43.3599889,0 -122.0221773,43.3603952,0 -122.0220488,43.3607092,0 -122.0220057,43.3610870,0 -122.0217347,43.3618231,0 -122.0217201,43.3619670,0 -122.0217915,43.3621297,0 -122.0221232,43.3622226,0 -122.0244833,43.3620446,0 -122.0249537,43.3619586,0 -122.0257850,43.3616776,0 -122.0270571,43.3608510,0 -122.0277721,43.3601277,0 -122.0281470,43.3598337,0 -122.0292419,43.3592757,0 -122.0301732,43.3589144,0 -122.0306593,43.3586124,0 -122.0314416,43.3583129,0 -122.0322024,43.3578061,0 -122.0335039,43.3566645,0 -122.0336644,43.3566659,0 -122.0337236,43.3568194,0 -122.0335825,43.3571604,0 -122.0334044,43.3574921,0 -122.0329254,43.3581273,0 -122.0323869,43.3586180,0 -122.0319329,43.3592355,0 -122.0313449,43.3597348,0 -122.0310678,43.3600836,0 -122.0306387,43.3614576,0 -122.0304470,43.3618702,0 -122.0300478,43.3621370,0 -122.0296224,43.3625025,0 -122.0292701,43.3629228,0 -122.0291803,43.3631381,0 -122.0292235,43.3635257,0 -122.0293076,43.3636704,0 -122.0299736,43.3644685,0 -122.0302902,43.3647413,0 -122.0310016,43.3650175,0 -122.0314300,43.3652462,0 -122.0316980,43.3654646,0 -122.0330314,43.3669886,0 -122.0331485,43.3673858,0 -122.0331312,43.3677008,0 -122.0330051,43.3678708,0 -122.0324558,43.3682623,0 -122.0323407,43.3685135,0 -122.0323507,43.3686576,0 -122.0326067,43.3688579,0 -122.0329133,43.3689866,0 -122.0340479,43.3690412,0 -122.0350355,43.3690315,0 -122.0355642,43.3691620,0 -122.0368511,43.3697401,0 -122.0386920,43.3704039,0 -122.0398558,43.3709630,0 -122.0405649,43.3713921,0 -122.0411535,43.3716402,0 -122.0417768,43.3720326,0 -122.0426021,43.3729309,0 -122.0428707,43.3731133,0 -122.0436002,43.3738217,0 -122.0443154,43.3746561,0 -122.0445088,43.3749683,0 -122.0448848,43.3753452,0 -122.0452877,43.3756277,0 -122.0463709,43.3766092,0 -122.0471657,43.3770930,0 -122.0480611,43.3774606,0 -122.0486896,43.3775289,0 -122.0492658,43.3777858,0 -122.0502565,43.3783793,0 -122.0521744,43.3804662,0 -122.0525542,43.3806495,0 -122.0529599,43.3807609,0 -122.0538339,43.3809212,0 -122.0541673,43.3809149,0 -122.0547365,43.3808296,0 -122.0552174,43.3808696,0 -122.0555857,43.3809987,0 -122.0560143,43.3812273,0 -122.0564128,43.3817979,0 -122.0569985,43.3830363,0 -122.0572555,43.3839839,0 -122.0575066,43.3845082,0 -122.0579561,43.3849802,0 -122.0586261,43.3855620,0 -122.0591605,43.3861336,0 -122.0593412,43.3864233,0 -122.0595386,43.3880277,0 -122.0597773,43.3893623,0 -122.0602405,43.3905456,0 -122.0605419,43.3910164,0 -122.0610173,43.3914164,0 -122.0611498,43.3916336,0 -122.0615630,43.3920602,0 -122.0620628,43.3924785,0 -122.0623537,43.3928321,0 -122.0627196,43.3939246,0 -122.0627098,43.3947809,0 </coordinates></LineString></MultiGeometry></Placemark><Placemark><name>Jackson County</name><ExtendedData><Data name="featureClass"><value>county</value></Data><Data name="osmType"><value>relation</value></Data><Data name="osmId"><value>1837116</value></Data></ExtendedData><MultiGeometry><LineString><tessellate>1</tessellate><coordinates>-122.2873799,42.2675996,0 -122.2874021,42.2498716,0 -122.2874059,42.2434097,0 </coordinates></LineString><LineString><tessellate>1</tessellate><coordinates>-123.2313434,42.0039496,0 -123.2312777,42.0068577,0 -123.2312217,42.0093208,0 -123.2311836,42.0146580,0 -123.2311175,42.0241457,0 -123.2311167,42.0244550,0 -123.2311134,42.0275019,0 -123.2311113,42.0299407,0 -123.2311103,42.0311200,0 -123.2311106,42.0315081,0 -123.2311090,42.0325680,0 -123.2311038,42.0387720,0 -123.2311013,42.0392941,0 -123.2310991,42.0399787,0 -123.2310572,42.0531795,0 -123.2309471,42.0872426,0 -123.2309627,42.0909301,0 -123.2311213,42.1283547,0 -123.2289219,42.1283388,0 -123.2295144,42.1561473,0 -123.2296590,42.1592150,0 -123.2297090,42.1675620,0 -123.2298370,42.1721740,0 -123.2297904,42.1769934,0 -123.2297848,42.1775723,0 -123.2297819,42.1778717,0 -123.2297769,42.1783920,0 -123.2297721,42.1788877,0 -123.2297606,42.1800793,0 -123.2297562,42.1805399,0 -123.2297477,42.1814097,0 -123.2295830,42.1984540,0 -123.2297030,42.2013620,0 -123.2297728,42.2059550,0 -123.2300950,42.2271560,0 -123.2298100,42.2302430,0 -123.2299870,42.2329340,0 -123.2300590,42.2408980,0 -123.2299220,42.2518100,0 -123.2300270,42.2874380,0 -123.2295860,42.3127000,0 -123.2293550,42.3595650,0 -123.2294560,42.3596960,0 -123.2293070,42.3754260,0 -123.2293160,42.4252880,0 -123.2291850,42.4336220,0 -123.2293120,42.4402710,0 -123.2292500,42.4512120,0 -123.2293530,42.4758310,0 -123.2292940,42.4808300,0 -123.2282370,42.4959540,0 -123.2278760,42.4998250,0 -123.2278080,42.5039680,0 -123.2278480,42.5067050,0 -123.2279670,42.5075160,0 -123.2298080,42.5496580,0 -123.2299770,42.5587220,0 -123.2299050,42.5638330,0 -123.2302180,42.5722890,0 -123.2309330,42.6139130,0 -123.2307180,42.6143750,0 -123.2299980,42.6232900,0 -123.2298480,42.6248420,0 -123.2297710,42.6248420,0 -123.2297715,42.6261866,0 -123.2297874,42.6730726,0 -123.2297889,42.6772649,0 -123.2297910,42.6833110,0 -123.2296211,42.7026122,0 </coordinates></LineString><LineString><tessellate>1</tessellate><coordinates>-123.2296211,42.7026122,0 -123.2295657,42.7099708,0 -123.2104037,42.7099673,0 -123.2099175,42.7171821,0 -123.2005313,42.7173093,0 -123.2004035,42.7244595,0 -123.1905560,42.7245284,0 -123.1904211,42.7317006,0 -123.1803547,42.7316693,0 -123.1804292,42.7377250,0 -123.1521649,42.7377530,0 -123.1522876,42.7558452,0 -123.1126691,42.7557797,0 -123.1127149,42.7522483,0 -123.0097569,42.7521263,0 -123.0097794,42.7580079,0 -123.0097854,42.7594236,0 -122.9901410,42.7595225,0 -122.9901410,42.7610034,0 -122.9705197,42.7610266,0 -122.9710372,42.7681358,0 -122.9512971,42.7677012,0 -122.9509660,42.7748540,0 -122.8686395,42.7746630,0 -122.8529308,42.7746266,0 -122.8537376,42.7817629,0 -122.8419792,42.7811393,0 -122.8401689,42.7810433,0 -122.8341279,42.7807229,0 -122.8144141,42.7805404,0 -122.7948515,42.7782660,0 -122.7946857,42.7927375,0 -122.7848210,42.7927780,0 -122.7846910,42.8077890,0 -122.7759480,42.8079410,0 -122.7756200,42.8170430,0 -122.7753450,42.8275070,0 -122.7553480,42.8278500,0 -122.7551730,42.8223950,0 -122.7376860,42.8227010,0 -122.7371517,42.8374749,0 -122.7171407,42.8373639,0 -122.7163547,42.8519286,0 -122.6969837,42.8522566,0 -122.6968227,42.8665617,0 -122.6772672,42.8667806,0 -122.6771507,42.8809336,0 -122.6735745,42.8809489,0 -122.6378160,42.8811014,0 -122.6377269,42.8969157,0 -122.6194310,42.8967691,0 -122.6002709,42.8957297,0 -122.6001945,42.9109993,0 -122.5801461,42.9108085,0 -122.5799857,42.9246215,0 -122.5603192,42.9246620,0 -122.5601711,42.9392187,0 -122.5206900,42.9390826,0 -122.5206860,42.9396875,0 -122.4601913,42.9398460,0 -122.4602167,42.9543273,0 -122.4405796,42.9544869,0 -122.4405346,42.9688754,0 -122.4209143,42.9688914,0 -122.4207769,42.9833936,0 -122.4011099,42.9835175,0 -122.4009716,42.9966180,0 -122.2827572,42.9965560,0 </coordinates></LineString><LineString><tessellate>1</tessellate><coordinates>-122.2828346,42.7892285,0 -122.2827384,42.7942937,0 -122.2838080,42.8237515,0 -122.2838473,42.9108917,0 -122.2827738,42.9108895,0 -122.2827435,42.9543444,0 -122.2827572,42.9965560,0 </coordinates></LineString><LineString><tessellate>1</tessellate><coordinates>-122.2835867,42.7002042,0 -122.2834680,42.7537730,0 -122.2828346,42.7892285,0 </coordinates></LineString><LineString><tessellate>1</tessellate><coordinates>-122.2840394,42.6249093,0 -122.2838530,42.6631160,0 -122.2839280,42.6724990,0 -122.2835867,42.7002042,0 </coordinates></LineString><LineString><tessellate>1</tessellate><coordinates>-122.2841559,42.5903194,0 -122.2840654,42.6003643,0 -122.2839920,42.6085930,0 -122.2840780,42.6117780,0 -122.2840394,42.6249093,0 </coordinates></LineString><LineString><tessellate>1</tessellate><coordinates>-122.2846438,42.4981756,0 -122.2841559,42.5903194,0 </coordinates></LineString><LineString><tessellate>1</tessellate><coordinates>-122.2876973,42.4035791,0 -122.2878063,42.4745018,0 -122.2846951,42.4744944,0 -122.2846438,42.4981756,0 </coordinates></LineString><LineString><tessellate>1</tessellate><coordinates>-122.2876804,42.4019849,0 -122.2876973,42.4035791,0 </coordinates></LineString><LineString><tessellate>1</tessellate><coordinates>-122.2876162,42.3714402,0 -122.2876630,42.3975190,0 -122.2876804,42.4019849,0 </coordinates></LineString><LineString><tessellate>1</tessellate><coordinates>-122.2873799,42.2675996,0 -122.2874120,42.2726690,0 -122.2873380,42.2869390,0 -122.2873825,42.2948011,0 -122.2874860,42.3130980,0 -122.2874280,42.3263140,0 -122.2876010,42.3424820,0 -122.2876162,42.3714402,0 </coordinates></LineString><LineString><tessellate>1</tessellate><coordinates>-122.2895330,42.0077690,0 -122.2895370,42.0112290,0 -122.2896830,42.0789750,0 -122.2896630,42.1122850,0 -122.2897400,42.1225610,0 -122.2903510,42.1270920,0 -122.2897260,42.1271620,0 -122.2874460,42.1271680,0 -122.2873420,42.1413570,0 -122.2873980,42.1794650,0 -122.2874059,42.2434097,0 </coordinates></LineString><LineString><tessellate>1</tessellate><coordinates>-122.3584328,42.0092211,0 -122.3436908,42.0090167,0 -122.3040890,42.0083512,0 -122.2895330,42.0077690,0 </coordinates></LineString><LineString><tessellate>1</tessellate><coordinates>-122.4075983,42.0085334,0 -122.3972513,42.0087021,0 -122.3878763,42.0090984,0 -122.3761310,42.0094990,0 -122.3761310,42.0094268,0 -122.3633267,42.0092892,0 -122.3584328,42.0092211,0 </coordinates></LineString><LineString><tessellate>1</tessellate><coordinates>-122.5821507,42.0065540,0 -122.5626124,42.0070772,0 -122.5348685,42.0076818,0 -122.5235574,42.0080028,0 -122.5155409,42.0080478,0 -122.5043293,42.0080654,0 -122.5011354,42.0081147,0 -122.5011353,42.0080425,0 -122.4968037,42.0080559,0 -122.4781184,42.0081139,0 -122.4602127,42.0082308,0 -122.4407350,42.0082963,0 -122.4358203,42.0083395,0 -122.4210894,42.0083517,0 -122.4075983,42.0085334,0 </coordinates></LineString><LineString><tessellate>1</tessellate><coordinates>-122.6395612,42.0049654,0 -122.6325221,42.0050260,0 -122.6261393,42.0050809,0 -122.6261391,42.0051261,0 -122.6157490,42.0054577,0 -122.6156842,42.0054023,0 -122.6156441,42.0054144,0 -122.6156014,42.0054273,0 -122.6153878,42.0054237,0 -122.6153190,42.0054443,0 -122.6152177,42.0054747,0 -122.6011206,42.0059246,0 -122.5821507,42.0065540,0 </coordinates></LineString><LineString><tessellate>1</tessellate><coordinates>-123.2313434,42.0039496,0 -123.2168006,42.0045555,0 -123.2164295,42.0045692,0 -123.2115270,42.0047493,0 -123.1917867,42.0056083,0 -123.1749974,42.0065992,0 -123.1667359,42.0072134,0 -123.1661404,42.0072576,0 -123.1539180,42.0081663,0 -123.1509211,42.0083891,0 -123.1502512,42.0084389,0 -123.1459166,42.0087612,0 -123.1379400,42.0084457,0 -123.1333782,42.0082653,0 -123.1331612,42.0082567,0 -123.1291996,42.0081000,0 -123.1097079,42.0073290,0 -123.0977284,42.0064483,0 -123.0833876,42.0053116,0 -123.0808005,42.0051379,0 -123.0724961,42.0051017,0 -123.0690671,42.0050868,0 -123.0647294,42.0050104,0 -123.0525740,42.0039865,0 -123.0454873,42.0033896,0 -123.0415419,42.0033578,0 -123.0327545,42.0032685,0 -123.0129721,42.0031441,0 -123.0076515,42.0031197,0 -122.9933707,42.0032230,0 -122.9883048,42.0032596,0 -122.9819267,42.0033279,0 -122.9795038,42.0033538,0 -122.9762946,42.0033881,0 -122.9701137,42.0034543,0 -122.9685495,42.0034711,0 -122.9560965,42.0035151,0 -122.9494436,42.0035386,0 -122.9335987,42.0036366,0 -122.9300455,42.0036586,0 -122.9282129,42.0036618,0 -122.9256408,42.0036662,0 -122.9109607,42.0036915,0 -122.8968259,42.0037489,0 -122.8803408,42.0039133,0 -122.8559044,42.0038677,0 -122.8326396,42.0042147,0 -122.8169099,42.0042538,0 -122.7716304,42.0039936,0 -122.7634729,42.0040710,0 -122.7586253,42.0041170,0 -122.7350494,42.0041542,0 -122.7156649,42.0040986,0 -122.7112931,42.0041380,0 -122.6915666,42.0043158,0 -122.6784244,42.0044916,0 -122.6574162,42.0048363,0 -122.6395612,42.0049654,0 </coordinates></LineString></MultiGeometry></Placemark></Document></kml>
