<?xml version="1.0" encoding="UTF-8"?><kml xmlns="http://www.opengis.net/kml/2.2"><Document><name>landscape-features</name><Placemark><name>Rogue Elk</name><ExtendedData><Data name="featureClass"><value>hamlet</value></Data><Data name="osmType"><value>node</value></Data><Data name="osmId"><value>150939782</value></Data></ExtendedData><Point><coordinates>-122.7594870,42.6623474,0</coordinates></Point></Placemark><Placemark><name>Shady Cove</name><ExtendedData><Data name="featureClass"><value>village</value></Data><Data name="osmType"><value>node</value></Data><Data name="osmId"><value>150940579</value></Data></ExtendedData><Point><coordinates>-122.8125440,42.6106810,0</coordinates></Point></Placemark><Placemark><name>Trail</name><ExtendedData><Data name="featureClass"><value>hamlet</value></Data><Data name="osmType"><value>node</value></Data><Data name="osmId"><value>150940921</value></Data></ExtendedData><Point><coordinates>-122.8105998,42.6484582,0</coordinates></Point></Placemark><Placemark><name>Beagle</name><ExtendedData><Data name="featureClass"><value>hamlet</value></Data><Data name="osmType"><value>node</value></Data><Data name="osmId"><value>150945918</value></Data></ExtendedData><Point><coordinates>-122.9253236,42.5345684,0</coordinates></Point></Placemark><Placemark><name>Brownsboro</name><ExtendedData><Data name="featureClass"><value>hamlet</value></Data><Data name="osmType"><value>node</value></Data><Data name="osmId"><value>150950839</value></Data></ExtendedData><Point><coordinates>-122.7100366,42.4681827,0</coordinates></Point></Placemark><Placemark><name>Table Rock</name><ExtendedData><Data name="featureClass"><value>hamlet</value></Data><Data name="osmType"><value>node</value></Data><Data name="osmId"><value>150955165</value></Data></ExtendedData><Point><coordinates>-122.9128211,42.4512357,0</coordinates></Point></Placemark><Placemark><name>Eagle Point</name><ExtendedData><Data name="featureClass"><value>village</value></Data><Data name="osmType"><value>node</value></Data><Data name="osmId"><value>150956451</value></Data></ExtendedData><Point><coordinates>-122.8014155,42.4718284,0</coordinates></Point></Placemark><Placemark><name>McLeod</name><ExtendedData><Data name="featureClass"><value>hamlet</value></Data><Data name="osmType"><value>node</value></Data><Data name="osmId"><value>150961782</value></Data></ExtendedData><Point><coordinates>-122.6899744,42.6608098,0</coordinates></Point></Placemark><Placemark><name>Sams Valley</name><ExtendedData><Data name="featureClass"><value>hamlet</value></Data><Data name="osmType"><value>node</value></Data><Data name="osmId"><value>150968314</value></Data></ExtendedData><Point><coordinates>-122.9753242,42.4915124,0</coordinates></Point></Placemark><Placemark><name>Bitter Lick</name><ExtendedData><Data name="featureClass"><value>locality</value></Data><Data name="osmType"><value>node</value></Data><Data name="osmId"><value>150968831</value></Data></ExtendedData><Point><coordinates>-122.6390010,42.7975519,0</coordinates></Point></Placemark><Placemark><name>Wimer</name><ExtendedData><Data name="featureClass"><value>hamlet</value></Data><Data name="osmType"><value>node</value></Data><Data name="osmId"><value>150972684</value></Data></ExtendedData><Point><coordinates>-123.1489432,42.5387321,0</coordinates></Point></Placemark><Placemark><name>Starvation Heights</name><ExtendedData><Data name="featureClass"><value>hamlet</value></Data><Data name="osmType"><value>node</value></Data><Data name="osmId"><value>150977136</value></Data></ExtendedData><Point><coordinates>-123.1681094,42.4853984,0</coordinates></Point></Placemark><Placemark><name>Boswell Mountain</name><ExtendedData><Data name="featureClass"><value>peak</value></Data><Data name="osmType"><value>node</value></Data><Data name="osmId"><value>357277752</value></Data></ExtendedData><Point><coordinates>-122.9119921,42.6217906,0</coordinates></Point></Placemark><Placemark><name>Cedar Buttes</name><ExtendedData><Data name="featureClass"><value>peak</value></Data><Data name="osmType"><value>node</value></Data><Data name="osmId"><value>357278633</value></Data></ExtendedData><Point><coordinates>-122.7003158,42.5504044,0</coordinates></Point></Placemark><Placemark><name>False Face Mountain</name><ExtendedData><Data name="featureClass"><value>peak</value></Data><Data name="osmType"><value>node</value></Data><Data name="osmId"><value>357280494</value></Data></ExtendedData><Point><coordinates>-123.1092205,42.5784550,0</coordinates></Point></Placemark><Placemark><name>Hull Mountain</name><ExtendedData><Data name="featureClass"><value>peak</value></Data><Data name="osmType"><value>node</value></Data><Data name="osmId"><value>357282244</value></Data></ExtendedData><Point><coordinates>-122.9925500,42.5895677,0</coordinates></Point></Placemark><Placemark><name>Joe Dyer Butte</name><ExtendedData><Data name="featureClass"><value>peak</value></Data><Data name="osmType"><value>node</value></Data><Data name="osmId"><value>357282732</value></Data></ExtendedData><Point><coordinates>-122.7389296,42.6140146,0</coordinates></Point></Placemark><Placemark><name>Long Mountain</name><ExtendedData><Data name="featureClass"><value>peak</value></Data><Data name="osmType"><value>node</value></Data><Data name="osmId"><value>357283917</value></Data></ExtendedData><Point><coordinates>-122.8350415,42.4962362,0</coordinates></Point></Placemark><Placemark><name>Patrick Mountain</name><ExtendedData><Data name="featureClass"><value>peak</value></Data><Data name="osmType"><value>node</value></Data><Data name="osmId"><value>357285901</value></Data></ExtendedData><Point><coordinates>-123.1914496,42.8312316,0</coordinates></Point></Placemark><Placemark><name>Rocky Hill</name><ExtendedData><Data name="featureClass"><value>peak</value></Data><Data name="osmType"><value>node</value></Data><Data name="osmId"><value>357287151</value></Data></ExtendedData><Point><coordinates>-122.6450367,42.5784605,0</coordinates></Point></Placemark><Placemark><name>Round Top</name><ExtendedData><Data name="featureClass"><value>peak</value></Data><Data name="osmType"><value>node</value></Data><Data name="osmId"><value>357287361</value></Data></ExtendedData><Point><coordinates>-122.6847594,42.5406824,0</coordinates></Point></Placemark><Placemark><name>Sardine Mountain</name><ExtendedData><Data name="featureClass"><value>peak</value></Data><Data name="osmType"><value>node</value></Data><Data name="osmId"><value>357287895</value></Data></ExtendedData><Point><coordinates>-123.0542170,42.5245667,0</coordinates></Point></Placemark><Placemark><name>Vestal Butte</name><ExtendedData><Data name="featureClass"><value>peak</value></Data><Data name="osmType"><value>node</value></Data><Data name="osmId"><value>357290535</value></Data></ExtendedData><Point><coordinates>-122.7780967,42.5706809,0</coordinates></Point></Placemark><Placemark><name>Young Hill</name><ExtendedData><Data name="featureClass"><value>peak</value></Data><Data name="osmType"><value>node</value></Data><Data name="osmId"><value>357291776</value></Data></ExtendedData><Point><coordinates>-122.8269850,42.4665145,0</coordinates></Point></Placemark><Placemark><name>Skou Reservoir</name><ExtendedData><Data name="featureClass"><value>water</value></Data><Data name="osmType"><value>node</value></Data><Data name="osmId"><value>357295949</value></Data></ExtendedData><Point><coordinates>-122.9147178,42.4927642,0</coordinates></Point></Placemark><Placemark><name>Cinnabar Mountain</name><ExtendedData><Data name="featureClass"><value>peak</value></Data><Data name="osmType"><value>node</value></Data><Data name="osmId"><value>357297788</value></Data></ExtendedData><Point><coordinates>-122.9344917,42.5734572,0</coordinates></Point></Placemark><Placemark><name>Quackenbush Reservoir</name><ExtendedData><Data name="featureClass"><value>water</value></Data><Data name="osmType"><value>node</value></Data><Data name="osmId"><value>357297810</value></Data></ExtendedData><Point><coordinates>-122.9146957,42.4924478,0</coordinates></Point></Placemark><Placemark><name>Mosser Mountain</name><ExtendedData><Data name="featureClass"><value>peak</value></Data><Data name="osmType"><value>node</value></Data><Data name="osmId"><value>357303778</value></Data></ExtendedData><Point><coordinates>-122.8067079,42.5262364,0</coordinates></Point></Placemark><Placemark><name>Takelma County Park</name><ExtendedData><Data name="featureClass"><value>park</value></Data><Data name="osmType"><value>node</value></Data><Data name="osmId"><value>357303781</value></Data></ExtendedData><Point><coordinates>-122.8414327,42.5762359,0</coordinates></Point></Placemark><Placemark><name>Horse Mountain</name><ExtendedData><Data name="featureClass"><value>peak</value></Data><Data name="osmType"><value>node</value></Data><Data name="osmId"><value>357303814</value></Data></ExtendedData><Point><coordinates>-123.0061647,42.6906787,0</coordinates></Point></Placemark><Placemark><name>Eagle Point</name><ExtendedData><Data name="featureClass"><value>peak</value></Data><Data name="osmType"><value>node</value></Data><Data name="osmId"><value>357304303</value></Data></ExtendedData><Point><coordinates>-122.7908727,42.4709593,0</coordinates></Point></Placemark><Placemark><name>Lover Peak</name><ExtendedData><Data name="featureClass"><value>peak</value></Data><Data name="osmType"><value>node</value></Data><Data name="osmId"><value>357304379</value></Data></ExtendedData><Point><coordinates>-123.1078311,42.5584550,0</coordinates></Point></Placemark><Placemark><name>Gold Nugget County Recreation Area</name><ExtendedData><Data name="featureClass"><value>park</value></Data><Data name="osmType"><value>node</value></Data><Data name="osmId"><value>357304789</value></Data></ExtendedData><Point><coordinates>-123.0300477,42.4567896,0</coordinates></Point></Placemark><Placemark><name>Bald Mountain</name><ExtendedData><Data name="featureClass"><value>peak</value></Data><Data name="osmType"><value>node</value></Data><Data name="osmId"><value>357305128</value></Data></ExtendedData><Point><coordinates>-123.0719975,42.5990112,0</coordinates></Point></Placemark><Placemark><name>Black Butte</name><ExtendedData><Data name="featureClass"><value>peak</value></Data><Data name="osmType"><value>node</value></Data><Data name="osmId"><value>357305209</value></Data></ExtendedData><Point><coordinates>-123.1056102,42.6201219,0</coordinates></Point></Placemark><Placemark><name>Chimney Rock Butte</name><ExtendedData><Data name="featureClass"><value>peak</value></Data><Data name="osmType"><value>node</value></Data><Data name="osmId"><value>357305315</value></Data></ExtendedData><Point><coordinates>-122.9642146,42.5556791,0</coordinates></Point></Placemark><Placemark><name>Elkhorn Butte</name><ExtendedData><Data name="featureClass"><value>peak</value></Data><Data name="osmType"><value>node</value></Data><Data name="osmId"><value>357305467</value></Data></ExtendedData><Point><coordinates>-123.0000495,42.5640121,0</coordinates></Point></Placemark><Placemark><name>Green Mountain</name><ExtendedData><Data name="featureClass"><value>peak</value></Data><Data name="osmType"><value>node</value></Data><Data name="osmId"><value>357305553</value></Data></ExtendedData><Point><coordinates>-123.1633929,42.7512329,0</coordinates></Point></Placemark><Placemark><name>Green Top</name><ExtendedData><Data name="featureClass"><value>peak</value></Data><Data name="osmType"><value>node</value></Data><Data name="osmId"><value>357305562</value></Data></ExtendedData><Point><coordinates>-122.7164267,42.5176265,0</coordinates></Point></Placemark><Placemark><name>Lyman Mountain</name><ExtendedData><Data name="featureClass"><value>peak</value></Data><Data name="osmType"><value>node</value></Data><Data name="osmId"><value>357305748</value></Data></ExtendedData><Point><coordinates>-123.0241925,42.4753829,0</coordinates></Point></Placemark><Placemark><name>McConville Peak</name><ExtendedData><Data name="featureClass"><value>peak</value></Data><Data name="osmType"><value>node</value></Data><Data name="osmId"><value>357305760</value></Data></ExtendedData><Point><coordinates>-123.0469948,42.5367891,0</coordinates></Point></Placemark><Placemark><name>Nugget Butte</name><ExtendedData><Data name="featureClass"><value>peak</value></Data><Data name="osmType"><value>node</value></Data><Data name="osmId"><value>357305816</value></Data></ExtendedData><Point><coordinates>-123.0572710,42.4529004,0</coordinates></Point></Placemark><Placemark><name>Obenchain Mountain</name><ExtendedData><Data name="featureClass"><value>peak</value></Data><Data name="osmType"><value>node</value></Data><Data name="osmId"><value>357305834</value></Data></ExtendedData><Point><coordinates>-122.6711478,42.5409604,0</coordinates></Point></Placemark><Placemark><name>Wilcox Peak</name><ExtendedData><Data name="featureClass"><value>peak</value></Data><Data name="osmType"><value>node</value></Data><Data name="osmId"><value>357306229</value></Data></ExtendedData><Point><coordinates>-123.1053298,42.5123437,0</coordinates></Point></Placemark><Placemark><name>Bailey Butte</name><ExtendedData><Data name="featureClass"><value>peak</value></Data><Data name="osmType"><value>node</value></Data><Data name="osmId"><value>357306567</value></Data></ExtendedData><Point><coordinates>-122.6489298,42.7579036,0</coordinates></Point></Placemark><Placemark><name>Battle Mountain</name><ExtendedData><Data name="featureClass"><value>peak</value></Data><Data name="osmType"><value>node</value></Data><Data name="osmId"><value>357306860</value></Data></ExtendedData><Point><coordinates>-123.1139445,42.6420663,0</coordinates></Point></Placemark><Placemark><name>Bear Mountain</name><ExtendedData><Data name="featureClass"><value>peak</value></Data><Data name="osmType"><value>node</value></Data><Data name="osmId"><value>357306926</value></Data></ExtendedData><Point><coordinates>-122.7592090,42.6515142,0</coordinates></Point></Placemark><Placemark><name>Board Mountain</name><ExtendedData><Data name="featureClass"><value>peak</value></Data><Data name="osmType"><value>node</value></Data><Data name="osmId"><value>357307284</value></Data></ExtendedData><Point><coordinates>-122.9028263,42.6617907,0</coordinates></Point></Placemark><Placemark><name>Buckhorn Mountain</name><ExtendedData><Data name="featureClass"><value>peak</value></Data><Data name="osmType"><value>node</value></Data><Data name="osmId"><value>357307538</value></Data></ExtendedData><Point><coordinates>-122.7408782,42.8245682,0</coordinates></Point></Placemark><Placemark><name>Burnt Peak</name><ExtendedData><Data name="featureClass"><value>peak</value></Data><Data name="osmType"><value>node</value></Data><Data name="osmId"><value>357307662</value></Data></ExtendedData><Point><coordinates>-122.6608745,42.7495702,0</coordinates></Point></Placemark><Placemark><name>Camel Hump</name><ExtendedData><Data name="featureClass"><value>peak</value></Data><Data name="osmType"><value>node</value></Data><Data name="osmId"><value>357307773</value></Data></ExtendedData><Point><coordinates>-122.7347634,42.6398478,0</coordinates></Point></Placemark><Placemark><name>Cedar Springs Mountain</name><ExtendedData><Data name="featureClass"><value>peak</value></Data><Data name="osmType"><value>node</value></Data><Data name="osmId"><value>357307928</value></Data></ExtendedData><Point><coordinates>-123.1222807,42.7620665,0</coordinates></Point></Placemark><Placemark><name>Cowbell Mountain</name><ExtendedData><Data name="featureClass"><value>peak</value></Data><Data name="osmType"><value>node</value></Data><Data name="osmId"><value>357308343</value></Data></ExtendedData><Point><coordinates>-122.8669945,42.8392894,0</coordinates></Point></Placemark><Placemark><name>Elkhorn Peak</name><ExtendedData><Data name="featureClass"><value>peak</value></Data><Data name="osmType"><value>node</value></Data><Data name="osmId"><value>357309155</value></Data></ExtendedData><Point><coordinates>-122.7325450,42.8448458,0</coordinates></Point></Placemark><Placemark><name>Fawn Butte</name><ExtendedData><Data name="featureClass"><value>peak</value></Data><Data name="osmType"><value>node</value></Data><Data name="osmId"><value>357309243</value></Data></ExtendedData><Point><coordinates>-122.6572624,42.7112372,0</coordinates></Point></Placemark><Placemark><name>Geppert Butte</name><ExtendedData><Data name="featureClass"><value>peak</value></Data><Data name="osmType"><value>node</value></Data><Data name="osmId"><value>357309621</value></Data></ExtendedData><Point><coordinates>-122.6297570,42.5192945,0</coordinates></Point></Placemark><Placemark><name>Gobblers Knob</name><ExtendedData><Data name="featureClass"><value>peak</value></Data><Data name="osmType"><value>node</value></Data><Data name="osmId"><value>357309708</value></Data></ExtendedData><Point><coordinates>-122.7217106,42.7959578,0</coordinates></Point></Placemark><Placemark><name>Hawk Mountain</name><ExtendedData><Data name="featureClass"><value>peak</value></Data><Data name="osmType"><value>node</value></Data><Data name="osmId"><value>357310184</value></Data></ExtendedData><Point><coordinates>-122.7592124,42.8304014,0</coordinates></Point></Placemark><Placemark><name>Ike Butte</name><ExtendedData><Data name="featureClass"><value>peak</value></Data><Data name="osmType"><value>node</value></Data><Data name="osmId"><value>357310665</value></Data></ExtendedData><Point><coordinates>-123.0745019,42.8315103,0</coordinates></Point></Placemark><Placemark><name>Little Battle Mountain</name><ExtendedData><Data name="featureClass"><value>peak</value></Data><Data name="osmType"><value>node</value></Data><Data name="osmId"><value>357311756</value></Data></ExtendedData><Point><coordinates>-123.0564426,42.6420670,0</coordinates></Point></Placemark><Placemark><name>McLeod Wayside</name><ExtendedData><Data name="featureClass"><value>park</value></Data><Data name="osmType"><value>node</value></Data><Data name="osmId"><value>357312324</value></Data></ExtendedData><Point><coordinates>-122.6828179,42.6706816,0</coordinates></Point></Placemark><Placemark><name>Miller Mountain</name><ExtendedData><Data name="featureClass"><value>peak</value></Data><Data name="osmType"><value>node</value></Data><Data name="osmId"><value>357312414</value></Data></ExtendedData><Point><coordinates>-122.6930984,42.7937359,0</coordinates></Point></Placemark><Placemark><name>Mule Hill</name><ExtendedData><Data name="featureClass"><value>peak</value></Data><Data name="osmType"><value>node</value></Data><Data name="osmId"><value>357312723</value></Data></ExtendedData><Point><coordinates>-122.6364298,42.7812366,0</coordinates></Point></Placemark><Placemark><name>Mule Hill</name><ExtendedData><Data name="featureClass"><value>peak</value></Data><Data name="osmType"><value>node</value></Data><Data name="osmId"><value>357312726</value></Data></ExtendedData><Point><coordinates>-122.8111587,42.8159568,0</coordinates></Point></Placemark><Placemark><name>Panther Peak</name><ExtendedData><Data name="featureClass"><value>peak</value></Data><Data name="osmType"><value>node</value></Data><Data name="osmId"><value>357313235</value></Data></ExtendedData><Point><coordinates>-123.0458895,42.7390118,0</coordinates></Point></Placemark><Placemark><name>Pilot Rock</name><ExtendedData><Data name="featureClass"><value>peak</value></Data><Data name="osmType"><value>node</value></Data><Data name="osmId"><value>357313461</value></Data></ExtendedData><Point><coordinates>-122.8103249,42.7706797,0</coordinates></Point></Placemark><Placemark><name>Ragsdale Butte</name><ExtendedData><Data name="featureClass"><value>peak</value></Data><Data name="osmType"><value>node</value></Data><Data name="osmId"><value>357313972</value></Data></ExtendedData><Point><coordinates>-122.7839350,42.7848464,0</coordinates></Point></Placemark><Placemark><name>Red Mountain</name><ExtendedData><Data name="featureClass"><value>peak</value></Data><Data name="osmType"><value>node</value></Data><Data name="osmId"><value>357314156</value></Data></ExtendedData><Point><coordinates>-123.0125557,42.7723451,0</coordinates></Point></Placemark><Placemark><name>Richter Mountain</name><ExtendedData><Data name="featureClass"><value>peak</value></Data><Data name="osmType"><value>node</value></Data><Data name="osmId"><value>357314311</value></Data></ExtendedData><Point><coordinates>-122.9489420,42.7637345,0</coordinates></Point></Placemark><Placemark><name>Round Top</name><ExtendedData><Data name="featureClass"><value>peak</value></Data><Data name="osmType"><value>node</value></Data><Data name="osmId"><value>357314920</value></Data></ExtendedData><Point><coordinates>-122.9914423,42.7017900,0</coordinates></Point></Placemark><Placemark><name>Savage Bluffs</name><ExtendedData><Data name="featureClass"><value>cliff</value></Data><Data name="osmType"><value>node</value></Data><Data name="osmId"><value>357315186</value></Data></ExtendedData><Point><coordinates>-122.7844912,42.8412344,0</coordinates></Point></Placemark><Placemark><name>Skeleton Mountain</name><ExtendedData><Data name="featureClass"><value>peak</value></Data><Data name="osmType"><value>node</value></Data><Data name="osmId"><value>357315604</value></Data></ExtendedData><Point><coordinates>-123.0647787,42.7326227,0</coordinates></Point></Placemark><Placemark><name>Spignet Butte</name><ExtendedData><Data name="featureClass"><value>peak</value></Data><Data name="osmType"><value>node</value></Data><Data name="osmId"><value>357315936</value></Data></ExtendedData><Point><coordinates>-123.0094962,42.6281786,0</coordinates></Point></Placemark><Placemark><name>Sugarloaf Mountain</name><ExtendedData><Data name="featureClass"><value>peak</value></Data><Data name="osmType"><value>node</value></Data><Data name="osmId"><value>357316180</value></Data></ExtendedData><Point><coordinates>-122.8228243,42.7140135,0</coordinates></Point></Placemark><Placemark><name>Tatouche Peak</name><ExtendedData><Data name="featureClass"><value>peak</value></Data><Data name="osmType"><value>node</value></Data><Data name="osmId"><value>357316485</value></Data></ExtendedData><Point><coordinates>-122.6839301,42.7179036,0</coordinates></Point></Placemark><Placemark><name>Threehorn Mountain</name><ExtendedData><Data name="featureClass"><value>peak</value></Data><Data name="osmType"><value>node</value></Data><Data name="osmId"><value>357316793</value></Data></ExtendedData><Point><coordinates>-122.9047734,42.7812345,0</coordinates></Point></Placemark><Placemark><name>White Rock Mountain</name><ExtendedData><Data name="featureClass"><value>peak</value></Data><Data name="osmType"><value>node</value></Data><Data name="osmId"><value>357317973</value></Data></ExtendedData><Point><coordinates>-123.0783888,42.6809557,0</coordinates></Point></Placemark><Placemark><name>Heck Rock</name><ExtendedData><Data name="featureClass"><value>peak</value></Data><Data name="osmType"><value>node</value></Data><Data name="osmId"><value>357320620</value></Data></ExtendedData><Point><coordinates>-122.6997661,42.8409573,0</coordinates></Point></Placemark><Placemark><name>Casey State Park</name><ExtendedData><Data name="featureClass"><value>park</value></Data><Data name="osmType"><value>node</value></Data><Data name="osmId"><value>357321785</value></Data></ExtendedData><Point><coordinates>-122.6942069,42.6601260,0</coordinates></Point></Placemark><Placemark><name>Diamond Rock</name><ExtendedData><Data name="featureClass"><value>peak</value></Data><Data name="osmType"><value>node</value></Data><Data name="osmId"><value>357322228</value></Data></ExtendedData><Point><coordinates>-122.9197742,42.8059562,0</coordinates></Point></Placemark><Placemark><name>Hillis Peak</name><ExtendedData><Data name="featureClass"><value>peak</value></Data><Data name="osmType"><value>node</value></Data><Data name="osmId"><value>357324286</value></Data></ExtendedData><Point><coordinates>-123.1102506,42.5261039,0</coordinates></Point></Placemark><Placemark><name>Upper Table Rock</name><ExtendedData><Data name="featureClass"><value>peak</value></Data><Data name="osmType"><value>node</value></Data><Data name="osmId"><value>357324526</value></Data></ExtendedData><Point><coordinates>-122.9189875,42.4766497,0</coordinates></Point></Placemark><Placemark><name>Finger Rock</name><ExtendedData><Data name="featureClass"><value>peak</value></Data><Data name="osmType"><value>node</value></Data><Data name="osmId"><value>357325646</value></Data></ExtendedData><Point><coordinates>-122.7461554,42.7676247,0</coordinates></Point></Placemark><Placemark><name>McGregor Park</name><ExtendedData><Data name="featureClass"><value>park</value></Data><Data name="osmType"><value>node</value></Data><Data name="osmId"><value>357325650</value></Data></ExtendedData><Point><coordinates>-122.6880293,42.6605570,0</coordinates></Point></Placemark><Placemark><name>Rogue Elk County Park</name><ExtendedData><Data name="featureClass"><value>park</value></Data><Data name="osmType"><value>node</value></Data><Data name="osmId"><value>357326023</value></Data></ExtendedData><Point><coordinates>-122.7553201,42.6598475,0</coordinates></Point></Placemark><Placemark><name>Rivers Edge Park</name><ExtendedData><Data name="featureClass"><value>park</value></Data><Data name="osmType"><value>node</value></Data><Data name="osmId"><value>357326734</value></Data></ExtendedData><Point><coordinates>-122.6822622,42.6692927,0</coordinates></Point></Placemark><Placemark><name>Dodge Bridge County Park</name><ExtendedData><Data name="featureClass"><value>park</value></Data><Data name="osmType"><value>node</value></Data><Data name="osmId"><value>357346932</value></Data></ExtendedData><Point><coordinates>-122.8422647,42.5262360,0</coordinates></Point></Placemark><Placemark><name>Shady Park</name><ExtendedData><Data name="featureClass"><value>park</value></Data><Data name="osmType"><value>node</value></Data><Data name="osmId"><value>357346939</value></Data></ExtendedData><Point><coordinates>-122.8150437,42.6142915,0</coordinates></Point></Placemark><Placemark><name>Willy Rock</name><ExtendedData><Data name="featureClass"><value>peak</value></Data><Data name="osmType"><value>node</value></Data><Data name="osmId"><value>357349296</value></Data></ExtendedData><Point><coordinates>-122.8000452,42.7006803,0</coordinates></Point></Placemark><Placemark><name>Upper Rogue Regional County Park</name><ExtendedData><Data name="featureClass"><value>park</value></Data><Data name="osmType"><value>node</value></Data><Data name="osmId"><value>357350276</value></Data></ExtendedData><Point><coordinates>-122.8147659,42.6137360,0</coordinates></Point></Placemark><Placemark><name>Hardy Riffle County Park</name><ExtendedData><Data name="featureClass"><value>park</value></Data><Data name="osmType"><value>node</value></Data><Data name="osmId"><value>357350502</value></Data></ExtendedData><Point><coordinates>-123.0058800,42.4567900,0</coordinates></Point></Placemark><Placemark><name>Bear Rock</name><ExtendedData><Data name="featureClass"><value>rock</value></Data><Data name="osmType"><value>node</value></Data><Data name="osmId"><value>2110786195</value></Data></ExtendedData><Point><coordinates>-122.9532556,42.4586264,0</coordinates></Point></Placemark><Placemark><name>Waggoner Gap</name><ExtendedData><Data name="featureClass"><value>saddle</value></Data><Data name="osmType"><value>node</value></Data><Data name="osmId"><value>3329258202</value></Data></ExtendedData><Point><coordinates>-123.1740280,42.7404315,0</coordinates></Point></Placemark><Placemark><name>Lower Table Rock</name><ExtendedData><Data name="featureClass"><value>peak</value></Data><Data name="osmType"><value>node</value></Data><Data name="osmId"><value>5557797437</value></Data></ExtendedData><Point><coordinates>-122.9488349,42.4549378,0</coordinates></Point></Placemark><Placemark><name>671 672</name><ExtendedData><Data name="featureClass"><value>tree</value></Data><Data name="osmType"><value>node</value></Data><Data name="osmId"><value>9831148522</value></Data></ExtendedData><Point><coordinates>-122.9492483,42.4662766,0</coordinates></Point></Placemark><Placemark><name>Moolock Prairie</name><ExtendedData><Data name="featureClass"><value>flat</value></Data><Data name="osmType"><value>node</value></Data><Data name="osmId"><value>10059673550</value></Data></ExtendedData><Point><coordinates>-122.6175378,42.7879049,0</coordinates></Point></Placemark><Placemark><name>Debenger Gap</name><ExtendedData><Data name="featureClass"><value>saddle</value></Data><Data name="osmType"><value>node</value></Data><Data name="osmId"><value>10171409735</value></Data></ExtendedData><Point><coordinates>-122.8741960,42.5447074,0</coordinates></Point></Placemark><Placemark><name>Goolaway Gap</name><ExtendedData><Data name="featureClass"><value>saddle</value></Data><Data name="osmType"><value>node</value></Data><Data name="osmId"><value>10171475551</value></Data></ExtendedData><Point><coordinates>-123.0862750,42.7442061,0</coordinates></Point></Placemark><Placemark><name>Neuman Gap</name><ExtendedData><Data name="featureClass"><value>saddle</value></Data><Data name="osmType"><value>node</value></Data><Data name="osmId"><value>10175691352</value></Data></ExtendedData><Point><coordinates>-122.9717410,42.8239246,0</coordinates></Point></Placemark><Placemark><name>Nichols Gap</name><ExtendedData><Data name="featureClass"><value>saddle</value></Data><Data name="osmType"><value>node</value></Data><Data name="osmId"><value>10175713749</value></Data></ExtendedData><Point><coordinates>-122.7563589,42.5214343,0</coordinates></Point></Placemark><Placemark><name>Terra Nova</name><ExtendedData><Data name="featureClass"><value>cliff</value></Data><Data name="osmType"><value>node</value></Data><Data name="osmId"><value>11297237721</value></Data></ExtendedData><Point><coordinates>-122.9058981,42.7539648,0</coordinates></Point></Placemark><Placemark><name>Joseph H Stewart County Park Day Use Area</name><ExtendedData><Data name="featureClass"><value>park</value></Data><Data name="osmType"><value>node</value></Data><Data name="osmId"><value>12631478224</value></Data></ExtendedData><Point><coordinates>-122.6348131,42.6781095,0</coordinates></Point></Placemark><Placemark><name>Lost Creek Lake</name><ExtendedData><Data name="featureClass"><value>water</value></Data><Data name="osmType"><value>way</value></Data><Data name="osmId"><value>179560221</value></Data></ExtendedData><Point><coordinates>-122.6297431,42.6923776,0</coordinates></Point></Placemark><Placemark><name>Mayes Reservoir</name><ExtendedData><Data name="featureClass"><value>water</value></Data><Data name="osmType"><value>way</value></Data><Data name="osmId"><value>262827744</value></Data></ExtendedData><Point><coordinates>-122.8234287,42.4488779,0</coordinates></Point></Placemark><Placemark><name>Chamberlain Park</name><ExtendedData><Data name="featureClass"><value>park</value></Data><Data name="osmType"><value>way</value></Data><Data name="osmId"><value>264180756</value></Data></ExtendedData><Point><coordinates>-122.7929112,42.4813282,0</coordinates></Point></Placemark><Placemark><name>Galesville Reservoir</name><ExtendedData><Data name="featureClass"><value>water</value></Data><Data name="osmType"><value>way</value></Data><Data name="osmId"><value>305029352</value></Data></ExtendedData><Point><coordinates>-123.1588044,42.8388305,0</coordinates></Point></Placemark><Placemark><name>Lomoha Reservoir</name><ExtendedData><Data name="featureClass"><value>water</value></Data><Data name="osmType"><value>way</value></Data><Data name="osmId"><value>317954238</value></Data></ExtendedData><Point><coordinates>-122.9484094,42.4774368,0</coordinates></Point></Placemark><Placemark><name>Rogue River (&quot;Holy Water&quot;)</name><ExtendedData><Data name="featureClass"><value>water</value></Data><Data name="osmType"><value>way</value></Data><Data name="osmId"><value>371058948</value></Data></ExtendedData><Point><coordinates>-122.6822913,42.6697227,0</coordinates></Point></Placemark><Placemark><name>Indian Lake Reservoir</name><ExtendedData><Data name="featureClass"><value>water</value></Data><Data name="osmType"><value>way</value></Data><Data name="osmId"><value>487127491</value></Data></ExtendedData><Point><coordinates>-122.7277049,42.6050436,0</coordinates></Point></Placemark><Placemark><name>TouVelle State Recreation Site</name><ExtendedData><Data name="featureClass"><value>park</value></Data><Data name="osmType"><value>way</value></Data><Data name="osmId"><value>514317102</value></Data></ExtendedData><Point><coordinates>-122.8864349,42.4425294,0</coordinates></Point></Placemark><Placemark><name>Blue Grotto</name><ExtendedData><Data name="featureClass"><value>cliff</value></Data><Data name="osmType"><value>way</value></Data><Data name="osmId"><value>550200652</value></Data></ExtendedData><Point><coordinates>-122.6401014,42.7002015,0</coordinates></Point></Placemark><Placemark><name>Chief Miwaleta Park</name><ExtendedData><Data name="featureClass"><value>park</value></Data><Data name="osmType"><value>way</value></Data><Data name="osmId"><value>551339542</value></Data></ExtendedData><Point><coordinates>-123.1609474,42.8498983,0</coordinates></Point></Placemark><Placemark><name>Longfibre Park</name><ExtendedData><Data name="featureClass"><value>park</value></Data><Data name="osmType"><value>way</value></Data><Data name="osmId"><value>551364814</value></Data></ExtendedData><Point><coordinates>-123.1823885,42.8157817,0</coordinates></Point></Placemark><Placemark><name>Modoc Reservoir</name><ExtendedData><Data name="featureClass"><value>water</value></Data><Data name="osmType"><value>way</value></Data><Data name="osmId"><value>580622830</value></Data></ExtendedData><Point><coordinates>-122.8904128,42.4598394,0</coordinates></Point></Placemark><Placemark><name>Lester James Reservoir Number 3</name><ExtendedData><Data name="featureClass"><value>water</value></Data><Data name="osmType"><value>way</value></Data><Data name="osmId"><value>586414917</value></Data></ExtendedData><Point><coordinates>-122.9463850,42.4882714,0</coordinates></Point></Placemark><Placemark><name>Lester James Reservoir</name><ExtendedData><Data name="featureClass"><value>water</value></Data><Data name="osmType"><value>way</value></Data><Data name="osmId"><value>586414918</value></Data></ExtendedData><Point><coordinates>-122.9531785,42.4888276,0</coordinates></Point></Placemark><Placemark><name>Lower Table Rock</name><ExtendedData><Data name="featureClass"><value>mesa</value></Data><Data name="osmType"><value>way</value></Data><Data name="osmId"><value>686257333</value></Data></ExtendedData><Point><coordinates>-122.9515686,42.4508299,0</coordinates></Point></Placemark><Placemark><name>Lucas Park</name><ExtendedData><Data name="featureClass"><value>park</value></Data><Data name="osmType"><value>way</value></Data><Data name="osmId"><value>757946290</value></Data></ExtendedData><Point><coordinates>-122.8077234,42.4646193,0</coordinates></Point></Placemark><Placemark><name>Barton Reservoir</name><ExtendedData><Data name="featureClass"><value>water</value></Data><Data name="osmType"><value>way</value></Data><Data name="osmId"><value>758606843</value></Data></ExtendedData><Point><coordinates>-122.8092899,42.4861984,0</coordinates></Point></Placemark><Placemark><name>Harnish Wayside Park</name><ExtendedData><Data name="featureClass"><value>park</value></Data><Data name="osmType"><value>way</value></Data><Data name="osmId"><value>764385235</value></Data></ExtendedData><Point><coordinates>-122.8141227,42.4632805,0</coordinates></Point></Placemark><Placemark><name>Mattie Brown Park</name><ExtendedData><Data name="featureClass"><value>park</value></Data><Data name="osmType"><value>way</value></Data><Data name="osmId"><value>1164550742</value></Data></ExtendedData><Point><coordinates>-122.8024247,42.4709638,0</coordinates></Point></Placemark><Placemark><name>Woolfolk Reservoir Number Two</name><ExtendedData><Data name="featureClass"><value>water</value></Data><Data name="osmType"><value>way</value></Data><Data name="osmId"><value>1254369078</value></Data></ExtendedData><Point><coordinates>-122.7034636,42.4694674,0</coordinates></Point></Placemark><Placemark><name>Evans Creek</name><ExtendedData><Data name="featureClass"><value>water</value></Data><Data name="osmType"><value>way</value></Data><Data name="osmId"><value>1278372910</value></Data></ExtendedData><Point><coordinates>-123.1721401,42.4404821,0</coordinates></Point></Placemark><Placemark><name>Smith Reservoir</name><ExtendedData><Data name="featureClass"><value>water</value></Data><Data name="osmType"><value>way</value></Data><Data name="osmId"><value>1307936234</value></Data></ExtendedData><Point><coordinates>-123.1621313,42.4748342,0</coordinates></Point></Placemark><Placemark><name>Bob Moore Park</name><ExtendedData><Data name="featureClass"><value>park</value></Data><Data name="osmType"><value>way</value></Data><Data name="osmId"><value>1376662127</value></Data></ExtendedData><Point><coordinates>-122.8024709,42.4730897,0</coordinates></Point></Placemark><Placemark><name>Centennial Plaza</name><ExtendedData><Data name="featureClass"><value>park</value></Data><Data name="osmType"><value>way</value></Data><Data name="osmId"><value>1376911284</value></Data></ExtendedData><Point><coordinates>-122.8014249,42.4721356,0</coordinates></Point></Placemark><Placemark><name>Trammel Reservoir</name><ExtendedData><Data name="featureClass"><value>water</value></Data><Data name="osmType"><value>way</value></Data><Data name="osmId"><value>1376952833</value></Data></ExtendedData><Point><coordinates>-122.7286874,42.4824797,0</coordinates></Point></Placemark><Placemark><name>Koellner Reservoir</name><ExtendedData><Data name="featureClass"><value>water</value></Data><Data name="osmType"><value>way</value></Data><Data name="osmId"><value>1385395498</value></Data></ExtendedData><Point><coordinates>-122.9687874,42.4930696,0</coordinates></Point></Placemark><Placemark><name>Little Butte Park</name><ExtendedData><Data name="featureClass"><value>park</value></Data><Data name="osmType"><value>way</value></Data><Data name="osmId"><value>1387405844</value></Data></ExtendedData><Point><coordinates>-122.7956364,42.4745937,0</coordinates></Point></Placemark><Placemark><name>Hammel Reservoir</name><ExtendedData><Data name="featureClass"><value>water</value></Data><Data name="osmType"><value>way</value></Data><Data name="osmId"><value>1412647703</value></Data></ExtendedData><Point><coordinates>-122.8084967,42.5436373,0</coordinates></Point></Placemark><Placemark><name>Humphrey Reservoirs</name><ExtendedData><Data name="featureClass"><value>water</value></Data><Data name="osmType"><value>way</value></Data><Data name="osmId"><value>1413582632</value></Data></ExtendedData><Point><coordinates>-122.7754016,42.5425966,0</coordinates></Point></Placemark><Placemark><name>Despain Reservoir</name><ExtendedData><Data name="featureClass"><value>water</value></Data><Data name="osmType"><value>way</value></Data><Data name="osmId"><value>1528002303</value></Data></ExtendedData><Point><coordinates>-122.9290132,42.5168025,0</coordinates></Point></Placemark><Placemark><name>Umpqua National Forest</name><ExtendedData><Data name="featureClass"><value></value></Data><Data name="osmType"><value>relation</value></Data><Data name="osmId"><value>1274081</value></Data></ExtendedData><Point><coordinates>-122.5603297,43.2272176,0</coordinates></Point></Placemark><Placemark><name>Rogue River-Siskiyou National Forest</name><ExtendedData><Data name="featureClass"><value></value></Data><Data name="osmType"><value>relation</value></Data><Data name="osmId"><value>1274816</value></Data></ExtendedData><Point><coordinates>-123.2147575,42.3760117,0</coordinates></Point></Placemark><Placemark><name>Table Rocks Management Area</name><ExtendedData><Data name="featureClass"><value>nature_reserve</value></Data><Data name="osmType"><value>relation</value></Data><Data name="osmId"><value>8215411</value></Data></ExtendedData><Point><coordinates>-122.9359744,42.4703868,0</coordinates></Point></Placemark><Placemark><name>Kenneth Denman Wildlife Area</name><ExtendedData><Data name="featureClass"><value>nature_reserve</value></Data><Data name="osmType"><value>relation</value></Data><Data name="osmId"><value>10979738</value></Data></ExtendedData><Point><coordinates>-122.8683584,42.4508365,0</coordinates></Point></Placemark><Placemark><name>Upper Table Rock</name><ExtendedData><Data name="featureClass"><value>mesa</value></Data><Data name="osmType"><value>relation</value></Data><Data name="osmId"><value>13548702</value></Data></ExtendedData><Point><coordinates>-122.9061881,42.4722296,0</coordinates></Point></Placemark></Document></kml>
