{"type":"FeatureCollection","features":[{"type":"Feature","properties":{"observedAt":"2026-07-18T21:38:00Z","satellite":"N21","instrument":"VIIRS","confidence":"n","frpMw":10.57,"brightnessI4K":342.93,"brightnessI5K":304.98,"dayNight":"D","scanKm":0.47,"trackKm":0.47},"geometry":{"type":"Point","coordinates":[-122.92111,42.61518]}},{"type":"Feature","properties":{"observedAt":"2026-07-18T21:38:00Z","satellite":"N21","instrument":"VIIRS","confidence":"l","frpMw":10.57,"brightnessI4K":330.13,"brightnessI5K":304.73,"dayNight":"D","scanKm":0.47,"trackKm":0.47},"geometry":{"type":"Point","coordinates":[-122.91633,42.61555]}},{"type":"Feature","properties":{"observedAt":"2026-07-18T21:38:00Z","satellite":"N21","instrument":"VIIRS","confidence":"n","frpMw":8.27,"brightnessI4K":340.95,"brightnessI5K":305.38,"dayNight":"D","scanKm":0.47,"trackKm":0.47},"geometry":{"type":"Point","coordinates":[-122.91144,42.61594]}},{"type":"Feature","properties":{"observedAt":"2026-07-18T21:38:00Z","satellite":"N21","instrument":"VIIRS","confidence":"h","frpMw":29.97,"brightnessI4K":367.0,"brightnessI5K":313.45,"dayNight":"D","scanKm":0.47,"trackKm":0.47},"geometry":{"type":"Point","coordinates":[-122.91999,42.61856]}},{"type":"Feature","properties":{"observedAt":"2026-07-18T21:38:00Z","satellite":"N21","instrument":"VIIRS","confidence":"n","frpMw":8.99,"brightnessI4K":351.56,"brightnessI5K":308.17,"dayNight":"D","scanKm":0.47,"trackKm":0.47},"geometry":{"type":"Point","coordinates":[-122.91527,42.61896]}},{"type":"Feature","properties":{"observedAt":"2026-07-18T21:38:00Z","satellite":"N21","instrument":"VIIRS","confidence":"l","frpMw":8.99,"brightnessI4K":331.29,"brightnessI5K":305.3,"dayNight":"D","scanKm":0.47,"trackKm":0.47},"geometry":{"type":"Point","coordinates":[-122.91009,42.61939]}},{"type":"Feature","properties":{"observedAt":"2026-07-18T21:38:00Z","satellite":"N21","instrument":"VIIRS","confidence":"n","frpMw":10.57,"brightnessI4K":355.2,"brightnessI5K":310.49,"dayNight":"D","scanKm":0.47,"trackKm":0.47},"geometry":{"type":"Point","coordinates":[-122.92197,42.61952]}},{"type":"Feature","properties":{"observedAt":"2026-07-18T21:38:00Z","satellite":"N21","instrument":"VIIRS","confidence":"n","frpMw":10.57,"brightnessI4K":354.39,"brightnessI5K":306.58,"dayNight":"D","scanKm":0.47,"trackKm":0.47},"geometry":{"type":"Point","coordinates":[-122.91719,42.61989]}},{"type":"Feature","properties":{"observedAt":"2026-07-18T21:38:00Z","satellite":"N21","instrument":"VIIRS","confidence":"n","frpMw":15.19,"brightnessI4K":344.44,"brightnessI5K":306.6,"dayNight":"D","scanKm":0.47,"trackKm":0.48},"geometry":{"type":"Point","coordinates":[-122.89136,42.63952]}},{"type":"Feature","properties":{"observedAt":"2026-07-18T21:38:00Z","satellite":"N21","instrument":"VIIRS","confidence":"l","frpMw":5.12,"brightnessI4K":330.3,"brightnessI5K":301.78,"dayNight":"D","scanKm":0.47,"trackKm":0.48},"geometry":{"type":"Point","coordinates":[-122.89857,42.64337]}},{"type":"Feature","properties":{"observedAt":"2026-07-18T21:38:00Z","satellite":"N21","instrument":"VIIRS","confidence":"n","frpMw":8.11,"brightnessI4K":343.42,"brightnessI5K":300.88,"dayNight":"D","scanKm":0.47,"trackKm":0.48},"geometry":{"type":"Point","coordinates":[-122.89271,42.64383]}},{"type":"Feature","properties":{"observedAt":"2026-07-18T21:38:00Z","satellite":"N21","instrument":"VIIRS","confidence":"n","frpMw":6.96,"brightnessI4K":338.23,"brightnessI5K":306.01,"dayNight":"D","scanKm":0.47,"trackKm":0.47},"geometry":{"type":"Point","coordinates":[-122.92555,42.68086]}},{"type":"Feature","properties":{"observedAt":"2026-07-18T21:38:00Z","satellite":"N21","instrument":"VIIRS","confidence":"n","frpMw":4.79,"brightnessI4K":334.36,"brightnessI5K":305.3,"dayNight":"D","scanKm":0.47,"trackKm":0.47},"geometry":{"type":"Point","coordinates":[-122.92016,42.68129]}},{"type":"Feature","properties":{"observedAt":"2026-07-18T22:14:00Z","satellite":"N","instrument":"VIIRS","confidence":"h","frpMw":12.71,"brightnessI4K":367.0,"brightnessI5K":304.49,"dayNight":"D","scanKm":0.5,"trackKm":0.66},"geometry":{"type":"Point","coordinates":[-122.91849,42.61573]}},{"type":"Feature","properties":{"observedAt":"2026-07-18T22:14:00Z","satellite":"N","instrument":"VIIRS","confidence":"n","frpMw":10.45,"brightnessI4K":343.24,"brightnessI5K":302.09,"dayNight":"D","scanKm":0.5,"trackKm":0.66},"geometry":{"type":"Point","coordinates":[-122.91386,42.61584]}},{"type":"Feature","properties":{"observedAt":"2026-07-18T22:14:00Z","satellite":"N","instrument":"VIIRS","confidence":"n","frpMw":8.27,"brightnessI4K":343.38,"brightnessI5K":301.63,"dayNight":"D","scanKm":0.5,"trackKm":0.66},"geometry":{"type":"Point","coordinates":[-122.92231,42.61654]}},{"type":"Feature","properties":{"observedAt":"2026-07-18T22:14:00Z","satellite":"N","instrument":"VIIRS","confidence":"h","frpMw":11.04,"brightnessI4K":367.0,"brightnessI5K":304.38,"dayNight":"D","scanKm":0.5,"trackKm":0.66},"geometry":{"type":"Point","coordinates":[-122.91766,42.61667]}},{"type":"Feature","properties":{"observedAt":"2026-07-18T22:14:00Z","satellite":"N","instrument":"VIIRS","confidence":"n","frpMw":11.04,"brightnessI4K":339.82,"brightnessI5K":301.97,"dayNight":"D","scanKm":0.5,"trackKm":0.66},"geometry":{"type":"Point","coordinates":[-122.9129,42.6168]}},{"type":"Feature","properties":{"observedAt":"2026-07-18T22:14:00Z","satellite":"N","instrument":"VIIRS","confidence":"n","frpMw":5.41,"brightnessI4K":330.93,"brightnessI5K":301.17,"dayNight":"D","scanKm":0.5,"trackKm":0.66},"geometry":{"type":"Point","coordinates":[-122.91927,42.62189]}},{"type":"Feature","properties":{"observedAt":"2026-07-18T22:14:00Z","satellite":"N","instrument":"VIIRS","confidence":"n","frpMw":4.86,"brightnessI4K":331.42,"brightnessI5K":299.0,"dayNight":"D","scanKm":0.5,"trackKm":0.66},"geometry":{"type":"Point","coordinates":[-122.88931,42.64109]}}]}
