{"type":"FeatureCollection","features":[{"type":"Feature","properties":{"observedAt":"2026-07-18T20:53:00Z","satellite":"N20","instrument":"VIIRS","confidence":"n","frpMw":25.75,"brightnessI4K":346.21,"brightnessI5K":305.0,"dayNight":"D","scanKm":0.46,"trackKm":0.39},"geometry":{"type":"Point","coordinates":[-122.92189,42.61921]}},{"type":"Feature","properties":{"observedAt":"2026-07-18T20:53:00Z","satellite":"N20","instrument":"VIIRS","confidence":"n","frpMw":7.83,"brightnessI4K":344.21,"brightnessI5K":305.13,"dayNight":"D","scanKm":0.46,"trackKm":0.39},"geometry":{"type":"Point","coordinates":[-122.9213,42.67756]}},{"type":"Feature","properties":{"observedAt":"2026-07-18T20:53:00Z","satellite":"N20","instrument":"VIIRS","confidence":"n","frpMw":6.74,"brightnessI4K":345.6,"brightnessI5K":307.42,"dayNight":"D","scanKm":0.46,"trackKm":0.39},"geometry":{"type":"Point","coordinates":[-122.92255,42.68105]}},{"type":"Feature","properties":{"observedAt":"2026-07-18T19:57:00Z","satellite":"N21","instrument":"VIIRS","confidence":"n","frpMw":2.98,"brightnessI4K":328.11,"brightnessI5K":297.25,"dayNight":"D","scanKm":0.6,"trackKm":0.7},"geometry":{"type":"Point","coordinates":[-122.89282,42.63894]}},{"type":"Feature","properties":{"observedAt":"2026-07-18T19:57:00Z","satellite":"N21","instrument":"VIIRS","confidence":"n","frpMw":8.37,"brightnessI4K":327.56,"brightnessI5K":297.06,"dayNight":"D","scanKm":0.6,"trackKm":0.7},"geometry":{"type":"Point","coordinates":[-122.92483,42.67804]}},{"type":"Feature","properties":{"observedAt":"2026-07-18T20:34:00Z","satellite":"N","instrument":"VIIRS","confidence":"n","frpMw":3.67,"brightnessI4K":338.77,"brightnessI5K":300.75,"dayNight":"D","scanKm":0.57,"trackKm":0.52},"geometry":{"type":"Point","coordinates":[-122.9184,42.61972]}},{"type":"Feature","properties":{"observedAt":"2026-07-18T20:34:00Z","satellite":"N","instrument":"VIIRS","confidence":"l","frpMw":3.57,"brightnessI4K":329.41,"brightnessI5K":299.71,"dayNight":"D","scanKm":0.56,"trackKm":0.52},"geometry":{"type":"Point","coordinates":[-122.88953,42.63716]}},{"type":"Feature","properties":{"observedAt":"2026-07-18T20:34:00Z","satellite":"N","instrument":"VIIRS","confidence":"n","frpMw":6.12,"brightnessI4K":341.38,"brightnessI5K":298.89,"dayNight":"D","scanKm":0.56,"trackKm":0.52},"geometry":{"type":"Point","coordinates":[-122.89023,42.64199]}},{"type":"Feature","properties":{"observedAt":"2026-07-18T20:34:00Z","satellite":"N","instrument":"VIIRS","confidence":"n","frpMw":5.86,"brightnessI4K":341.29,"brightnessI5K":303.6,"dayNight":"D","scanKm":0.56,"trackKm":0.52},"geometry":{"type":"Point","coordinates":[-122.92364,42.67937]}}]}
