{"type":"FeatureCollection","features":[{"type":"Feature","properties":{"observedAt":"2026-07-16T10:06:00Z","satellite":"N20","instrument":"VIIRS","confidence":"n","frpMw":3.76,"brightnessI4K":304.84,"brightnessI5K":287.36,"dayNight":"N","scanKm":0.4,"trackKm":0.37},"geometry":{"type":"Point","coordinates":[-123.00082,42.59281]}},{"type":"Feature","properties":{"observedAt":"2026-07-16T10:06:00Z","satellite":"N20","instrument":"VIIRS","confidence":"n","frpMw":4.45,"brightnessI4K":343.28,"brightnessI5K":292.0,"dayNight":"N","scanKm":0.4,"trackKm":0.37},"geometry":{"type":"Point","coordinates":[-123.00584,42.59351]}},{"type":"Feature","properties":{"observedAt":"2026-07-16T10:06:00Z","satellite":"N20","instrument":"VIIRS","confidence":"n","frpMw":3.76,"brightnessI4K":333.01,"brightnessI5K":290.54,"dayNight":"N","scanKm":0.4,"trackKm":0.37},"geometry":{"type":"Point","coordinates":[-123.0,42.59616]}},{"type":"Feature","properties":{"observedAt":"2026-07-16T10:06:00Z","satellite":"N20","instrument":"VIIRS","confidence":"n","frpMw":4.45,"brightnessI4K":339.76,"brightnessI5K":289.01,"dayNight":"N","scanKm":0.4,"trackKm":0.37},"geometry":{"type":"Point","coordinates":[-123.00494,42.59685]}},{"type":"Feature","properties":{"observedAt":"2026-07-16T10:06:00Z","satellite":"N20","instrument":"VIIRS","confidence":"n","frpMw":4.45,"brightnessI4K":303.28,"brightnessI5K":288.85,"dayNight":"N","scanKm":0.4,"trackKm":0.37},"geometry":{"type":"Point","coordinates":[-123.00985,42.59754]}},{"type":"Feature","properties":{"observedAt":"2026-07-16T10:06:00Z","satellite":"N20","instrument":"VIIRS","confidence":"n","frpMw":6.08,"brightnessI4K":336.09,"brightnessI5K":292.63,"dayNight":"N","scanKm":0.4,"trackKm":0.37},"geometry":{"type":"Point","coordinates":[-123.01854,42.60222]}},{"type":"Feature","properties":{"observedAt":"2026-07-16T10:06:00Z","satellite":"N20","instrument":"VIIRS","confidence":"n","frpMw":3.51,"brightnessI4K":344.98,"brightnessI5K":291.2,"dayNight":"N","scanKm":0.4,"trackKm":0.37},"geometry":{"type":"Point","coordinates":[-123.02338,42.6029]}},{"type":"Feature","properties":{"observedAt":"2026-07-16T10:06:00Z","satellite":"N20","instrument":"VIIRS","confidence":"n","frpMw":3.51,"brightnessI4K":297.67,"brightnessI5K":286.78,"dayNight":"N","scanKm":0.4,"trackKm":0.37},"geometry":{"type":"Point","coordinates":[-123.02824,42.60358]}},{"type":"Feature","properties":{"observedAt":"2026-07-16T10:06:00Z","satellite":"N20","instrument":"VIIRS","confidence":"n","frpMw":0.78,"brightnessI4K":301.05,"brightnessI5K":287.71,"dayNight":"N","scanKm":0.4,"trackKm":0.37},"geometry":{"type":"Point","coordinates":[-123.00788,42.60419]}},{"type":"Feature","properties":{"observedAt":"2026-07-16T10:06:00Z","satellite":"N20","instrument":"VIIRS","confidence":"n","frpMw":3.51,"brightnessI4K":311.1,"brightnessI5K":289.61,"dayNight":"N","scanKm":0.4,"trackKm":0.37},"geometry":{"type":"Point","coordinates":[-123.02242,42.60623]}},{"type":"Feature","properties":{"observedAt":"2026-07-16T10:06:00Z","satellite":"N20","instrument":"VIIRS","confidence":"n","frpMw":3.51,"brightnessI4K":349.46,"brightnessI5K":293.79,"dayNight":"N","scanKm":0.4,"trackKm":0.37},"geometry":{"type":"Point","coordinates":[-123.02728,42.60691]}},{"type":"Feature","properties":{"observedAt":"2026-07-16T10:06:00Z","satellite":"N20","instrument":"VIIRS","confidence":"n","frpMw":3.83,"brightnessI4K":336.76,"brightnessI5K":289.85,"dayNight":"N","scanKm":0.4,"trackKm":0.37},"geometry":{"type":"Point","coordinates":[-123.03216,42.6076]}},{"type":"Feature","properties":{"observedAt":"2026-07-16T10:06:00Z","satellite":"N20","instrument":"VIIRS","confidence":"n","frpMw":1.23,"brightnessI4K":306.38,"brightnessI5K":287.05,"dayNight":"N","scanKm":0.4,"trackKm":0.37},"geometry":{"type":"Point","coordinates":[-123.02623,42.61023]}},{"type":"Feature","properties":{"observedAt":"2026-07-16T10:06:00Z","satellite":"N20","instrument":"VIIRS","confidence":"n","frpMw":1.57,"brightnessI4K":320.67,"brightnessI5K":287.83,"dayNight":"N","scanKm":0.4,"trackKm":0.37},"geometry":{"type":"Point","coordinates":[-123.03114,42.61092]}},{"type":"Feature","properties":{"observedAt":"2026-07-16T10:06:00Z","satellite":"N20","instrument":"VIIRS","confidence":"n","frpMw":1.12,"brightnessI4K":312.36,"brightnessI5K":287.88,"dayNight":"N","scanKm":0.4,"trackKm":0.37},"geometry":{"type":"Point","coordinates":[-123.00494,42.61416]}},{"type":"Feature","properties":{"observedAt":"2026-07-16T10:06:00Z","satellite":"N20","instrument":"VIIRS","confidence":"n","frpMw":1.57,"brightnessI4K":312.62,"brightnessI5K":287.47,"dayNight":"N","scanKm":0.4,"trackKm":0.37},"geometry":{"type":"Point","coordinates":[-123.03016,42.61424]}},{"type":"Feature","properties":{"observedAt":"2026-07-16T10:06:00Z","satellite":"N20","instrument":"VIIRS","confidence":"n","frpMw":1.98,"brightnessI4K":322.05,"brightnessI5K":290.52,"dayNight":"N","scanKm":0.4,"trackKm":0.37},"geometry":{"type":"Point","coordinates":[-123.02919,42.61757]}},{"type":"Feature","properties":{"observedAt":"2026-07-16T10:06:00Z","satellite":"N20","instrument":"VIIRS","confidence":"n","frpMw":1.98,"brightnessI4K":326.32,"brightnessI5K":286.7,"dayNight":"N","scanKm":0.4,"trackKm":0.37},"geometry":{"type":"Point","coordinates":[-123.03427,42.61828]}},{"type":"Feature","properties":{"observedAt":"2026-07-16T10:06:00Z","satellite":"N20","instrument":"VIIRS","confidence":"n","frpMw":6.28,"brightnessI4K":307.34,"brightnessI5K":287.17,"dayNight":"N","scanKm":0.4,"trackKm":0.37},"geometry":{"type":"Point","coordinates":[-122.89832,42.61982]}},{"type":"Feature","properties":{"observedAt":"2026-07-16T10:06:00Z","satellite":"N20","instrument":"VIIRS","confidence":"n","frpMw":6.28,"brightnessI4K":352.42,"brightnessI5K":294.02,"dayNight":"N","scanKm":0.4,"trackKm":0.37},"geometry":{"type":"Point","coordinates":[-122.90293,42.62048]}},{"type":"Feature","properties":{"observedAt":"2026-07-16T10:06:00Z","satellite":"N20","instrument":"VIIRS","confidence":"n","frpMw":1.98,"brightnessI4K":331.43,"brightnessI5K":291.01,"dayNight":"N","scanKm":0.4,"trackKm":0.37},"geometry":{"type":"Point","coordinates":[-123.02824,42.6209]}},{"type":"Feature","properties":{"observedAt":"2026-07-16T10:06:00Z","satellite":"N20","instrument":"VIIRS","confidence":"n","frpMw":11.5,"brightnessI4K":344.67,"brightnessI5K":289.84,"dayNight":"N","scanKm":0.4,"trackKm":0.37},"geometry":{"type":"Point","coordinates":[-122.90765,42.62115]}},{"type":"Feature","properties":{"observedAt":"2026-07-16T10:06:00Z","satellite":"N20","instrument":"VIIRS","confidence":"n","frpMw":1.98,"brightnessI4K":302.1,"brightnessI5K":283.42,"dayNight":"N","scanKm":0.4,"trackKm":0.37},"geometry":{"type":"Point","coordinates":[-123.03336,42.62162]}},{"type":"Feature","properties":{"observedAt":"2026-07-16T10:06:00Z","satellite":"N20","instrument":"VIIRS","confidence":"n","frpMw":11.5,"brightnessI4K":311.19,"brightnessI5K":286.36,"dayNight":"N","scanKm":0.4,"trackKm":0.37},"geometry":{"type":"Point","coordinates":[-122.91244,42.62183]}},{"type":"Feature","properties":{"observedAt":"2026-07-16T10:06:00Z","satellite":"N20","instrument":"VIIRS","confidence":"n","frpMw":6.28,"brightnessI4K":316.05,"brightnessI5K":283.26,"dayNight":"N","scanKm":0.4,"trackKm":0.37},"geometry":{"type":"Point","coordinates":[-122.89754,42.62317]}},{"type":"Feature","properties":{"observedAt":"2026-07-16T10:06:00Z","satellite":"N20","instrument":"VIIRS","confidence":"n","frpMw":0.56,"brightnessI4K":301.23,"brightnessI5K":283.13,"dayNight":"N","scanKm":0.4,"trackKm":0.37},"geometry":{"type":"Point","coordinates":[-123.02227,42.62352]}},{"type":"Feature","properties":{"observedAt":"2026-07-16T10:06:00Z","satellite":"N20","instrument":"VIIRS","confidence":"n","frpMw":6.28,"brightnessI4K":348.39,"brightnessI5K":294.37,"dayNight":"N","scanKm":0.4,"trackKm":0.37},"geometry":{"type":"Point","coordinates":[-122.90218,42.62383]}},{"type":"Feature","properties":{"observedAt":"2026-07-16T10:06:00Z","satellite":"N20","instrument":"VIIRS","confidence":"n","frpMw":1.03,"brightnessI4K":313.2,"brightnessI5K":283.66,"dayNight":"N","scanKm":0.4,"trackKm":0.37},"geometry":{"type":"Point","coordinates":[-123.0274,42.62424]}},{"type":"Feature","properties":{"observedAt":"2026-07-16T10:06:00Z","satellite":"N20","instrument":"VIIRS","confidence":"n","frpMw":11.5,"brightnessI4K":350.52,"brightnessI5K":297.71,"dayNight":"N","scanKm":0.4,"trackKm":0.37},"geometry":{"type":"Point","coordinates":[-122.90689,42.6245]}},{"type":"Feature","properties":{"observedAt":"2026-07-16T10:06:00Z","satellite":"N20","instrument":"VIIRS","confidence":"n","frpMw":11.5,"brightnessI4K":338.48,"brightnessI5K":297.95,"dayNight":"N","scanKm":0.4,"trackKm":0.37},"geometry":{"type":"Point","coordinates":[-122.91167,42.62518]}},{"type":"Feature","properties":{"observedAt":"2026-07-16T10:06:00Z","satellite":"N20","instrument":"VIIRS","confidence":"n","frpMw":4.38,"brightnessI4K":298.29,"brightnessI5K":283.26,"dayNight":"N","scanKm":0.4,"trackKm":0.37},"geometry":{"type":"Point","coordinates":[-122.89674,42.62651]}},{"type":"Feature","properties":{"observedAt":"2026-07-16T10:06:00Z","satellite":"N20","instrument":"VIIRS","confidence":"n","frpMw":4.38,"brightnessI4K":347.97,"brightnessI5K":291.62,"dayNight":"N","scanKm":0.4,"trackKm":0.37},"geometry":{"type":"Point","coordinates":[-122.90143,42.62718]}},{"type":"Feature","properties":{"observedAt":"2026-07-16T10:06:00Z","satellite":"N20","instrument":"VIIRS","confidence":"n","frpMw":1.03,"brightnessI4K":308.35,"brightnessI5K":277.8,"dayNight":"N","scanKm":0.4,"trackKm":0.37},"geometry":{"type":"Point","coordinates":[-123.0266,42.62759]}},{"type":"Feature","properties":{"observedAt":"2026-07-16T10:06:00Z","satellite":"N20","instrument":"VIIRS","confidence":"n","frpMw":5.01,"brightnessI4K":344.73,"brightnessI5K":295.92,"dayNight":"N","scanKm":0.4,"trackKm":0.37},"geometry":{"type":"Point","coordinates":[-122.90615,42.62785]}},{"type":"Feature","properties":{"observedAt":"2026-07-16T10:06:00Z","satellite":"N20","instrument":"VIIRS","confidence":"n","frpMw":5.01,"brightnessI4K":345.42,"brightnessI5K":294.64,"dayNight":"N","scanKm":0.4,"trackKm":0.37},"geometry":{"type":"Point","coordinates":[-122.9109,42.62852]}},{"type":"Feature","properties":{"observedAt":"2026-07-16T10:06:00Z","satellite":"N20","instrument":"VIIRS","confidence":"n","frpMw":0.47,"brightnessI4K":295.18,"brightnessI5K":282.08,"dayNight":"N","scanKm":0.4,"trackKm":0.37},"geometry":{"type":"Point","coordinates":[-122.89113,42.62917]}},{"type":"Feature","properties":{"observedAt":"2026-07-16T10:06:00Z","satellite":"N20","instrument":"VIIRS","confidence":"n","frpMw":7.67,"brightnessI4K":353.82,"brightnessI5K":291.72,"dayNight":"N","scanKm":0.4,"trackKm":0.37},"geometry":{"type":"Point","coordinates":[-122.91574,42.62921]}},{"type":"Feature","properties":{"observedAt":"2026-07-16T10:06:00Z","satellite":"N20","instrument":"VIIRS","confidence":"n","frpMw":3.27,"brightnessI4K":296.44,"brightnessI5K":284.66,"dayNight":"N","scanKm":0.4,"trackKm":0.37},"geometry":{"type":"Point","coordinates":[-123.01546,42.62949]}},{"type":"Feature","properties":{"observedAt":"2026-07-16T10:06:00Z","satellite":"N20","instrument":"VIIRS","confidence":"n","frpMw":7.67,"brightnessI4K":328.43,"brightnessI5K":286.92,"dayNight":"N","scanKm":0.4,"trackKm":0.37},"geometry":{"type":"Point","coordinates":[-122.92068,42.62992]}},{"type":"Feature","properties":{"observedAt":"2026-07-16T10:06:00Z","satellite":"N20","instrument":"VIIRS","confidence":"n","frpMw":3.27,"brightnessI4K":314.5,"brightnessI5K":283.4,"dayNight":"N","scanKm":0.4,"trackKm":0.37},"geometry":{"type":"Point","coordinates":[-123.02061,42.63021]}},{"type":"Feature","properties":{"observedAt":"2026-07-16T10:06:00Z","satellite":"N20","instrument":"VIIRS","confidence":"n","frpMw":4.38,"brightnessI4K":345.3,"brightnessI5K":290.8,"dayNight":"N","scanKm":0.4,"trackKm":0.37},"geometry":{"type":"Point","coordinates":[-122.9006,42.63052]}},{"type":"Feature","properties":{"observedAt":"2026-07-16T10:06:00Z","satellite":"N20","instrument":"VIIRS","confidence":"n","frpMw":1.25,"brightnessI4K":324.13,"brightnessI5K":283.18,"dayNight":"N","scanKm":0.4,"trackKm":0.37},"geometry":{"type":"Point","coordinates":[-123.02575,42.63094]}},{"type":"Feature","properties":{"observedAt":"2026-07-16T10:06:00Z","satellite":"N20","instrument":"VIIRS","confidence":"n","frpMw":5.01,"brightnessI4K":336.07,"brightnessI5K":292.02,"dayNight":"N","scanKm":0.4,"trackKm":0.37},"geometry":{"type":"Point","coordinates":[-122.9053,42.63119]}},{"type":"Feature","properties":{"observedAt":"2026-07-16T10:06:00Z","satellite":"N20","instrument":"VIIRS","confidence":"n","frpMw":5.01,"brightnessI4K":329.31,"brightnessI5K":291.21,"dayNight":"N","scanKm":0.4,"trackKm":0.37},"geometry":{"type":"Point","coordinates":[-122.91003,42.63186]}},{"type":"Feature","properties":{"observedAt":"2026-07-16T10:06:00Z","satellite":"N20","instrument":"VIIRS","confidence":"n","frpMw":2.56,"brightnessI4K":319.8,"brightnessI5K":288.51,"dayNight":"N","scanKm":0.4,"trackKm":0.37},"geometry":{"type":"Point","coordinates":[-123.00966,42.63213]}},{"type":"Feature","properties":{"observedAt":"2026-07-16T10:06:00Z","satellite":"N20","instrument":"VIIRS","confidence":"n","frpMw":7.67,"brightnessI4K":337.83,"brightnessI5K":295.35,"dayNight":"N","scanKm":0.4,"trackKm":0.37},"geometry":{"type":"Point","coordinates":[-122.91486,42.63255]}},{"type":"Feature","properties":{"observedAt":"2026-07-16T10:06:00Z","satellite":"N20","instrument":"VIIRS","confidence":"n","frpMw":3.27,"brightnessI4K":355.82,"brightnessI5K":293.37,"dayNight":"N","scanKm":0.4,"trackKm":0.37},"geometry":{"type":"Point","coordinates":[-123.01464,42.63284]}},{"type":"Feature","properties":{"observedAt":"2026-07-16T10:06:00Z","satellite":"N20","instrument":"VIIRS","confidence":"n","frpMw":9.45,"brightnessI4K":337.15,"brightnessI5K":290.21,"dayNight":"N","scanKm":0.4,"trackKm":0.37},"geometry":{"type":"Point","coordinates":[-122.89493,42.63317]}},{"type":"Feature","properties":{"observedAt":"2026-07-16T10:06:00Z","satellite":"N20","instrument":"VIIRS","confidence":"n","frpMw":7.67,"brightnessI4K":351.58,"brightnessI5K":297.97,"dayNight":"N","scanKm":0.4,"trackKm":0.37},"geometry":{"type":"Point","coordinates":[-122.91978,42.63324]}},{"type":"Feature","properties":{"observedAt":"2026-07-16T10:06:00Z","satellite":"N20","instrument":"VIIRS","confidence":"n","frpMw":3.27,"brightnessI4K":327.65,"brightnessI5K":287.08,"dayNight":"N","scanKm":0.4,"trackKm":0.37},"geometry":{"type":"Point","coordinates":[-123.01979,42.63356]}},{"type":"Feature","properties":{"observedAt":"2026-07-16T10:06:00Z","satellite":"N20","instrument":"VIIRS","confidence":"n","frpMw":9.45,"brightnessI4K":352.79,"brightnessI5K":294.16,"dayNight":"N","scanKm":0.4,"trackKm":0.37},"geometry":{"type":"Point","coordinates":[-122.89967,42.63383]}},{"type":"Feature","properties":{"observedAt":"2026-07-16T10:06:00Z","satellite":"N20","instrument":"VIIRS","confidence":"n","frpMw":1.02,"brightnessI4K":307.51,"brightnessI5K":287.87,"dayNight":"N","scanKm":0.4,"trackKm":0.37},"geometry":{"type":"Point","coordinates":[-122.92477,42.63396]}},{"type":"Feature","properties":{"observedAt":"2026-07-16T10:06:00Z","satellite":"N20","instrument":"VIIRS","confidence":"n","frpMw":1.25,"brightnessI4K":295.91,"brightnessI5K":282.85,"dayNight":"N","scanKm":0.4,"trackKm":0.37},"geometry":{"type":"Point","coordinates":[-123.02487,42.63428]}},{"type":"Feature","properties":{"observedAt":"2026-07-16T10:06:00Z","satellite":"N20","instrument":"VIIRS","confidence":"n","frpMw":4.06,"brightnessI4K":326.97,"brightnessI5K":292.24,"dayNight":"N","scanKm":0.4,"trackKm":0.37},"geometry":{"type":"Point","coordinates":[-122.90439,42.63451]}},{"type":"Feature","properties":{"observedAt":"2026-07-16T10:06:00Z","satellite":"N20","instrument":"VIIRS","confidence":"n","frpMw":1.02,"brightnessI4K":296.67,"brightnessI5K":280.69,"dayNight":"N","scanKm":0.4,"trackKm":0.37},"geometry":{"type":"Point","coordinates":[-122.92976,42.63467]}},{"type":"Feature","properties":{"observedAt":"2026-07-16T10:06:00Z","satellite":"N20","instrument":"VIIRS","confidence":"n","frpMw":4.06,"brightnessI4K":324.31,"brightnessI5K":289.85,"dayNight":"N","scanKm":0.4,"trackKm":0.37},"geometry":{"type":"Point","coordinates":[-122.90914,42.63519]}},{"type":"Feature","properties":{"observedAt":"2026-07-16T10:06:00Z","satellite":"N20","instrument":"VIIRS","confidence":"n","frpMw":2.72,"brightnessI4K":329.37,"brightnessI5K":287.5,"dayNight":"N","scanKm":0.4,"trackKm":0.37},"geometry":{"type":"Point","coordinates":[-123.00883,42.63548]}},{"type":"Feature","properties":{"observedAt":"2026-07-16T10:06:00Z","satellite":"N20","instrument":"VIIRS","confidence":"n","frpMw":2.42,"brightnessI4K":324.9,"brightnessI5K":292.04,"dayNight":"N","scanKm":0.4,"trackKm":0.37},"geometry":{"type":"Point","coordinates":[-122.91396,42.63587]}},{"type":"Feature","properties":{"observedAt":"2026-07-16T10:06:00Z","satellite":"N20","instrument":"VIIRS","confidence":"n","frpMw":1.92,"brightnessI4K":301.22,"brightnessI5K":286.09,"dayNight":"N","scanKm":0.4,"trackKm":0.37},"geometry":{"type":"Point","coordinates":[-123.01386,42.63619]}},{"type":"Feature","properties":{"observedAt":"2026-07-16T10:06:00Z","satellite":"N20","instrument":"VIIRS","confidence":"n","frpMw":9.45,"brightnessI4K":330.12,"brightnessI5K":286.04,"dayNight":"N","scanKm":0.4,"trackKm":0.37},"geometry":{"type":"Point","coordinates":[-122.89394,42.63648]}},{"type":"Feature","properties":{"observedAt":"2026-07-16T10:06:00Z","satellite":"N20","instrument":"VIIRS","confidence":"n","frpMw":2.42,"brightnessI4K":317.95,"brightnessI5K":291.38,"dayNight":"N","scanKm":0.4,"trackKm":0.37},"geometry":{"type":"Point","coordinates":[-122.91888,42.63657]}},{"type":"Feature","properties":{"observedAt":"2026-07-16T10:06:00Z","satellite":"N20","instrument":"VIIRS","confidence":"n","frpMw":9.45,"brightnessI4K":346.28,"brightnessI5K":295.6,"dayNight":"N","scanKm":0.4,"trackKm":0.37},"geometry":{"type":"Point","coordinates":[-122.8987,42.63715]}},{"type":"Feature","properties":{"observedAt":"2026-07-16T10:06:00Z","satellite":"N20","instrument":"VIIRS","confidence":"n","frpMw":3.21,"brightnessI4K":336.18,"brightnessI5K":292.0,"dayNight":"N","scanKm":0.4,"trackKm":0.37},"geometry":{"type":"Point","coordinates":[-122.92388,42.63728]}},{"type":"Feature","properties":{"observedAt":"2026-07-16T10:06:00Z","satellite":"N20","instrument":"VIIRS","confidence":"n","frpMw":1.38,"brightnessI4K":305.11,"brightnessI5K":289.07,"dayNight":"N","scanKm":0.4,"trackKm":0.37},"geometry":{"type":"Point","coordinates":[-122.99839,42.63746]}},{"type":"Feature","properties":{"observedAt":"2026-07-16T10:06:00Z","satellite":"N20","instrument":"VIIRS","confidence":"n","frpMw":4.06,"brightnessI4K":345.83,"brightnessI5K":295.14,"dayNight":"N","scanKm":0.4,"trackKm":0.37},"geometry":{"type":"Point","coordinates":[-122.90347,42.63783]}},{"type":"Feature","properties":{"observedAt":"2026-07-16T10:06:00Z","satellite":"N20","instrument":"VIIRS","confidence":"n","frpMw":0.58,"brightnessI4K":297.22,"brightnessI5K":279.84,"dayNight":"N","scanKm":0.4,"trackKm":0.37},"geometry":{"type":"Point","coordinates":[-122.89111,42.63786]}},{"type":"Feature","properties":{"observedAt":"2026-07-16T10:06:00Z","satellite":"N20","instrument":"VIIRS","confidence":"n","frpMw":3.21,"brightnessI4K":338.64,"brightnessI5K":287.17,"dayNight":"N","scanKm":0.4,"trackKm":0.37},"geometry":{"type":"Point","coordinates":[-122.92886,42.638]}},{"type":"Feature","properties":{"observedAt":"2026-07-16T10:06:00Z","satellite":"N20","instrument":"VIIRS","confidence":"n","frpMw":4.06,"brightnessI4K":336.6,"brightnessI5K":292.55,"dayNight":"N","scanKm":0.4,"trackKm":0.37},"geometry":{"type":"Point","coordinates":[-122.90822,42.63851]}},{"type":"Feature","properties":{"observedAt":"2026-07-16T10:06:00Z","satellite":"N20","instrument":"VIIRS","confidence":"n","frpMw":4.32,"brightnessI4K":337.79,"brightnessI5K":290.49,"dayNight":"N","scanKm":0.4,"trackKm":0.37},"geometry":{"type":"Point","coordinates":[-122.8959,42.63853]}},{"type":"Feature","properties":{"observedAt":"2026-07-16T10:06:00Z","satellite":"N20","instrument":"VIIRS","confidence":"n","frpMw":2.72,"brightnessI4K":322.17,"brightnessI5K":289.27,"dayNight":"N","scanKm":0.4,"trackKm":0.37},"geometry":{"type":"Point","coordinates":[-123.008,42.63882]}},{"type":"Feature","properties":{"observedAt":"2026-07-16T10:06:00Z","satellite":"N20","instrument":"VIIRS","confidence":"n","frpMw":3.82,"brightnessI4K":326.39,"brightnessI5K":283.74,"dayNight":"N","scanKm":0.4,"trackKm":0.37},"geometry":{"type":"Point","coordinates":[-122.85116,42.63914]}},{"type":"Feature","properties":{"observedAt":"2026-07-16T10:06:00Z","satellite":"N20","instrument":"VIIRS","confidence":"n","frpMw":2.42,"brightnessI4K":326.09,"brightnessI5K":290.22,"dayNight":"N","scanKm":0.4,"trackKm":0.37},"geometry":{"type":"Point","coordinates":[-122.91306,42.6392]}},{"type":"Feature","properties":{"observedAt":"2026-07-16T10:06:00Z","satellite":"N20","instrument":"VIIRS","confidence":"n","frpMw":4.32,"brightnessI4K":339.46,"brightnessI5K":292.96,"dayNight":"N","scanKm":0.4,"trackKm":0.37},"geometry":{"type":"Point","coordinates":[-122.90067,42.6392]}},{"type":"Feature","properties":{"observedAt":"2026-07-16T10:06:00Z","satellite":"N20","instrument":"VIIRS","confidence":"n","frpMw":1.92,"brightnessI4K":329.68,"brightnessI5K":288.47,"dayNight":"N","scanKm":0.4,"trackKm":0.37},"geometry":{"type":"Point","coordinates":[-123.01299,42.63952]}},{"type":"Feature","properties":{"observedAt":"2026-07-16T10:06:00Z","satellite":"N20","instrument":"VIIRS","confidence":"n","frpMw":5.51,"brightnessI4K":297.5,"brightnessI5K":283.58,"dayNight":"N","scanKm":0.4,"trackKm":0.37},"geometry":{"type":"Point","coordinates":[-122.85587,42.6398]}},{"type":"Feature","properties":{"observedAt":"2026-07-16T10:06:00Z","satellite":"N20","instrument":"VIIRS","confidence":"n","frpMw":3.36,"brightnessI4K":338.49,"brightnessI5K":292.61,"dayNight":"N","scanKm":0.4,"trackKm":0.37},"geometry":{"type":"Point","coordinates":[-122.90544,42.63987]}},{"type":"Feature","properties":{"observedAt":"2026-07-16T10:06:00Z","satellite":"N20","instrument":"VIIRS","confidence":"n","frpMw":2.42,"brightnessI4K":320.23,"brightnessI5K":291.3,"dayNight":"N","scanKm":0.4,"trackKm":0.37},"geometry":{"type":"Point","coordinates":[-122.91801,42.6399]}},{"type":"Feature","properties":{"observedAt":"2026-07-16T10:06:00Z","satellite":"N20","instrument":"VIIRS","confidence":"n","frpMw":3.36,"brightnessI4K":328.17,"brightnessI5K":292.13,"dayNight":"N","scanKm":0.4,"trackKm":0.37},"geometry":{"type":"Point","coordinates":[-122.91026,42.64054]}},{"type":"Feature","properties":{"observedAt":"2026-07-16T10:06:00Z","satellite":"N20","instrument":"VIIRS","confidence":"n","frpMw":3.21,"brightnessI4K":315.06,"brightnessI5K":290.62,"dayNight":"N","scanKm":0.4,"trackKm":0.37},"geometry":{"type":"Point","coordinates":[-122.92298,42.64061]}},{"type":"Feature","properties":{"observedAt":"2026-07-16T10:06:00Z","satellite":"N20","instrument":"VIIRS","confidence":"n","frpMw":1.2,"brightnessI4K":301.92,"brightnessI5K":288.18,"dayNight":"N","scanKm":0.4,"trackKm":0.37},"geometry":{"type":"Point","coordinates":[-122.99747,42.64079]}},{"type":"Feature","properties":{"observedAt":"2026-07-16T10:06:00Z","satellite":"N20","instrument":"VIIRS","confidence":"n","frpMw":3.27,"brightnessI4K":333.63,"brightnessI5K":293.62,"dayNight":"N","scanKm":0.4,"trackKm":0.37},"geometry":{"type":"Point","coordinates":[-122.9152,42.64123]}},{"type":"Feature","properties":{"observedAt":"2026-07-16T10:06:00Z","satellite":"N20","instrument":"VIIRS","confidence":"n","frpMw":3.21,"brightnessI4K":328.54,"brightnessI5K":286.94,"dayNight":"N","scanKm":0.4,"trackKm":0.37},"geometry":{"type":"Point","coordinates":[-122.92794,42.64132]}},{"type":"Feature","properties":{"observedAt":"2026-07-16T10:06:00Z","satellite":"N20","instrument":"VIIRS","confidence":"n","frpMw":1.72,"brightnessI4K":313.43,"brightnessI5K":288.82,"dayNight":"N","scanKm":0.4,"trackKm":0.37},"geometry":{"type":"Point","coordinates":[-123.00223,42.64146]}},{"type":"Feature","properties":{"observedAt":"2026-07-16T10:06:00Z","satellite":"N20","instrument":"VIIRS","confidence":"n","frpMw":3.27,"brightnessI4K":312.36,"brightnessI5K":290.76,"dayNight":"N","scanKm":0.4,"trackKm":0.37},"geometry":{"type":"Point","coordinates":[-122.92016,42.64192]}},{"type":"Feature","properties":{"observedAt":"2026-07-16T10:06:00Z","satellite":"N20","instrument":"VIIRS","confidence":"n","frpMw":3.56,"brightnessI4K":328.73,"brightnessI5K":288.07,"dayNight":"N","scanKm":0.4,"trackKm":0.37},"geometry":{"type":"Point","coordinates":[-122.93286,42.64202]}},{"type":"Feature","properties":{"observedAt":"2026-07-16T10:06:00Z","satellite":"N20","instrument":"VIIRS","confidence":"n","frpMw":1.72,"brightnessI4K":322.66,"brightnessI5K":287.58,"dayNight":"N","scanKm":0.4,"trackKm":0.37},"geometry":{"type":"Point","coordinates":[-123.00707,42.64215]}},{"type":"Feature","properties":{"observedAt":"2026-07-16T10:06:00Z","satellite":"N20","instrument":"VIIRS","confidence":"n","frpMw":3.82,"brightnessI4K":338.66,"brightnessI5K":291.16,"dayNight":"N","scanKm":0.4,"trackKm":0.37},"geometry":{"type":"Point","coordinates":[-122.85031,42.64247]}},{"type":"Feature","properties":{"observedAt":"2026-07-16T10:06:00Z","satellite":"N20","instrument":"VIIRS","confidence":"n","frpMw":1.27,"brightnessI4K":307.62,"brightnessI5K":281.34,"dayNight":"N","scanKm":0.4,"trackKm":0.37},"geometry":{"type":"Point","coordinates":[-122.92513,42.64261]}},{"type":"Feature","properties":{"observedAt":"2026-07-16T10:06:00Z","satellite":"N20","instrument":"VIIRS","confidence":"n","frpMw":5.51,"brightnessI4K":354.13,"brightnessI5K":294.2,"dayNight":"N","scanKm":0.4,"trackKm":0.37},"geometry":{"type":"Point","coordinates":[-122.85501,42.64313]}},{"type":"Feature","properties":{"observedAt":"2026-07-16T10:06:00Z","satellite":"N20","instrument":"VIIRS","confidence":"n","frpMw":3.36,"brightnessI4K":316.64,"brightnessI5K":287.36,"dayNight":"N","scanKm":0.4,"trackKm":0.37},"geometry":{"type":"Point","coordinates":[-122.90449,42.64319]}},{"type":"Feature","properties":{"observedAt":"2026-07-16T10:06:00Z","satellite":"N20","instrument":"VIIRS","confidence":"n","frpMw":1.27,"brightnessI4K":321.9,"brightnessI5K":279.69,"dayNight":"N","scanKm":0.4,"trackKm":0.37},"geometry":{"type":"Point","coordinates":[-122.93007,42.6433]}},{"type":"Feature","properties":{"observedAt":"2026-07-16T10:06:00Z","satellite":"N20","instrument":"VIIRS","confidence":"n","frpMw":3.36,"brightnessI4K":335.63,"brightnessI5K":294.22,"dayNight":"N","scanKm":0.4,"trackKm":0.37},"geometry":{"type":"Point","coordinates":[-122.90936,42.64387]}},{"type":"Feature","properties":{"observedAt":"2026-07-16T10:06:00Z","satellite":"N20","instrument":"VIIRS","confidence":"n","frpMw":1.96,"brightnessI4K":321.36,"brightnessI5K":287.23,"dayNight":"N","scanKm":0.4,"trackKm":0.37},"geometry":{"type":"Point","coordinates":[-122.93497,42.64398]}},{"type":"Feature","properties":{"observedAt":"2026-07-16T10:06:00Z","satellite":"N20","instrument":"VIIRS","confidence":"n","frpMw":3.27,"brightnessI4K":329.09,"brightnessI5K":293.49,"dayNight":"N","scanKm":0.4,"trackKm":0.37},"geometry":{"type":"Point","coordinates":[-122.91431,42.64456]}},{"type":"Feature","properties":{"observedAt":"2026-07-16T10:06:00Z","satellite":"N20","instrument":"VIIRS","confidence":"n","frpMw":3.27,"brightnessI4K":336.67,"brightnessI5K":292.46,"dayNight":"N","scanKm":0.4,"trackKm":0.37},"geometry":{"type":"Point","coordinates":[-122.91928,42.64525]}},{"type":"Feature","properties":{"observedAt":"2026-07-16T10:06:00Z","satellite":"N20","instrument":"VIIRS","confidence":"n","frpMw":6.35,"brightnessI4K":331.01,"brightnessI5K":292.13,"dayNight":"N","scanKm":0.4,"trackKm":0.37},"geometry":{"type":"Point","coordinates":[-122.84946,42.6458]}},{"type":"Feature","properties":{"observedAt":"2026-07-16T10:06:00Z","satellite":"N20","instrument":"VIIRS","confidence":"n","frpMw":1.27,"brightnessI4K":311.53,"brightnessI5K":278.93,"dayNight":"N","scanKm":0.4,"trackKm":0.37},"geometry":{"type":"Point","coordinates":[-122.92422,42.64594]}},{"type":"Feature","properties":{"observedAt":"2026-07-16T10:06:00Z","satellite":"N20","instrument":"VIIRS","confidence":"n","frpMw":3.6,"brightnessI4K":349.95,"brightnessI5K":295.87,"dayNight":"N","scanKm":0.4,"trackKm":0.37},"geometry":{"type":"Point","coordinates":[-122.85419,42.64647]}},{"type":"Feature","properties":{"observedAt":"2026-07-16T10:06:00Z","satellite":"N20","instrument":"VIIRS","confidence":"n","frpMw":2.86,"brightnessI4K":306.51,"brightnessI5K":286.32,"dayNight":"N","scanKm":0.4,"trackKm":0.37},"geometry":{"type":"Point","coordinates":[-122.90352,42.64651]}},{"type":"Feature","properties":{"observedAt":"2026-07-16T10:06:00Z","satellite":"N20","instrument":"VIIRS","confidence":"n","frpMw":1.39,"brightnessI4K":300.47,"brightnessI5K":287.86,"dayNight":"N","scanKm":0.4,"trackKm":0.37},"geometry":{"type":"Point","coordinates":[-122.99067,42.64674]}},{"type":"Feature","properties":{"observedAt":"2026-07-16T10:06:00Z","satellite":"N20","instrument":"VIIRS","confidence":"n","frpMw":3.6,"brightnessI4K":304.19,"brightnessI5K":286.99,"dayNight":"N","scanKm":0.4,"trackKm":0.37},"geometry":{"type":"Point","coordinates":[-122.859,42.64715]}},{"type":"Feature","properties":{"observedAt":"2026-07-16T10:06:00Z","satellite":"N20","instrument":"VIIRS","confidence":"n","frpMw":2.86,"brightnessI4K":330.92,"brightnessI5K":292.37,"dayNight":"N","scanKm":0.4,"trackKm":0.37},"geometry":{"type":"Point","coordinates":[-122.90845,42.64721]}},{"type":"Feature","properties":{"observedAt":"2026-07-16T10:06:00Z","satellite":"N20","instrument":"VIIRS","confidence":"n","frpMw":1.96,"brightnessI4K":308.47,"brightnessI5K":286.59,"dayNight":"N","scanKm":0.4,"trackKm":0.37},"geometry":{"type":"Point","coordinates":[-122.93409,42.64732]}},{"type":"Feature","properties":{"observedAt":"2026-07-16T10:06:00Z","satellite":"N20","instrument":"VIIRS","confidence":"n","frpMw":1.69,"brightnessI4K":312.2,"brightnessI5K":290.04,"dayNight":"N","scanKm":0.4,"trackKm":0.37},"geometry":{"type":"Point","coordinates":[-122.91342,42.6479]}},{"type":"Feature","properties":{"observedAt":"2026-07-16T10:06:00Z","satellite":"N20","instrument":"VIIRS","confidence":"n","frpMw":1.69,"brightnessI4K":318.4,"brightnessI5K":290.54,"dayNight":"N","scanKm":0.4,"trackKm":0.37},"geometry":{"type":"Point","coordinates":[-122.91838,42.64859]}},{"type":"Feature","properties":{"observedAt":"2026-07-16T10:06:00Z","satellite":"N20","instrument":"VIIRS","confidence":"n","frpMw":2.03,"brightnessI4K":306.5,"brightnessI5K":288.18,"dayNight":"N","scanKm":0.4,"trackKm":0.37},"geometry":{"type":"Point","coordinates":[-122.8978,42.64917]}},{"type":"Feature","properties":{"observedAt":"2026-07-16T10:06:00Z","satellite":"N20","instrument":"VIIRS","confidence":"n","frpMw":1.62,"brightnessI4K":309.58,"brightnessI5K":285.53,"dayNight":"N","scanKm":0.4,"trackKm":0.37},"geometry":{"type":"Point","coordinates":[-122.92334,42.64928]}},{"type":"Feature","properties":{"observedAt":"2026-07-16T10:06:00Z","satellite":"N20","instrument":"VIIRS","confidence":"n","frpMw":1.23,"brightnessI4K":315.89,"brightnessI5K":285.31,"dayNight":"N","scanKm":0.4,"trackKm":0.37},"geometry":{"type":"Point","coordinates":[-122.98503,42.64941]}},{"type":"Feature","properties":{"observedAt":"2026-07-16T10:06:00Z","satellite":"N20","instrument":"VIIRS","confidence":"n","frpMw":3.6,"brightnessI4K":343.74,"brightnessI5K":293.09,"dayNight":"N","scanKm":0.4,"trackKm":0.37},"geometry":{"type":"Point","coordinates":[-122.85342,42.64981]}},{"type":"Feature","properties":{"observedAt":"2026-07-16T10:06:00Z","satellite":"N20","instrument":"VIIRS","confidence":"n","frpMw":1.39,"brightnessI4K":315.38,"brightnessI5K":288.28,"dayNight":"N","scanKm":0.4,"trackKm":0.37},"geometry":{"type":"Point","coordinates":[-122.98978,42.65008]}},{"type":"Feature","properties":{"observedAt":"2026-07-16T10:06:00Z","satellite":"N20","instrument":"VIIRS","confidence":"n","frpMw":3.6,"brightnessI4K":310.16,"brightnessI5K":288.32,"dayNight":"N","scanKm":0.4,"trackKm":0.37},"geometry":{"type":"Point","coordinates":[-122.85825,42.65049]}},{"type":"Feature","properties":{"observedAt":"2026-07-16T10:06:00Z","satellite":"N20","instrument":"VIIRS","confidence":"n","frpMw":5.02,"brightnessI4K":315.4,"brightnessI5K":285.85,"dayNight":"N","scanKm":0.4,"trackKm":0.37},"geometry":{"type":"Point","coordinates":[-122.98243,42.65064]}},{"type":"Feature","properties":{"observedAt":"2026-07-16T10:06:00Z","satellite":"N20","instrument":"VIIRS","confidence":"n","frpMw":1.48,"brightnessI4K":300.55,"brightnessI5K":284.16,"dayNight":"N","scanKm":0.4,"trackKm":0.37},"geometry":{"type":"Point","coordinates":[-122.93321,42.65065]}},{"type":"Feature","properties":{"observedAt":"2026-07-16T10:06:00Z","satellite":"N20","instrument":"VIIRS","confidence":"n","frpMw":1.39,"brightnessI4K":314.64,"brightnessI5K":284.62,"dayNight":"N","scanKm":0.4,"trackKm":0.37},"geometry":{"type":"Point","coordinates":[-122.99463,42.65077]}},{"type":"Feature","properties":{"observedAt":"2026-07-16T10:06:00Z","satellite":"N20","instrument":"VIIRS","confidence":"n","frpMw":1.69,"brightnessI4K":309.85,"brightnessI5K":289.91,"dayNight":"N","scanKm":0.4,"trackKm":0.37},"geometry":{"type":"Point","coordinates":[-122.91252,42.65123]}},{"type":"Feature","properties":{"observedAt":"2026-07-16T10:06:00Z","satellite":"N20","instrument":"VIIRS","confidence":"n","frpMw":5.02,"brightnessI4K":347.28,"brightnessI5K":292.57,"dayNight":"N","scanKm":0.4,"trackKm":0.37},"geometry":{"type":"Point","coordinates":[-122.98714,42.6513]}},{"type":"Feature","properties":{"observedAt":"2026-07-16T10:06:00Z","satellite":"N20","instrument":"VIIRS","confidence":"n","frpMw":1.69,"brightnessI4K":311.95,"brightnessI5K":286.28,"dayNight":"N","scanKm":0.4,"trackKm":0.37},"geometry":{"type":"Point","coordinates":[-122.91749,42.65192]}},{"type":"Feature","properties":{"observedAt":"2026-07-16T10:06:00Z","satellite":"N20","instrument":"VIIRS","confidence":"n","frpMw":8.64,"brightnessI4K":346.19,"brightnessI5K":292.22,"dayNight":"N","scanKm":0.4,"trackKm":0.37},"geometry":{"type":"Point","coordinates":[-122.99194,42.65197]}},{"type":"Feature","properties":{"observedAt":"2026-07-16T10:06:00Z","satellite":"N20","instrument":"VIIRS","confidence":"n","frpMw":1.62,"brightnessI4K":311.91,"brightnessI5K":290.05,"dayNight":"N","scanKm":0.4,"trackKm":0.37},"geometry":{"type":"Point","coordinates":[-122.92244,42.65261]}},{"type":"Feature","properties":{"observedAt":"2026-07-16T10:06:00Z","satellite":"N20","instrument":"VIIRS","confidence":"n","frpMw":1.03,"brightnessI4K":318.12,"brightnessI5K":288.27,"dayNight":"N","scanKm":0.4,"trackKm":0.37},"geometry":{"type":"Point","coordinates":[-122.85265,42.65315]}},{"type":"Feature","properties":{"observedAt":"2026-07-16T10:06:00Z","satellite":"N20","instrument":"VIIRS","confidence":"n","frpMw":1.62,"brightnessI4K":315.8,"brightnessI5K":290.52,"dayNight":"N","scanKm":0.4,"trackKm":0.37},"geometry":{"type":"Point","coordinates":[-122.9274,42.6533]}},{"type":"Feature","properties":{"observedAt":"2026-07-16T10:06:00Z","satellite":"N20","instrument":"VIIRS","confidence":"n","frpMw":2.45,"brightnessI4K":316.0,"brightnessI5K":290.12,"dayNight":"N","scanKm":0.4,"trackKm":0.37},"geometry":{"type":"Point","coordinates":[-122.97702,42.65333]}},{"type":"Feature","properties":{"observedAt":"2026-07-16T10:06:00Z","satellite":"N20","instrument":"VIIRS","confidence":"n","frpMw":1.03,"brightnessI4K":299.73,"brightnessI5K":282.29,"dayNight":"N","scanKm":0.4,"trackKm":0.37},"geometry":{"type":"Point","coordinates":[-122.85747,42.65383]}},{"type":"Feature","properties":{"observedAt":"2026-07-16T10:06:00Z","satellite":"N20","instrument":"VIIRS","confidence":"n","frpMw":1.48,"brightnessI4K":311.88,"brightnessI5K":289.68,"dayNight":"N","scanKm":0.4,"trackKm":0.37},"geometry":{"type":"Point","coordinates":[-122.93235,42.65399]}},{"type":"Feature","properties":{"observedAt":"2026-07-16T10:06:00Z","satellite":"N20","instrument":"VIIRS","confidence":"n","frpMw":2.35,"brightnessI4K":314.03,"brightnessI5K":285.02,"dayNight":"N","scanKm":0.4,"trackKm":0.37},"geometry":{"type":"Point","coordinates":[-122.89606,42.65583]}},{"type":"Feature","properties":{"observedAt":"2026-07-16T10:06:00Z","satellite":"N20","instrument":"VIIRS","confidence":"n","frpMw":2.11,"brightnessI4K":306.83,"brightnessI5K":288.77,"dayNight":"N","scanKm":0.4,"trackKm":0.37},"geometry":{"type":"Point","coordinates":[-122.92156,42.65594]}},{"type":"Feature","properties":{"observedAt":"2026-07-16T10:06:00Z","satellite":"N20","instrument":"VIIRS","confidence":"n","frpMw":2.11,"brightnessI4K":314.39,"brightnessI5K":290.36,"dayNight":"N","scanKm":0.4,"trackKm":0.37},"geometry":{"type":"Point","coordinates":[-122.92652,42.65664]}},{"type":"Feature","properties":{"observedAt":"2026-07-16T10:06:00Z","satellite":"N20","instrument":"VIIRS","confidence":"n","frpMw":0.96,"brightnessI4K":304.58,"brightnessI5K":284.44,"dayNight":"N","scanKm":0.4,"trackKm":0.37},"geometry":{"type":"Point","coordinates":[-122.93148,42.65733]}},{"type":"Feature","properties":{"observedAt":"2026-07-16T10:06:00Z","satellite":"N20","instrument":"VIIRS","confidence":"n","frpMw":0.96,"brightnessI4K":300.16,"brightnessI5K":280.38,"dayNight":"N","scanKm":0.4,"trackKm":0.37},"geometry":{"type":"Point","coordinates":[-122.93641,42.65801]}},{"type":"Feature","properties":{"observedAt":"2026-07-16T10:06:00Z","satellite":"N20","instrument":"VIIRS","confidence":"n","frpMw":2.66,"brightnessI4K":325.29,"brightnessI5K":283.5,"dayNight":"N","scanKm":0.4,"trackKm":0.37},"geometry":{"type":"Point","coordinates":[-122.89521,42.65917]}},{"type":"Feature","properties":{"observedAt":"2026-07-16T10:06:00Z","satellite":"N20","instrument":"VIIRS","confidence":"n","frpMw":1.35,"brightnessI4K":302.76,"brightnessI5K":285.11,"dayNight":"N","scanKm":0.4,"trackKm":0.37},"geometry":{"type":"Point","coordinates":[-122.94043,42.66203]}},{"type":"Feature","properties":{"observedAt":"2026-07-16T10:06:00Z","satellite":"N20","instrument":"VIIRS","confidence":"n","frpMw":1.42,"brightnessI4K":305.38,"brightnessI5K":288.51,"dayNight":"N","scanKm":0.4,"trackKm":0.37},"geometry":{"type":"Point","coordinates":[-122.92474,42.6633]}},{"type":"Feature","properties":{"observedAt":"2026-07-16T10:06:00Z","satellite":"N20","instrument":"VIIRS","confidence":"n","frpMw":0.92,"brightnessI4K":301.18,"brightnessI5K":278.99,"dayNight":"N","scanKm":0.4,"trackKm":0.37},"geometry":{"type":"Point","coordinates":[-122.90402,42.66386]}},{"type":"Feature","properties":{"observedAt":"2026-07-16T10:06:00Z","satellite":"N20","instrument":"VIIRS","confidence":"n","frpMw":1.79,"brightnessI4K":296.72,"brightnessI5K":278.56,"dayNight":"N","scanKm":0.4,"trackKm":0.37},"geometry":{"type":"Point","coordinates":[-122.90895,42.66455]}},{"type":"Feature","properties":{"observedAt":"2026-07-16T10:06:00Z","satellite":"N20","instrument":"VIIRS","confidence":"n","frpMw":1.79,"brightnessI4K":317.73,"brightnessI5K":290.01,"dayNight":"N","scanKm":0.4,"trackKm":0.37},"geometry":{"type":"Point","coordinates":[-122.91391,42.66525]}},{"type":"Feature","properties":{"observedAt":"2026-07-16T10:06:00Z","satellite":"N20","instrument":"VIIRS","confidence":"n","frpMw":1.9,"brightnessI4K":321.86,"brightnessI5K":283.01,"dayNight":"N","scanKm":0.4,"trackKm":0.37},"geometry":{"type":"Point","coordinates":[-122.93951,42.66536]}},{"type":"Feature","properties":{"observedAt":"2026-07-16T10:06:00Z","satellite":"N20","instrument":"VIIRS","confidence":"n","frpMw":1.42,"brightnessI4K":306.92,"brightnessI5K":289.28,"dayNight":"N","scanKm":0.4,"trackKm":0.37},"geometry":{"type":"Point","coordinates":[-122.91885,42.66593]}},{"type":"Feature","properties":{"observedAt":"2026-07-16T10:06:00Z","satellite":"N20","instrument":"VIIRS","confidence":"n","frpMw":2.03,"brightnessI4K":313.06,"brightnessI5K":283.43,"dayNight":"N","scanKm":0.4,"trackKm":0.37},"geometry":{"type":"Point","coordinates":[-122.89839,42.66652]}},{"type":"Feature","properties":{"observedAt":"2026-07-16T10:06:00Z","satellite":"N20","instrument":"VIIRS","confidence":"n","frpMw":1.42,"brightnessI4K":309.47,"brightnessI5K":289.27,"dayNight":"N","scanKm":0.4,"trackKm":0.37},"geometry":{"type":"Point","coordinates":[-122.92381,42.66663]}},{"type":"Feature","properties":{"observedAt":"2026-07-16T10:06:00Z","satellite":"N20","instrument":"VIIRS","confidence":"n","frpMw":2.03,"brightnessI4K":326.36,"brightnessI5K":287.46,"dayNight":"N","scanKm":0.4,"trackKm":0.37},"geometry":{"type":"Point","coordinates":[-122.90326,42.6672]}},{"type":"Feature","properties":{"observedAt":"2026-07-16T10:06:00Z","satellite":"N20","instrument":"VIIRS","confidence":"n","frpMw":3.43,"brightnessI4K":319.56,"brightnessI5K":288.2,"dayNight":"N","scanKm":0.4,"trackKm":0.37},"geometry":{"type":"Point","coordinates":[-122.92876,42.66732]}},{"type":"Feature","properties":{"observedAt":"2026-07-16T10:06:00Z","satellite":"N20","instrument":"VIIRS","confidence":"n","frpMw":4.08,"brightnessI4K":346.41,"brightnessI5K":292.74,"dayNight":"N","scanKm":0.4,"trackKm":0.37},"geometry":{"type":"Point","coordinates":[-122.90817,42.66789]}},{"type":"Feature","properties":{"observedAt":"2026-07-16T10:06:00Z","satellite":"N20","instrument":"VIIRS","confidence":"n","frpMw":4.08,"brightnessI4K":327.96,"brightnessI5K":289.86,"dayNight":"N","scanKm":0.4,"trackKm":0.37},"geometry":{"type":"Point","coordinates":[-122.91306,42.66858]}},{"type":"Feature","properties":{"observedAt":"2026-07-16T10:06:00Z","satellite":"N20","instrument":"VIIRS","confidence":"n","frpMw":2.94,"brightnessI4K":306.96,"brightnessI5K":289.95,"dayNight":"N","scanKm":0.4,"trackKm":0.37},"geometry":{"type":"Point","coordinates":[-122.92287,42.66995]}},{"type":"Feature","properties":{"observedAt":"2026-07-16T10:06:00Z","satellite":"N20","instrument":"VIIRS","confidence":"n","frpMw":5.16,"brightnessI4K":332.72,"brightnessI5K":290.0,"dayNight":"N","scanKm":0.4,"trackKm":0.37},"geometry":{"type":"Point","coordinates":[-122.9278,42.67064]}},{"type":"Feature","properties":{"observedAt":"2026-07-16T10:06:00Z","satellite":"N20","instrument":"VIIRS","confidence":"n","frpMw":4.08,"brightnessI4K":325.14,"brightnessI5K":288.65,"dayNight":"N","scanKm":0.4,"trackKm":0.37},"geometry":{"type":"Point","coordinates":[-122.91225,42.67192]}},{"type":"Feature","properties":{"observedAt":"2026-07-16T10:06:00Z","satellite":"N20","instrument":"VIIRS","confidence":"n","frpMw":2.94,"brightnessI4K":335.03,"brightnessI5K":292.33,"dayNight":"N","scanKm":0.4,"trackKm":0.37},"geometry":{"type":"Point","coordinates":[-122.91711,42.6726]}},{"type":"Feature","properties":{"observedAt":"2026-07-16T10:06:00Z","satellite":"N20","instrument":"VIIRS","confidence":"n","frpMw":2.94,"brightnessI4K":318.79,"brightnessI5K":289.73,"dayNight":"N","scanKm":0.4,"trackKm":0.37},"geometry":{"type":"Point","coordinates":[-122.92196,42.67328]}},{"type":"Feature","properties":{"observedAt":"2026-07-16T10:06:00Z","satellite":"N20","instrument":"VIIRS","confidence":"n","frpMw":5.16,"brightnessI4K":339.63,"brightnessI5K":290.72,"dayNight":"N","scanKm":0.4,"trackKm":0.37},"geometry":{"type":"Point","coordinates":[-122.92692,42.67398]}},{"type":"Feature","properties":{"observedAt":"2026-07-16T10:06:00Z","satellite":"N20","instrument":"VIIRS","confidence":"n","frpMw":1.24,"brightnessI4K":321.75,"brightnessI5K":282.17,"dayNight":"N","scanKm":0.4,"trackKm":0.37},"geometry":{"type":"Point","coordinates":[-122.95206,42.67404]}},{"type":"Feature","properties":{"observedAt":"2026-07-16T10:06:00Z","satellite":"N20","instrument":"VIIRS","confidence":"n","frpMw":3.61,"brightnessI4K":325.1,"brightnessI5K":286.51,"dayNight":"N","scanKm":0.4,"trackKm":0.37},"geometry":{"type":"Point","coordinates":[-122.95683,42.67471]}},{"type":"Feature","properties":{"observedAt":"2026-07-16T10:06:00Z","satellite":"N20","instrument":"VIIRS","confidence":"n","frpMw":1.84,"brightnessI4K":301.02,"brightnessI5K":286.79,"dayNight":"N","scanKm":0.4,"trackKm":0.37},"geometry":{"type":"Point","coordinates":[-122.91624,42.67594]}},{"type":"Feature","properties":{"observedAt":"2026-07-16T10:06:00Z","satellite":"N20","instrument":"VIIRS","confidence":"n","frpMw":1.84,"brightnessI4K":325.56,"brightnessI5K":289.04,"dayNight":"N","scanKm":0.4,"trackKm":0.37},"geometry":{"type":"Point","coordinates":[-122.92108,42.67662]}},{"type":"Feature","properties":{"observedAt":"2026-07-16T10:06:00Z","satellite":"N20","instrument":"VIIRS","confidence":"n","frpMw":3.61,"brightnessI4K":331.23,"brightnessI5K":287.82,"dayNight":"N","scanKm":0.4,"trackKm":0.37},"geometry":{"type":"Point","coordinates":[-122.92603,42.67731]}},{"type":"Feature","properties":{"observedAt":"2026-07-16T10:06:00Z","satellite":"N20","instrument":"VIIRS","confidence":"n","frpMw":1.24,"brightnessI4K":299.83,"brightnessI5K":282.88,"dayNight":"N","scanKm":0.4,"trackKm":0.37},"geometry":{"type":"Point","coordinates":[-122.95115,42.67738]}},{"type":"Feature","properties":{"observedAt":"2026-07-16T09:11:00Z","satellite":"N21","instrument":"VIIRS","confidence":"n","frpMw":2.13,"brightnessI4K":303.02,"brightnessI5K":279.34,"dayNight":"N","scanKm":0.5,"trackKm":0.66},"geometry":{"type":"Point","coordinates":[-123.0065,42.59076]}},{"type":"Feature","properties":{"observedAt":"2026-07-16T09:11:00Z","satellite":"N21","instrument":"VIIRS","confidence":"n","frpMw":2.87,"brightnessI4K":327.17,"brightnessI5K":285.21,"dayNight":"N","scanKm":0.5,"trackKm":0.66},"geometry":{"type":"Point","coordinates":[-123.00648,42.59545]}},{"type":"Feature","properties":{"observedAt":"2026-07-16T09:11:00Z","satellite":"N21","instrument":"VIIRS","confidence":"n","frpMw":6.6,"brightnessI4K":328.54,"brightnessI5K":286.99,"dayNight":"N","scanKm":0.5,"trackKm":0.66},"geometry":{"type":"Point","coordinates":[-123.0061,42.59681]}},{"type":"Feature","properties":{"observedAt":"2026-07-16T09:11:00Z","satellite":"N21","instrument":"VIIRS","confidence":"n","frpMw":1.08,"brightnessI4K":298.31,"brightnessI5K":285.35,"dayNight":"N","scanKm":0.5,"trackKm":0.66},"geometry":{"type":"Point","coordinates":[-123.03413,42.61568]}},{"type":"Feature","properties":{"observedAt":"2026-07-16T09:11:00Z","satellite":"N21","instrument":"VIIRS","confidence":"n","frpMw":13.47,"brightnessI4K":311.26,"brightnessI5K":279.37,"dayNight":"N","scanKm":0.5,"trackKm":0.66},"geometry":{"type":"Point","coordinates":[-122.91033,42.61867]}},{"type":"Feature","properties":{"observedAt":"2026-07-16T09:11:00Z","satellite":"N21","instrument":"VIIRS","confidence":"n","frpMw":8.6,"brightnessI4K":335.1,"brightnessI5K":285.37,"dayNight":"N","scanKm":0.5,"trackKm":0.66},"geometry":{"type":"Point","coordinates":[-122.9006,42.62446]}},{"type":"Feature","properties":{"observedAt":"2026-07-16T09:11:00Z","satellite":"N21","instrument":"VIIRS","confidence":"n","frpMw":8.6,"brightnessI4K":323.73,"brightnessI5K":287.04,"dayNight":"N","scanKm":0.5,"trackKm":0.66},"geometry":{"type":"Point","coordinates":[-122.90533,42.62458]}},{"type":"Feature","properties":{"observedAt":"2026-07-16T09:11:00Z","satellite":"N21","instrument":"VIIRS","confidence":"h","frpMw":13.47,"brightnessI4K":367.0,"brightnessI5K":292.49,"dayNight":"N","scanKm":0.5,"trackKm":0.66},"geometry":{"type":"Point","coordinates":[-122.91077,42.62472]}},{"type":"Feature","properties":{"observedAt":"2026-07-16T09:11:00Z","satellite":"N21","instrument":"VIIRS","confidence":"n","frpMw":13.47,"brightnessI4K":345.19,"brightnessI5K":284.48,"dayNight":"N","scanKm":0.5,"trackKm":0.66},"geometry":{"type":"Point","coordinates":[-122.91798,42.6249]}},{"type":"Feature","properties":{"observedAt":"2026-07-16T09:11:00Z","satellite":"N21","instrument":"VIIRS","confidence":"n","frpMw":3.48,"brightnessI4K":297.73,"brightnessI5K":285.47,"dayNight":"N","scanKm":0.5,"trackKm":0.66},"geometry":{"type":"Point","coordinates":[-122.89569,42.63036]}},{"type":"Feature","properties":{"observedAt":"2026-07-16T09:11:00Z","satellite":"N21","instrument":"VIIRS","confidence":"n","frpMw":6.07,"brightnessI4K":317.1,"brightnessI5K":286.82,"dayNight":"N","scanKm":0.5,"trackKm":0.66},"geometry":{"type":"Point","coordinates":[-122.90089,42.6305]}},{"type":"Feature","properties":{"observedAt":"2026-07-16T09:11:00Z","satellite":"N21","instrument":"VIIRS","confidence":"n","frpMw":6.07,"brightnessI4K":318.24,"brightnessI5K":287.9,"dayNight":"N","scanKm":0.5,"trackKm":0.66},"geometry":{"type":"Point","coordinates":[-122.90599,42.63063]}},{"type":"Feature","properties":{"observedAt":"2026-07-16T09:11:00Z","satellite":"N21","instrument":"VIIRS","confidence":"n","frpMw":7.32,"brightnessI4K":324.98,"brightnessI5K":289.04,"dayNight":"N","scanKm":0.5,"trackKm":0.66},"geometry":{"type":"Point","coordinates":[-122.91129,42.63077]}},{"type":"Feature","properties":{"observedAt":"2026-07-16T09:11:00Z","satellite":"N21","instrument":"VIIRS","confidence":"n","frpMw":2.4,"brightnessI4K":300.61,"brightnessI5K":285.99,"dayNight":"N","scanKm":0.5,"trackKm":0.66},"geometry":{"type":"Point","coordinates":[-123.01358,42.63339]}},{"type":"Feature","properties":{"observedAt":"2026-07-16T09:11:00Z","satellite":"N21","instrument":"VIIRS","confidence":"n","frpMw":1.73,"brightnessI4K":309.59,"brightnessI5K":286.19,"dayNight":"N","scanKm":0.49,"trackKm":0.65},"geometry":{"type":"Point","coordinates":[-122.8536,42.63528]}},{"type":"Feature","properties":{"observedAt":"2026-07-16T09:11:00Z","satellite":"N21","instrument":"VIIRS","confidence":"n","frpMw":3.48,"brightnessI4K":315.62,"brightnessI5K":285.84,"dayNight":"N","scanKm":0.5,"trackKm":0.66},"geometry":{"type":"Point","coordinates":[-122.89365,42.63634]}},{"type":"Feature","properties":{"observedAt":"2026-07-16T09:11:00Z","satellite":"N21","instrument":"VIIRS","confidence":"n","frpMw":6.07,"brightnessI4K":329.81,"brightnessI5K":288.45,"dayNight":"N","scanKm":0.5,"trackKm":0.66},"geometry":{"type":"Point","coordinates":[-122.89935,42.6365]}},{"type":"Feature","properties":{"observedAt":"2026-07-16T09:11:00Z","satellite":"N21","instrument":"VIIRS","confidence":"n","frpMw":6.07,"brightnessI4K":328.65,"brightnessI5K":288.66,"dayNight":"N","scanKm":0.5,"trackKm":0.66},"geometry":{"type":"Point","coordinates":[-122.90488,42.63664]}},{"type":"Feature","properties":{"observedAt":"2026-07-16T09:11:00Z","satellite":"N21","instrument":"VIIRS","confidence":"n","frpMw":7.32,"brightnessI4K":319.54,"brightnessI5K":286.01,"dayNight":"N","scanKm":0.5,"trackKm":0.66},"geometry":{"type":"Point","coordinates":[-122.91047,42.63679]}},{"type":"Feature","properties":{"observedAt":"2026-07-16T09:11:00Z","satellite":"N21","instrument":"VIIRS","confidence":"n","frpMw":4.13,"brightnessI4K":331.01,"brightnessI5K":288.57,"dayNight":"N","scanKm":0.49,"trackKm":0.65},"geometry":{"type":"Point","coordinates":[-122.85284,42.64128]}},{"type":"Feature","properties":{"observedAt":"2026-07-16T09:11:00Z","satellite":"N21","instrument":"VIIRS","confidence":"n","frpMw":4.13,"brightnessI4K":319.45,"brightnessI5K":287.09,"dayNight":"N","scanKm":0.49,"trackKm":0.65},"geometry":{"type":"Point","coordinates":[-122.85818,42.64143]}},{"type":"Feature","properties":{"observedAt":"2026-07-16T09:11:00Z","satellite":"N21","instrument":"VIIRS","confidence":"n","frpMw":3.41,"brightnessI4K":309.61,"brightnessI5K":286.09,"dayNight":"N","scanKm":0.5,"trackKm":0.66},"geometry":{"type":"Point","coordinates":[-122.90979,42.64281]}},{"type":"Feature","properties":{"observedAt":"2026-07-16T09:11:00Z","satellite":"N21","instrument":"VIIRS","confidence":"n","frpMw":4.13,"brightnessI4K":321.13,"brightnessI5K":286.99,"dayNight":"N","scanKm":0.49,"trackKm":0.65},"geometry":{"type":"Point","coordinates":[-122.85291,42.6473]}},{"type":"Feature","properties":{"observedAt":"2026-07-16T09:11:00Z","satellite":"N21","instrument":"VIIRS","confidence":"n","frpMw":4.13,"brightnessI4K":314.96,"brightnessI5K":287.51,"dayNight":"N","scanKm":0.49,"trackKm":0.65},"geometry":{"type":"Point","coordinates":[-122.85867,42.64746]}},{"type":"Feature","properties":{"observedAt":"2026-07-16T09:11:00Z","satellite":"N21","instrument":"VIIRS","confidence":"n","frpMw":6.2,"brightnessI4K":303.24,"brightnessI5K":285.54,"dayNight":"N","scanKm":0.5,"trackKm":0.66},"geometry":{"type":"Point","coordinates":[-122.98574,42.65086]}},{"type":"Feature","properties":{"observedAt":"2026-07-16T09:11:00Z","satellite":"N21","instrument":"VIIRS","confidence":"n","frpMw":9.24,"brightnessI4K":338.05,"brightnessI5K":287.51,"dayNight":"N","scanKm":0.5,"trackKm":0.66},"geometry":{"type":"Point","coordinates":[-122.99117,42.651]}},{"type":"Feature","properties":{"observedAt":"2026-07-16T09:11:00Z","satellite":"N21","instrument":"VIIRS","confidence":"n","frpMw":1.24,"brightnessI4K":296.64,"brightnessI5K":283.65,"dayNight":"N","scanKm":0.5,"trackKm":0.66},"geometry":{"type":"Point","coordinates":[-122.92355,42.66735]}},{"type":"Feature","properties":{"observedAt":"2026-07-16T09:11:00Z","satellite":"N21","instrument":"VIIRS","confidence":"n","frpMw":1.24,"brightnessI4K":297.18,"brightnessI5K":284.3,"dayNight":"N","scanKm":0.5,"trackKm":0.66},"geometry":{"type":"Point","coordinates":[-122.9317,42.66757]}},{"type":"Feature","properties":{"observedAt":"2026-07-16T09:11:00Z","satellite":"N21","instrument":"VIIRS","confidence":"n","frpMw":1.24,"brightnessI4K":301.52,"brightnessI5K":283.02,"dayNight":"N","scanKm":0.5,"trackKm":0.66},"geometry":{"type":"Point","coordinates":[-122.93047,42.67358]}},{"type":"Feature","properties":{"observedAt":"2026-07-16T10:51:00Z","satellite":"N21","instrument":"VIIRS","confidence":"n","frpMw":4.47,"brightnessI4K":308.96,"brightnessI5K":287.54,"dayNight":"N","scanKm":0.59,"trackKm":0.53},"geometry":{"type":"Point","coordinates":[-123.00082,42.59154]}},{"type":"Feature","properties":{"observedAt":"2026-07-16T10:51:00Z","satellite":"N21","instrument":"VIIRS","confidence":"n","frpMw":9.01,"brightnessI4K":339.61,"brightnessI5K":290.14,"dayNight":"N","scanKm":0.59,"trackKm":0.53},"geometry":{"type":"Point","coordinates":[-123.00642,42.59298]}},{"type":"Feature","properties":{"observedAt":"2026-07-16T10:51:00Z","satellite":"N21","instrument":"VIIRS","confidence":"n","frpMw":3.11,"brightnessI4K":314.45,"brightnessI5K":288.12,"dayNight":"N","scanKm":0.59,"trackKm":0.53},"geometry":{"type":"Point","coordinates":[-122.9985,42.59607]}},{"type":"Feature","properties":{"observedAt":"2026-07-16T10:51:00Z","satellite":"N21","instrument":"VIIRS","confidence":"n","frpMw":14.39,"brightnessI4K":349.33,"brightnessI5K":291.65,"dayNight":"N","scanKm":0.59,"trackKm":0.53},"geometry":{"type":"Point","coordinates":[-123.02481,42.60284]}},{"type":"Feature","properties":{"observedAt":"2026-07-16T10:51:00Z","satellite":"N21","instrument":"VIIRS","confidence":"n","frpMw":5.48,"brightnessI4K":317.33,"brightnessI5K":288.26,"dayNight":"N","scanKm":0.59,"trackKm":0.53},"geometry":{"type":"Point","coordinates":[-123.03178,42.60463]}},{"type":"Feature","properties":{"observedAt":"2026-07-16T10:51:00Z","satellite":"N21","instrument":"VIIRS","confidence":"n","frpMw":5.48,"brightnessI4K":328.02,"brightnessI5K":289.23,"dayNight":"N","scanKm":0.59,"trackKm":0.53},"geometry":{"type":"Point","coordinates":[-123.0304,42.60939]}},{"type":"Feature","properties":{"observedAt":"2026-07-16T10:51:00Z","satellite":"N21","instrument":"VIIRS","confidence":"n","frpMw":3.49,"brightnessI4K":308.02,"brightnessI5K":288.46,"dayNight":"N","scanKm":0.59,"trackKm":0.53},"geometry":{"type":"Point","coordinates":[-123.02917,42.6142]}},{"type":"Feature","properties":{"observedAt":"2026-07-16T10:51:00Z","satellite":"N21","instrument":"VIIRS","confidence":"n","frpMw":3.49,"brightnessI4K":313.77,"brightnessI5K":287.93,"dayNight":"N","scanKm":0.59,"trackKm":0.53},"geometry":{"type":"Point","coordinates":[-123.03477,42.61563]}},{"type":"Feature","properties":{"observedAt":"2026-07-16T10:51:00Z","satellite":"N21","instrument":"VIIRS","confidence":"n","frpMw":3.49,"brightnessI4K":312.02,"brightnessI5K":288.16,"dayNight":"N","scanKm":0.59,"trackKm":0.53},"geometry":{"type":"Point","coordinates":[-123.02792,42.61899]}},{"type":"Feature","properties":{"observedAt":"2026-07-16T10:51:00Z","satellite":"N21","instrument":"VIIRS","confidence":"n","frpMw":3.6,"brightnessI4K":313.98,"brightnessI5K":286.72,"dayNight":"N","scanKm":0.59,"trackKm":0.53},"geometry":{"type":"Point","coordinates":[-122.90857,42.61926]}},{"type":"Feature","properties":{"observedAt":"2026-07-16T10:51:00Z","satellite":"N21","instrument":"VIIRS","confidence":"n","frpMw":3.49,"brightnessI4K":326.29,"brightnessI5K":287.94,"dayNight":"N","scanKm":0.59,"trackKm":0.53},"geometry":{"type":"Point","coordinates":[-123.03333,42.62038]}},{"type":"Feature","properties":{"observedAt":"2026-07-16T10:51:00Z","satellite":"N21","instrument":"VIIRS","confidence":"n","frpMw":3.33,"brightnessI4K":306.58,"brightnessI5K":287.75,"dayNight":"N","scanKm":0.59,"trackKm":0.53},"geometry":{"type":"Point","coordinates":[-123.02613,42.62365]}},{"type":"Feature","properties":{"observedAt":"2026-07-16T10:51:00Z","satellite":"N21","instrument":"VIIRS","confidence":"n","frpMw":7.45,"brightnessI4K":326.37,"brightnessI5K":289.86,"dayNight":"N","scanKm":0.59,"trackKm":0.53},"geometry":{"type":"Point","coordinates":[-122.90565,42.62366]}},{"type":"Feature","properties":{"observedAt":"2026-07-16T10:51:00Z","satellite":"N21","instrument":"VIIRS","confidence":"n","frpMw":3.33,"brightnessI4K":321.19,"brightnessI5K":287.39,"dayNight":"N","scanKm":0.59,"trackKm":0.53},"geometry":{"type":"Point","coordinates":[-123.03133,42.62499]}},{"type":"Feature","properties":{"observedAt":"2026-07-16T10:51:00Z","satellite":"N21","instrument":"VIIRS","confidence":"n","frpMw":7.45,"brightnessI4K":343.53,"brightnessI5K":290.63,"dayNight":"N","scanKm":0.59,"trackKm":0.53},"geometry":{"type":"Point","coordinates":[-122.9126,42.62543]}},{"type":"Feature","properties":{"observedAt":"2026-07-16T10:51:00Z","satellite":"N21","instrument":"VIIRS","confidence":"n","frpMw":11.58,"brightnessI4K":333.48,"brightnessI5K":286.93,"dayNight":"N","scanKm":0.59,"trackKm":0.53},"geometry":{"type":"Point","coordinates":[-122.91859,42.62697]}},{"type":"Feature","properties":{"observedAt":"2026-07-16T10:51:00Z","satellite":"N21","instrument":"VIIRS","confidence":"n","frpMw":7.45,"brightnessI4K":304.09,"brightnessI5K":287.59,"dayNight":"N","scanKm":0.59,"trackKm":0.53},"geometry":{"type":"Point","coordinates":[-122.90223,42.62794]}},{"type":"Feature","properties":{"observedAt":"2026-07-16T10:51:00Z","satellite":"N21","instrument":"VIIRS","confidence":"n","frpMw":3.33,"brightnessI4K":299.79,"brightnessI5K":287.2,"dayNight":"N","scanKm":0.59,"trackKm":0.53},"geometry":{"type":"Point","coordinates":[-123.02393,42.6282]}},{"type":"Feature","properties":{"observedAt":"2026-07-16T10:51:00Z","satellite":"N21","instrument":"VIIRS","confidence":"n","frpMw":3.33,"brightnessI4K":327.19,"brightnessI5K":288.55,"dayNight":"N","scanKm":0.59,"trackKm":0.53},"geometry":{"type":"Point","coordinates":[-123.02921,42.62956]}},{"type":"Feature","properties":{"observedAt":"2026-07-16T10:51:00Z","satellite":"N21","instrument":"VIIRS","confidence":"n","frpMw":7.45,"brightnessI4K":322.5,"brightnessI5K":290.84,"dayNight":"N","scanKm":0.59,"trackKm":0.53},"geometry":{"type":"Point","coordinates":[-122.90987,42.62988]}},{"type":"Feature","properties":{"observedAt":"2026-07-16T10:51:00Z","satellite":"N21","instrument":"VIIRS","confidence":"n","frpMw":3.45,"brightnessI4K":332.87,"brightnessI5K":288.9,"dayNight":"N","scanKm":0.59,"trackKm":0.53},"geometry":{"type":"Point","coordinates":[-123.01678,42.63149]}},{"type":"Feature","properties":{"observedAt":"2026-07-16T10:51:00Z","satellite":"N21","instrument":"VIIRS","confidence":"n","frpMw":11.58,"brightnessI4K":344.34,"brightnessI5K":292.48,"dayNight":"N","scanKm":0.59,"trackKm":0.53},"geometry":{"type":"Point","coordinates":[-122.91651,42.63158]}},{"type":"Feature","properties":{"observedAt":"2026-07-16T10:51:00Z","satellite":"N21","instrument":"VIIRS","confidence":"n","frpMw":6.3,"brightnessI4K":331.52,"brightnessI5K":289.13,"dayNight":"N","scanKm":0.59,"trackKm":0.53},"geometry":{"type":"Point","coordinates":[-122.90002,42.63253]}},{"type":"Feature","properties":{"observedAt":"2026-07-16T10:51:00Z","satellite":"N21","instrument":"VIIRS","confidence":"n","frpMw":3.12,"brightnessI4K":316.65,"brightnessI5K":287.56,"dayNight":"N","scanKm":0.59,"trackKm":0.53},"geometry":{"type":"Point","coordinates":[-123.02187,42.63279]}},{"type":"Feature","properties":{"observedAt":"2026-07-16T10:51:00Z","satellite":"N21","instrument":"VIIRS","confidence":"n","frpMw":11.58,"brightnessI4K":340.79,"brightnessI5K":291.65,"dayNight":"N","scanKm":0.59,"trackKm":0.53},"geometry":{"type":"Point","coordinates":[-122.92242,42.63309]}},{"type":"Feature","properties":{"observedAt":"2026-07-16T10:51:00Z","satellite":"N21","instrument":"VIIRS","confidence":"n","frpMw":3.12,"brightnessI4K":304.13,"brightnessI5K":286.7,"dayNight":"N","scanKm":0.59,"trackKm":0.53},"geometry":{"type":"Point","coordinates":[-123.02729,42.63418]}},{"type":"Feature","properties":{"observedAt":"2026-07-16T10:51:00Z","satellite":"N21","instrument":"VIIRS","confidence":"n","frpMw":6.3,"brightnessI4K":320.83,"brightnessI5K":290.04,"dayNight":"N","scanKm":0.59,"trackKm":0.53},"geometry":{"type":"Point","coordinates":[-122.90779,42.6345]}},{"type":"Feature","properties":{"observedAt":"2026-07-16T10:51:00Z","satellite":"N21","instrument":"VIIRS","confidence":"n","frpMw":2.83,"brightnessI4K":311.65,"brightnessI5K":287.77,"dayNight":"N","scanKm":0.59,"trackKm":0.53},"geometry":{"type":"Point","coordinates":[-122.92815,42.63455]}},{"type":"Feature","properties":{"observedAt":"2026-07-16T10:51:00Z","satellite":"N21","instrument":"VIIRS","confidence":"n","frpMw":3.45,"brightnessI4K":300.5,"brightnessI5K":286.12,"dayNight":"N","scanKm":0.59,"trackKm":0.53},"geometry":{"type":"Point","coordinates":[-123.00885,42.63458]}},{"type":"Feature","properties":{"observedAt":"2026-07-16T10:51:00Z","satellite":"N21","instrument":"VIIRS","confidence":"n","frpMw":3.45,"brightnessI4K":307.59,"brightnessI5K":286.35,"dayNight":"N","scanKm":0.59,"trackKm":0.53},"geometry":{"type":"Point","coordinates":[-123.01441,42.63601]}},{"type":"Feature","properties":{"observedAt":"2026-07-16T10:51:00Z","satellite":"N21","instrument":"VIIRS","confidence":"n","frpMw":4.16,"brightnessI4K":316.43,"brightnessI5K":288.99,"dayNight":"N","scanKm":0.59,"trackKm":0.53},"geometry":{"type":"Point","coordinates":[-122.91463,42.63624]}},{"type":"Feature","properties":{"observedAt":"2026-07-16T10:51:00Z","satellite":"N21","instrument":"VIIRS","confidence":"n","frpMw":6.3,"brightnessI4K":338.18,"brightnessI5K":289.69,"dayNight":"N","scanKm":0.59,"trackKm":0.53},"geometry":{"type":"Point","coordinates":[-122.89854,42.63729]}},{"type":"Feature","properties":{"observedAt":"2026-07-16T10:51:00Z","satellite":"N21","instrument":"VIIRS","confidence":"n","frpMw":4.16,"brightnessI4K":306.86,"brightnessI5K":288.53,"dayNight":"N","scanKm":0.59,"trackKm":0.53},"geometry":{"type":"Point","coordinates":[-122.92054,42.63775]}},{"type":"Feature","properties":{"observedAt":"2026-07-16T10:51:00Z","satellite":"N21","instrument":"VIIRS","confidence":"n","frpMw":1.53,"brightnessI4K":308.07,"brightnessI5K":287.5,"dayNight":"N","scanKm":0.59,"trackKm":0.53},"geometry":{"type":"Point","coordinates":[-123.00668,42.63915]}},{"type":"Feature","properties":{"observedAt":"2026-07-16T10:51:00Z","satellite":"N21","instrument":"VIIRS","confidence":"n","frpMw":6.3,"brightnessI4K":321.92,"brightnessI5K":289.65,"dayNight":"N","scanKm":0.59,"trackKm":0.53},"geometry":{"type":"Point","coordinates":[-122.90601,42.63919]}},{"type":"Feature","properties":{"observedAt":"2026-07-16T10:51:00Z","satellite":"N21","instrument":"VIIRS","confidence":"n","frpMw":3.58,"brightnessI4K":319.91,"brightnessI5K":289.22,"dayNight":"N","scanKm":0.59,"trackKm":0.53},"geometry":{"type":"Point","coordinates":[-122.92629,42.63922]}},{"type":"Feature","properties":{"observedAt":"2026-07-16T10:51:00Z","satellite":"N21","instrument":"VIIRS","confidence":"n","frpMw":5.4,"brightnessI4K":306.64,"brightnessI5K":287.0,"dayNight":"N","scanKm":0.6,"trackKm":0.53},"geometry":{"type":"Point","coordinates":[-122.8486,42.64007]}},{"type":"Feature","properties":{"observedAt":"2026-07-16T10:51:00Z","satellite":"N21","instrument":"VIIRS","confidence":"n","frpMw":3.73,"brightnessI4K":318.63,"brightnessI5K":287.99,"dayNight":"N","scanKm":0.6,"trackKm":0.53},"geometry":{"type":"Point","coordinates":[-122.85046,42.64032]}},{"type":"Feature","properties":{"observedAt":"2026-07-16T10:51:00Z","satellite":"N21","instrument":"VIIRS","confidence":"n","frpMw":1.53,"brightnessI4K":298.43,"brightnessI5K":286.03,"dayNight":"N","scanKm":0.59,"trackKm":0.53},"geometry":{"type":"Point","coordinates":[-123.01261,42.64066]}},{"type":"Feature","properties":{"observedAt":"2026-07-16T10:51:00Z","satellite":"N21","instrument":"VIIRS","confidence":"n","frpMw":3.58,"brightnessI4K":321.05,"brightnessI5K":288.76,"dayNight":"N","scanKm":0.59,"trackKm":0.53},"geometry":{"type":"Point","coordinates":[-122.93234,42.64076]}},{"type":"Feature","properties":{"observedAt":"2026-07-16T10:51:00Z","satellite":"N21","instrument":"VIIRS","confidence":"n","frpMw":4.16,"brightnessI4K":324.0,"brightnessI5K":290.36,"dayNight":"N","scanKm":0.59,"trackKm":0.53},"geometry":{"type":"Point","coordinates":[-122.91271,42.64089]}},{"type":"Feature","properties":{"observedAt":"2026-07-16T10:51:00Z","satellite":"N21","instrument":"VIIRS","confidence":"n","frpMw":5.4,"brightnessI4K":325.86,"brightnessI5K":288.56,"dayNight":"N","scanKm":0.6,"trackKm":0.53},"geometry":{"type":"Point","coordinates":[-122.8564,42.64204]}},{"type":"Feature","properties":{"observedAt":"2026-07-16T10:51:00Z","satellite":"N21","instrument":"VIIRS","confidence":"n","frpMw":5.68,"brightnessI4K":316.67,"brightnessI5K":287.48,"dayNight":"N","scanKm":0.6,"trackKm":0.53},"geometry":{"type":"Point","coordinates":[-122.85802,42.64229]}},{"type":"Feature","properties":{"observedAt":"2026-07-16T10:51:00Z","satellite":"N21","instrument":"VIIRS","confidence":"n","frpMw":4.16,"brightnessI4K":320.46,"brightnessI5K":290.22,"dayNight":"N","scanKm":0.59,"trackKm":0.53},"geometry":{"type":"Point","coordinates":[-122.91864,42.6424]}},{"type":"Feature","properties":{"observedAt":"2026-07-16T10:51:00Z","satellite":"N21","instrument":"VIIRS","confidence":"n","frpMw":3.58,"brightnessI4K":311.48,"brightnessI5K":289.21,"dayNight":"N","scanKm":0.59,"trackKm":0.53},"geometry":{"type":"Point","coordinates":[-122.92454,42.64391]}},{"type":"Feature","properties":{"observedAt":"2026-07-16T10:51:00Z","satellite":"N21","instrument":"VIIRS","confidence":"n","frpMw":3.01,"brightnessI4K":304.11,"brightnessI5K":287.5,"dayNight":"N","scanKm":0.59,"trackKm":0.53},"geometry":{"type":"Point","coordinates":[-122.9045,42.64394]}},{"type":"Feature","properties":{"observedAt":"2026-07-16T10:51:00Z","satellite":"N21","instrument":"VIIRS","confidence":"n","frpMw":2.99,"brightnessI4K":312.06,"brightnessI5K":288.26,"dayNight":"N","scanKm":0.59,"trackKm":0.53},"geometry":{"type":"Point","coordinates":[-122.90585,42.64442]}},{"type":"Feature","properties":{"observedAt":"2026-07-16T10:51:00Z","satellite":"N21","instrument":"VIIRS","confidence":"n","frpMw":3.73,"brightnessI4K":311.56,"brightnessI5K":286.53,"dayNight":"N","scanKm":0.6,"trackKm":0.53},"geometry":{"type":"Point","coordinates":[-122.84786,42.64481]}},{"type":"Feature","properties":{"observedAt":"2026-07-16T10:51:00Z","satellite":"N21","instrument":"VIIRS","confidence":"n","frpMw":3.58,"brightnessI4K":307.51,"brightnessI5K":289.11,"dayNight":"N","scanKm":0.59,"trackKm":0.53},"geometry":{"type":"Point","coordinates":[-122.93066,42.64547]}},{"type":"Feature","properties":{"observedAt":"2026-07-16T10:51:00Z","satellite":"N21","instrument":"VIIRS","confidence":"n","frpMw":3.33,"brightnessI4K":323.87,"brightnessI5K":290.42,"dayNight":"N","scanKm":0.59,"trackKm":0.53},"geometry":{"type":"Point","coordinates":[-122.91077,42.64554]}},{"type":"Feature","properties":{"observedAt":"2026-07-16T10:51:00Z","satellite":"N21","instrument":"VIIRS","confidence":"n","frpMw":2.99,"brightnessI4K":318.25,"brightnessI5K":289.69,"dayNight":"N","scanKm":0.59,"trackKm":0.53},"geometry":{"type":"Point","coordinates":[-122.91194,42.646]}},{"type":"Feature","properties":{"observedAt":"2026-07-16T10:51:00Z","satellite":"N21","instrument":"VIIRS","confidence":"n","frpMw":5.4,"brightnessI4K":334.66,"brightnessI5K":290.42,"dayNight":"N","scanKm":0.6,"trackKm":0.53},"geometry":{"type":"Point","coordinates":[-122.85385,42.64655]}},{"type":"Feature","properties":{"observedAt":"2026-07-16T10:51:00Z","satellite":"N21","instrument":"VIIRS","confidence":"n","frpMw":5.68,"brightnessI4K":327.54,"brightnessI5K":289.94,"dayNight":"N","scanKm":0.6,"trackKm":0.53},"geometry":{"type":"Point","coordinates":[-122.85548,42.64679]}},{"type":"Feature","properties":{"observedAt":"2026-07-16T10:51:00Z","satellite":"N21","instrument":"VIIRS","confidence":"n","frpMw":2.68,"brightnessI4K":298.68,"brightnessI5K":288.04,"dayNight":"N","scanKm":0.59,"trackKm":0.53},"geometry":{"type":"Point","coordinates":[-122.93687,42.64705]}},{"type":"Feature","properties":{"observedAt":"2026-07-16T10:51:00Z","satellite":"N21","instrument":"VIIRS","confidence":"n","frpMw":3.33,"brightnessI4K":310.28,"brightnessI5K":288.9,"dayNight":"N","scanKm":0.59,"trackKm":0.53},"geometry":{"type":"Point","coordinates":[-122.91669,42.64705]}},{"type":"Feature","properties":{"observedAt":"2026-07-16T10:51:00Z","satellite":"N21","instrument":"VIIRS","confidence":"n","frpMw":1.89,"brightnessI4K":310.34,"brightnessI5K":289.05,"dayNight":"N","scanKm":0.59,"trackKm":0.53},"geometry":{"type":"Point","coordinates":[-122.91782,42.64754]}},{"type":"Feature","properties":{"observedAt":"2026-07-16T10:51:00Z","satellite":"N21","instrument":"VIIRS","confidence":"n","frpMw":1.73,"brightnessI4K":297.84,"brightnessI5K":286.35,"dayNight":"N","scanKm":0.6,"trackKm":0.53},"geometry":{"type":"Point","coordinates":[-122.86056,42.64825]}},{"type":"Feature","properties":{"observedAt":"2026-07-16T10:51:00Z","satellite":"N21","instrument":"VIIRS","confidence":"n","frpMw":1.87,"brightnessI4K":307.22,"brightnessI5K":288.9,"dayNight":"N","scanKm":0.59,"trackKm":0.53},"geometry":{"type":"Point","coordinates":[-122.92264,42.64856]}},{"type":"Feature","properties":{"observedAt":"2026-07-16T10:51:00Z","satellite":"N21","instrument":"VIIRS","confidence":"n","frpMw":1.89,"brightnessI4K":302.77,"brightnessI5K":288.45,"dayNight":"N","scanKm":0.59,"trackKm":0.53},"geometry":{"type":"Point","coordinates":[-122.92377,42.64909]}},{"type":"Feature","properties":{"observedAt":"2026-07-16T10:51:00Z","satellite":"N21","instrument":"VIIRS","confidence":"n","frpMw":4.78,"brightnessI4K":317.68,"brightnessI5K":287.68,"dayNight":"N","scanKm":0.59,"trackKm":0.53},"geometry":{"type":"Point","coordinates":[-122.98773,42.64967]}},{"type":"Feature","properties":{"observedAt":"2026-07-16T10:51:00Z","satellite":"N21","instrument":"VIIRS","confidence":"n","frpMw":1.87,"brightnessI4K":303.36,"brightnessI5K":288.31,"dayNight":"N","scanKm":0.59,"trackKm":0.53},"geometry":{"type":"Point","coordinates":[-122.92867,42.6501]}},{"type":"Feature","properties":{"observedAt":"2026-07-16T10:51:00Z","satellite":"N21","instrument":"VIIRS","confidence":"n","frpMw":2.4,"brightnessI4K":304.52,"brightnessI5K":288.31,"dayNight":"N","scanKm":0.59,"trackKm":0.53},"geometry":{"type":"Point","coordinates":[-122.92979,42.65065]}},{"type":"Feature","properties":{"observedAt":"2026-07-16T10:51:00Z","satellite":"N21","instrument":"VIIRS","confidence":"n","frpMw":2.99,"brightnessI4K":297.79,"brightnessI5K":286.95,"dayNight":"N","scanKm":0.59,"trackKm":0.53},"geometry":{"type":"Point","coordinates":[-122.91013,42.65068]}},{"type":"Feature","properties":{"observedAt":"2026-07-16T10:51:00Z","satellite":"N21","instrument":"VIIRS","confidence":"n","frpMw":1.44,"brightnessI4K":298.94,"brightnessI5K":286.42,"dayNight":"N","scanKm":0.6,"trackKm":0.53},"geometry":{"type":"Point","coordinates":[-122.85236,42.65115]}},{"type":"Feature","properties":{"observedAt":"2026-07-16T10:51:00Z","satellite":"N21","instrument":"VIIRS","confidence":"n","frpMw":4.78,"brightnessI4K":324.94,"brightnessI5K":286.25,"dayNight":"N","scanKm":0.59,"trackKm":0.53},"geometry":{"type":"Point","coordinates":[-122.99452,42.6514]}},{"type":"Feature","properties":{"observedAt":"2026-07-16T10:51:00Z","satellite":"N21","instrument":"VIIRS","confidence":"n","frpMw":1.64,"brightnessI4K":300.09,"brightnessI5K":288.13,"dayNight":"N","scanKm":0.59,"trackKm":0.53},"geometry":{"type":"Point","coordinates":[-122.93477,42.65165]}},{"type":"Feature","properties":{"observedAt":"2026-07-16T10:51:00Z","satellite":"N21","instrument":"VIIRS","confidence":"n","frpMw":3.33,"brightnessI4K":305.95,"brightnessI5K":287.42,"dayNight":"N","scanKm":0.59,"trackKm":0.53},"geometry":{"type":"Point","coordinates":[-122.91481,42.65171]}},{"type":"Feature","properties":{"observedAt":"2026-07-16T10:51:00Z","satellite":"N21","instrument":"VIIRS","confidence":"n","frpMw":1.89,"brightnessI4K":302.87,"brightnessI5K":287.26,"dayNight":"N","scanKm":0.59,"trackKm":0.53},"geometry":{"type":"Point","coordinates":[-122.91596,42.6522]}},{"type":"Feature","properties":{"observedAt":"2026-07-16T10:51:00Z","satellite":"N21","instrument":"VIIRS","confidence":"n","frpMw":2.02,"brightnessI4K":308.23,"brightnessI5K":287.45,"dayNight":"N","scanKm":0.6,"trackKm":0.53},"geometry":{"type":"Point","coordinates":[-122.8575,42.65264]}},{"type":"Feature","properties":{"observedAt":"2026-07-16T10:51:00Z","satellite":"N21","instrument":"VIIRS","confidence":"n","frpMw":1.44,"brightnessI4K":302.9,"brightnessI5K":287.09,"dayNight":"N","scanKm":0.6,"trackKm":0.53},"geometry":{"type":"Point","coordinates":[-122.85906,42.65289]}},{"type":"Feature","properties":{"observedAt":"2026-07-16T10:51:00Z","satellite":"N21","instrument":"VIIRS","confidence":"n","frpMw":1.87,"brightnessI4K":298.64,"brightnessI5K":287.74,"dayNight":"N","scanKm":0.59,"trackKm":0.53},"geometry":{"type":"Point","coordinates":[-122.92075,42.65322]}},{"type":"Feature","properties":{"observedAt":"2026-07-16T10:51:00Z","satellite":"N21","instrument":"VIIRS","confidence":"n","frpMw":1.89,"brightnessI4K":299.5,"brightnessI5K":287.93,"dayNight":"N","scanKm":0.59,"trackKm":0.53},"geometry":{"type":"Point","coordinates":[-122.92186,42.65374]}},{"type":"Feature","properties":{"observedAt":"2026-07-16T10:51:00Z","satellite":"N21","instrument":"VIIRS","confidence":"n","frpMw":1.87,"brightnessI4K":306.98,"brightnessI5K":288.76,"dayNight":"N","scanKm":0.59,"trackKm":0.53},"geometry":{"type":"Point","coordinates":[-122.92667,42.65472]}},{"type":"Feature","properties":{"observedAt":"2026-07-16T10:51:00Z","satellite":"N21","instrument":"VIIRS","confidence":"n","frpMw":2.4,"brightnessI4K":307.88,"brightnessI5K":288.86,"dayNight":"N","scanKm":0.59,"trackKm":0.53},"geometry":{"type":"Point","coordinates":[-122.92776,42.65527]}},{"type":"Feature","properties":{"observedAt":"2026-07-16T10:51:00Z","satellite":"N21","instrument":"VIIRS","confidence":"n","frpMw":1.64,"brightnessI4K":303.73,"brightnessI5K":288.3,"dayNight":"N","scanKm":0.59,"trackKm":0.53},"geometry":{"type":"Point","coordinates":[-122.93264,42.65624]}},{"type":"Feature","properties":{"observedAt":"2026-07-16T10:51:00Z","satellite":"N21","instrument":"VIIRS","confidence":"n","frpMw":2.4,"brightnessI4K":301.62,"brightnessI5K":287.98,"dayNight":"N","scanKm":0.59,"trackKm":0.53},"geometry":{"type":"Point","coordinates":[-122.93375,42.65682]}},{"type":"Feature","properties":{"observedAt":"2026-07-16T10:51:00Z","satellite":"N21","instrument":"VIIRS","confidence":"n","frpMw":1.64,"brightnessI4K":305.29,"brightnessI5K":287.55,"dayNight":"N","scanKm":0.59,"trackKm":0.53},"geometry":{"type":"Point","coordinates":[-122.93879,42.6578]}},{"type":"Feature","properties":{"observedAt":"2026-07-16T10:51:00Z","satellite":"N21","instrument":"VIIRS","confidence":"n","frpMw":2.53,"brightnessI4K":305.18,"brightnessI5K":287.08,"dayNight":"N","scanKm":0.59,"trackKm":0.53},"geometry":{"type":"Point","coordinates":[-122.94,42.65845]}},{"type":"Feature","properties":{"observedAt":"2026-07-16T10:51:00Z","satellite":"N21","instrument":"VIIRS","confidence":"n","frpMw":3.44,"brightnessI4K":313.68,"brightnessI5K":287.37,"dayNight":"N","scanKm":0.59,"trackKm":0.53},"geometry":{"type":"Point","coordinates":[-122.93665,42.6624]}},{"type":"Feature","properties":{"observedAt":"2026-07-16T10:51:00Z","satellite":"N21","instrument":"VIIRS","confidence":"n","frpMw":2.17,"brightnessI4K":301.46,"brightnessI5K":286.33,"dayNight":"N","scanKm":0.59,"trackKm":0.53},"geometry":{"type":"Point","coordinates":[-122.89761,42.66289]}},{"type":"Feature","properties":{"observedAt":"2026-07-16T10:51:00Z","satellite":"N21","instrument":"VIIRS","confidence":"n","frpMw":2.66,"brightnessI4K":313.11,"brightnessI5K":287.02,"dayNight":"N","scanKm":0.59,"trackKm":0.53},"geometry":{"type":"Point","coordinates":[-122.93782,42.66302]}},{"type":"Feature","properties":{"observedAt":"2026-07-16T10:51:00Z","satellite":"N21","instrument":"VIIRS","confidence":"n","frpMw":2.74,"brightnessI4K":302.78,"brightnessI5K":287.65,"dayNight":"N","scanKm":0.59,"trackKm":0.53},"geometry":{"type":"Point","coordinates":[-122.9229,42.66403]}},{"type":"Feature","properties":{"observedAt":"2026-07-16T10:51:00Z","satellite":"N21","instrument":"VIIRS","confidence":"n","frpMw":4.05,"brightnessI4K":310.56,"brightnessI5K":287.03,"dayNight":"N","scanKm":0.59,"trackKm":0.53},"geometry":{"type":"Point","coordinates":[-122.90295,42.6641]}},{"type":"Feature","properties":{"observedAt":"2026-07-16T10:51:00Z","satellite":"N21","instrument":"VIIRS","confidence":"n","frpMw":3.09,"brightnessI4K":306.39,"brightnessI5K":286.67,"dayNight":"N","scanKm":0.59,"trackKm":0.53},"geometry":{"type":"Point","coordinates":[-122.94363,42.66416]}},{"type":"Feature","properties":{"observedAt":"2026-07-16T10:51:00Z","satellite":"N21","instrument":"VIIRS","confidence":"n","frpMw":2.17,"brightnessI4K":310.92,"brightnessI5K":287.18,"dayNight":"N","scanKm":0.59,"trackKm":0.53},"geometry":{"type":"Point","coordinates":[-122.90417,42.66458]}},{"type":"Feature","properties":{"observedAt":"2026-07-16T10:51:00Z","satellite":"N21","instrument":"VIIRS","confidence":"n","frpMw":3.16,"brightnessI4K":301.77,"brightnessI5K":287.61,"dayNight":"N","scanKm":0.59,"trackKm":0.53},"geometry":{"type":"Point","coordinates":[-122.92403,42.66459]}},{"type":"Feature","properties":{"observedAt":"2026-07-16T10:51:00Z","satellite":"N21","instrument":"VIIRS","confidence":"n","frpMw":2.66,"brightnessI4K":305.65,"brightnessI5K":287.11,"dayNight":"N","scanKm":0.59,"trackKm":0.53},"geometry":{"type":"Point","coordinates":[-122.94501,42.66489]}},{"type":"Feature","properties":{"observedAt":"2026-07-16T10:51:00Z","satellite":"N21","instrument":"VIIRS","confidence":"n","frpMw":3.44,"brightnessI4K":311.26,"brightnessI5K":287.83,"dayNight":"N","scanKm":0.59,"trackKm":0.53},"geometry":{"type":"Point","coordinates":[-122.92883,42.66554]}},{"type":"Feature","properties":{"observedAt":"2026-07-16T10:51:00Z","satellite":"N21","instrument":"VIIRS","confidence":"n","frpMw":4.05,"brightnessI4K":323.4,"brightnessI5K":288.57,"dayNight":"N","scanKm":0.59,"trackKm":0.53},"geometry":{"type":"Point","coordinates":[-122.90898,42.66563]}},{"type":"Feature","properties":{"observedAt":"2026-07-16T10:51:00Z","satellite":"N21","instrument":"VIIRS","confidence":"n","frpMw":3.77,"brightnessI4K":329.85,"brightnessI5K":289.27,"dayNight":"N","scanKm":0.59,"trackKm":0.53},"geometry":{"type":"Point","coordinates":[-122.91012,42.66613]}},{"type":"Feature","properties":{"observedAt":"2026-07-16T10:51:00Z","satellite":"N21","instrument":"VIIRS","confidence":"n","frpMw":3.16,"brightnessI4K":314.1,"brightnessI5K":287.66,"dayNight":"N","scanKm":0.59,"trackKm":0.53},"geometry":{"type":"Point","coordinates":[-122.93001,42.66614]}},{"type":"Feature","properties":{"observedAt":"2026-07-16T10:51:00Z","satellite":"N21","instrument":"VIIRS","confidence":"n","frpMw":2.24,"brightnessI4K":318.56,"brightnessI5K":288.57,"dayNight":"N","scanKm":0.59,"trackKm":0.53},"geometry":{"type":"Point","coordinates":[-122.91502,42.66717]}},{"type":"Feature","properties":{"observedAt":"2026-07-16T10:51:00Z","satellite":"N21","instrument":"VIIRS","confidence":"n","frpMw":3.77,"brightnessI4K":304.77,"brightnessI5K":287.31,"dayNight":"N","scanKm":0.59,"trackKm":0.53},"geometry":{"type":"Point","coordinates":[-122.91622,42.66771]}},{"type":"Feature","properties":{"observedAt":"2026-07-16T10:51:00Z","satellite":"N21","instrument":"VIIRS","confidence":"n","frpMw":2.24,"brightnessI4K":298.53,"brightnessI5K":286.79,"dayNight":"N","scanKm":0.59,"trackKm":0.53},"geometry":{"type":"Point","coordinates":[-122.92123,42.66874]}},{"type":"Feature","properties":{"observedAt":"2026-07-16T10:51:00Z","satellite":"N21","instrument":"VIIRS","confidence":"n","frpMw":4.2,"brightnessI4K":300.47,"brightnessI5K":287.14,"dayNight":"N","scanKm":0.59,"trackKm":0.53},"geometry":{"type":"Point","coordinates":[-122.92244,42.66932]}},{"type":"Feature","properties":{"observedAt":"2026-07-16T10:51:00Z","satellite":"N21","instrument":"VIIRS","confidence":"n","frpMw":7.08,"brightnessI4K":322.21,"brightnessI5K":288.79,"dayNight":"N","scanKm":0.59,"trackKm":0.53},"geometry":{"type":"Point","coordinates":[-122.92731,42.67028]}},{"type":"Feature","properties":{"observedAt":"2026-07-16T10:51:00Z","satellite":"N21","instrument":"VIIRS","confidence":"n","frpMw":4.2,"brightnessI4K":320.72,"brightnessI5K":288.61,"dayNight":"N","scanKm":0.59,"trackKm":0.53},"geometry":{"type":"Point","coordinates":[-122.92847,42.67088]}},{"type":"Feature","properties":{"observedAt":"2026-07-16T10:51:00Z","satellite":"N21","instrument":"VIIRS","confidence":"n","frpMw":2.24,"brightnessI4K":300.59,"brightnessI5K":285.82,"dayNight":"N","scanKm":0.59,"trackKm":0.53},"geometry":{"type":"Point","coordinates":[-122.91266,42.67171]}},{"type":"Feature","properties":{"observedAt":"2026-07-16T10:51:00Z","satellite":"N21","instrument":"VIIRS","confidence":"n","frpMw":3.77,"brightnessI4K":302.31,"brightnessI5K":286.01,"dayNight":"N","scanKm":0.59,"trackKm":0.53},"geometry":{"type":"Point","coordinates":[-122.91396,42.67227]}},{"type":"Feature","properties":{"observedAt":"2026-07-16T10:51:00Z","satellite":"N21","instrument":"VIIRS","confidence":"n","frpMw":3.98,"brightnessI4K":312.45,"brightnessI5K":287.65,"dayNight":"N","scanKm":0.59,"trackKm":0.53},"geometry":{"type":"Point","coordinates":[-122.95649,42.67253]}},{"type":"Feature","properties":{"observedAt":"2026-07-16T10:51:00Z","satellite":"N21","instrument":"VIIRS","confidence":"n","frpMw":5.08,"brightnessI4K":320.61,"brightnessI5K":288.2,"dayNight":"N","scanKm":0.59,"trackKm":0.53},"geometry":{"type":"Point","coordinates":[-122.9579,42.67336]}},{"type":"Feature","properties":{"observedAt":"2026-07-16T10:51:00Z","satellite":"N21","instrument":"VIIRS","confidence":"n","frpMw":2.24,"brightnessI4K":307.25,"brightnessI5K":287.38,"dayNight":"N","scanKm":0.59,"trackKm":0.53},"geometry":{"type":"Point","coordinates":[-122.91927,42.67337]}},{"type":"Feature","properties":{"observedAt":"2026-07-16T10:51:00Z","satellite":"N21","instrument":"VIIRS","confidence":"n","frpMw":4.2,"brightnessI4K":310.52,"brightnessI5K":287.41,"dayNight":"N","scanKm":0.59,"trackKm":0.53},"geometry":{"type":"Point","coordinates":[-122.92052,42.67397]}},{"type":"Feature","properties":{"observedAt":"2026-07-16T10:51:00Z","satellite":"N21","instrument":"VIIRS","confidence":"n","frpMw":7.08,"brightnessI4K":339.29,"brightnessI5K":289.79,"dayNight":"N","scanKm":0.59,"trackKm":0.53},"geometry":{"type":"Point","coordinates":[-122.92548,42.67494]}},{"type":"Feature","properties":{"observedAt":"2026-07-16T10:51:00Z","satellite":"N21","instrument":"VIIRS","confidence":"n","frpMw":4.2,"brightnessI4K":330.66,"brightnessI5K":288.34,"dayNight":"N","scanKm":0.59,"trackKm":0.53},"geometry":{"type":"Point","coordinates":[-122.92663,42.67555]}},{"type":"Feature","properties":{"observedAt":"2026-07-16T10:51:00Z","satellite":"N21","instrument":"VIIRS","confidence":"n","frpMw":2.77,"brightnessI4K":310.68,"brightnessI5K":286.98,"dayNight":"N","scanKm":0.59,"trackKm":0.53},"geometry":{"type":"Point","coordinates":[-122.95425,42.67708]}},{"type":"Feature","properties":{"observedAt":"2026-07-16T10:51:00Z","satellite":"N21","instrument":"VIIRS","confidence":"n","frpMw":2.16,"brightnessI4K":305.51,"brightnessI5K":286.51,"dayNight":"N","scanKm":0.59,"trackKm":0.53},"geometry":{"type":"Point","coordinates":[-122.95551,42.67788]}}]}
