{"type":"FeatureCollection","features":[{"type":"Feature","properties":{"observedAt":"2026-07-17T09:45:00Z","satellite":"N20","instrument":"VIIRS","confidence":"n","frpMw":0.48,"brightnessI4K":296.41,"brightnessI5K":285.58,"dayNight":"N","scanKm":0.39,"trackKm":0.44},"geometry":{"type":"Point","coordinates":[-122.99869,42.59505]}},{"type":"Feature","properties":{"observedAt":"2026-07-17T09:45:00Z","satellite":"N20","instrument":"VIIRS","confidence":"n","frpMw":0.79,"brightnessI4K":300.58,"brightnessI5K":285.94,"dayNight":"N","scanKm":0.39,"trackKm":0.44},"geometry":{"type":"Point","coordinates":[-123.00394,42.59559]}},{"type":"Feature","properties":{"observedAt":"2026-07-17T09:45:00Z","satellite":"N20","instrument":"VIIRS","confidence":"n","frpMw":0.52,"brightnessI4K":298.26,"brightnessI5K":285.71,"dayNight":"N","scanKm":0.39,"trackKm":0.44},"geometry":{"type":"Point","coordinates":[-123.00114,42.59634]}},{"type":"Feature","properties":{"observedAt":"2026-07-17T09:45:00Z","satellite":"N20","instrument":"VIIRS","confidence":"n","frpMw":1.98,"brightnessI4K":315.88,"brightnessI5K":287.73,"dayNight":"N","scanKm":0.39,"trackKm":0.44},"geometry":{"type":"Point","coordinates":[-123.02813,42.60708]}},{"type":"Feature","properties":{"observedAt":"2026-07-17T09:45:00Z","satellite":"N20","instrument":"VIIRS","confidence":"n","frpMw":2.85,"brightnessI4K":314.59,"brightnessI5K":286.92,"dayNight":"N","scanKm":0.39,"trackKm":0.44},"geometry":{"type":"Point","coordinates":[-123.03299,42.60754]}},{"type":"Feature","properties":{"observedAt":"2026-07-17T09:45:00Z","satellite":"N20","instrument":"VIIRS","confidence":"n","frpMw":2.85,"brightnessI4K":310.48,"brightnessI5K":284.43,"dayNight":"N","scanKm":0.39,"trackKm":0.44},"geometry":{"type":"Point","coordinates":[-123.03783,42.60801]}},{"type":"Feature","properties":{"observedAt":"2026-07-17T09:45:00Z","satellite":"N20","instrument":"VIIRS","confidence":"n","frpMw":9.25,"brightnessI4K":348.48,"brightnessI5K":291.25,"dayNight":"N","scanKm":0.38,"trackKm":0.44},"geometry":{"type":"Point","coordinates":[-122.89552,42.61061]}},{"type":"Feature","properties":{"observedAt":"2026-07-17T09:45:00Z","satellite":"N20","instrument":"VIIRS","confidence":"h","frpMw":9.25,"brightnessI4K":367.0,"brightnessI5K":295.5,"dayNight":"N","scanKm":0.38,"trackKm":0.44},"geometry":{"type":"Point","coordinates":[-122.89969,42.61102]}},{"type":"Feature","properties":{"observedAt":"2026-07-17T09:45:00Z","satellite":"N20","instrument":"VIIRS","confidence":"n","frpMw":6.22,"brightnessI4K":333.13,"brightnessI5K":285.93,"dayNight":"N","scanKm":0.38,"trackKm":0.44},"geometry":{"type":"Point","coordinates":[-122.90394,42.61144]}},{"type":"Feature","properties":{"observedAt":"2026-07-17T09:45:00Z","satellite":"N20","instrument":"VIIRS","confidence":"n","frpMw":2.85,"brightnessI4K":338.31,"brightnessI5K":290.57,"dayNight":"N","scanKm":0.39,"trackKm":0.44},"geometry":{"type":"Point","coordinates":[-123.03178,42.61152]}},{"type":"Feature","properties":{"observedAt":"2026-07-17T09:45:00Z","satellite":"N20","instrument":"VIIRS","confidence":"n","frpMw":2.85,"brightnessI4K":312.85,"brightnessI5K":284.67,"dayNight":"N","scanKm":0.39,"trackKm":0.44},"geometry":{"type":"Point","coordinates":[-123.03714,42.61203]}},{"type":"Feature","properties":{"observedAt":"2026-07-17T09:45:00Z","satellite":"N20","instrument":"VIIRS","confidence":"n","frpMw":9.25,"brightnessI4K":334.88,"brightnessI5K":289.3,"dayNight":"N","scanKm":0.38,"trackKm":0.44},"geometry":{"type":"Point","coordinates":[-122.89505,42.61463]}},{"type":"Feature","properties":{"observedAt":"2026-07-17T09:45:00Z","satellite":"N20","instrument":"VIIRS","confidence":"n","frpMw":9.25,"brightnessI4K":352.84,"brightnessI5K":294.86,"dayNight":"N","scanKm":0.38,"trackKm":0.44},"geometry":{"type":"Point","coordinates":[-122.89916,42.61503]}},{"type":"Feature","properties":{"observedAt":"2026-07-17T09:45:00Z","satellite":"N20","instrument":"VIIRS","confidence":"n","frpMw":6.22,"brightnessI4K":348.66,"brightnessI5K":295.59,"dayNight":"N","scanKm":0.38,"trackKm":0.44},"geometry":{"type":"Point","coordinates":[-122.90324,42.61544]}},{"type":"Feature","properties":{"observedAt":"2026-07-17T09:45:00Z","satellite":"N20","instrument":"VIIRS","confidence":"n","frpMw":4.94,"brightnessI4K":321.15,"brightnessI5K":288.6,"dayNight":"N","scanKm":0.39,"trackKm":0.44},"geometry":{"type":"Point","coordinates":[-123.03055,42.61549]}},{"type":"Feature","properties":{"observedAt":"2026-07-17T09:45:00Z","satellite":"N20","instrument":"VIIRS","confidence":"n","frpMw":6.22,"brightnessI4K":343.23,"brightnessI5K":287.44,"dayNight":"N","scanKm":0.39,"trackKm":0.44},"geometry":{"type":"Point","coordinates":[-122.90775,42.61588]}},{"type":"Feature","properties":{"observedAt":"2026-07-17T09:45:00Z","satellite":"N20","instrument":"VIIRS","confidence":"n","frpMw":4.94,"brightnessI4K":337.92,"brightnessI5K":288.24,"dayNight":"N","scanKm":0.39,"trackKm":0.44},"geometry":{"type":"Point","coordinates":[-123.0362,42.61603]}},{"type":"Feature","properties":{"observedAt":"2026-07-17T09:45:00Z","satellite":"N20","instrument":"VIIRS","confidence":"n","frpMw":8.15,"brightnessI4K":343.96,"brightnessI5K":294.03,"dayNight":"N","scanKm":0.38,"trackKm":0.44},"geometry":{"type":"Point","coordinates":[-122.8945,42.61864]}},{"type":"Feature","properties":{"observedAt":"2026-07-17T09:45:00Z","satellite":"N20","instrument":"VIIRS","confidence":"n","frpMw":8.15,"brightnessI4K":343.52,"brightnessI5K":292.39,"dayNight":"N","scanKm":0.38,"trackKm":0.44},"geometry":{"type":"Point","coordinates":[-122.89858,42.61904]}},{"type":"Feature","properties":{"observedAt":"2026-07-17T09:45:00Z","satellite":"N20","instrument":"VIIRS","confidence":"n","frpMw":3.61,"brightnessI4K":334.8,"brightnessI5K":292.69,"dayNight":"N","scanKm":0.38,"trackKm":0.44},"geometry":{"type":"Point","coordinates":[-122.9026,42.61944]}},{"type":"Feature","properties":{"observedAt":"2026-07-17T09:45:00Z","satellite":"N20","instrument":"VIIRS","confidence":"n","frpMw":3.61,"brightnessI4K":335.68,"brightnessI5K":293.26,"dayNight":"N","scanKm":0.39,"trackKm":0.44},"geometry":{"type":"Point","coordinates":[-122.90697,42.61986]}},{"type":"Feature","properties":{"observedAt":"2026-07-17T09:45:00Z","satellite":"N20","instrument":"VIIRS","confidence":"n","frpMw":2.02,"brightnessI4K":332.25,"brightnessI5K":289.03,"dayNight":"N","scanKm":0.39,"trackKm":0.44},"geometry":{"type":"Point","coordinates":[-122.91149,42.62031]}},{"type":"Feature","properties":{"observedAt":"2026-07-17T09:45:00Z","satellite":"N20","instrument":"VIIRS","confidence":"n","frpMw":2.02,"brightnessI4K":316.69,"brightnessI5K":286.77,"dayNight":"N","scanKm":0.39,"trackKm":0.44},"geometry":{"type":"Point","coordinates":[-122.91682,42.62082]}},{"type":"Feature","properties":{"observedAt":"2026-07-17T09:45:00Z","satellite":"N20","instrument":"VIIRS","confidence":"n","frpMw":8.15,"brightnessI4K":338.91,"brightnessI5K":289.92,"dayNight":"N","scanKm":0.38,"trackKm":0.44},"geometry":{"type":"Point","coordinates":[-122.89394,42.62265]}},{"type":"Feature","properties":{"observedAt":"2026-07-17T09:45:00Z","satellite":"N20","instrument":"VIIRS","confidence":"n","frpMw":8.15,"brightnessI4K":351.16,"brightnessI5K":295.01,"dayNight":"N","scanKm":0.38,"trackKm":0.44},"geometry":{"type":"Point","coordinates":[-122.89809,42.62305]}},{"type":"Feature","properties":{"observedAt":"2026-07-17T09:45:00Z","satellite":"N20","instrument":"VIIRS","confidence":"n","frpMw":3.61,"brightnessI4K":308.28,"brightnessI5K":287.5,"dayNight":"N","scanKm":0.38,"trackKm":0.44},"geometry":{"type":"Point","coordinates":[-122.90224,42.62346]}},{"type":"Feature","properties":{"observedAt":"2026-07-17T09:45:00Z","satellite":"N20","instrument":"VIIRS","confidence":"n","frpMw":2.09,"brightnessI4K":331.66,"brightnessI5K":287.22,"dayNight":"N","scanKm":0.39,"trackKm":0.44},"geometry":{"type":"Point","coordinates":[-123.02858,42.62349]}},{"type":"Feature","properties":{"observedAt":"2026-07-17T09:45:00Z","satellite":"N20","instrument":"VIIRS","confidence":"n","frpMw":2.02,"brightnessI4K":307.76,"brightnessI5K":288.46,"dayNight":"N","scanKm":0.39,"trackKm":0.44},"geometry":{"type":"Point","coordinates":[-122.91113,42.62434]}},{"type":"Feature","properties":{"observedAt":"2026-07-17T09:45:00Z","satellite":"N20","instrument":"VIIRS","confidence":"n","frpMw":2.02,"brightnessI4K":311.27,"brightnessI5K":287.93,"dayNight":"N","scanKm":0.39,"trackKm":0.44},"geometry":{"type":"Point","coordinates":[-122.91612,42.62482]}},{"type":"Feature","properties":{"observedAt":"2026-07-17T09:45:00Z","satellite":"N20","instrument":"VIIRS","confidence":"n","frpMw":7.08,"brightnessI4K":349.01,"brightnessI5K":291.43,"dayNight":"N","scanKm":0.38,"trackKm":0.44},"geometry":{"type":"Point","coordinates":[-122.89767,42.62708]}},{"type":"Feature","properties":{"observedAt":"2026-07-17T09:45:00Z","satellite":"N20","instrument":"VIIRS","confidence":"n","frpMw":1.06,"brightnessI4K":305.47,"brightnessI5K":287.35,"dayNight":"N","scanKm":0.38,"trackKm":0.44},"geometry":{"type":"Point","coordinates":[-122.90195,42.6275]}},{"type":"Feature","properties":{"observedAt":"2026-07-17T09:45:00Z","satellite":"N20","instrument":"VIIRS","confidence":"n","frpMw":2.09,"brightnessI4K":302.03,"brightnessI5K":285.2,"dayNight":"N","scanKm":0.39,"trackKm":0.44},"geometry":{"type":"Point","coordinates":[-123.02815,42.62753]}},{"type":"Feature","properties":{"observedAt":"2026-07-17T09:45:00Z","satellite":"N20","instrument":"VIIRS","confidence":"n","frpMw":0.83,"brightnessI4K":296.38,"brightnessI5K":285.99,"dayNight":"N","scanKm":0.39,"trackKm":0.44},"geometry":{"type":"Point","coordinates":[-122.91077,42.62836]}},{"type":"Feature","properties":{"observedAt":"2026-07-17T09:45:00Z","satellite":"N20","instrument":"VIIRS","confidence":"n","frpMw":0.83,"brightnessI4K":303.43,"brightnessI5K":286.94,"dayNight":"N","scanKm":0.39,"trackKm":0.44},"geometry":{"type":"Point","coordinates":[-122.9156,42.62884]}},{"type":"Feature","properties":{"observedAt":"2026-07-17T09:45:00Z","satellite":"N20","instrument":"VIIRS","confidence":"n","frpMw":2.03,"brightnessI4K":331.26,"brightnessI5K":289.23,"dayNight":"N","scanKm":0.39,"trackKm":0.44},"geometry":{"type":"Point","coordinates":[-122.92075,42.62934]}},{"type":"Feature","properties":{"observedAt":"2026-07-17T09:45:00Z","satellite":"N20","instrument":"VIIRS","confidence":"n","frpMw":2.03,"brightnessI4K":305.8,"brightnessI5K":285.03,"dayNight":"N","scanKm":0.39,"trackKm":0.44},"geometry":{"type":"Point","coordinates":[-122.92607,42.62986]}},{"type":"Feature","properties":{"observedAt":"2026-07-17T09:45:00Z","satellite":"N20","instrument":"VIIRS","confidence":"n","frpMw":7.08,"brightnessI4K":315.8,"brightnessI5K":285.17,"dayNight":"N","scanKm":0.38,"trackKm":0.44},"geometry":{"type":"Point","coordinates":[-122.89237,42.63062]}},{"type":"Feature","properties":{"observedAt":"2026-07-17T09:45:00Z","satellite":"N20","instrument":"VIIRS","confidence":"n","frpMw":7.08,"brightnessI4K":341.02,"brightnessI5K":289.46,"dayNight":"N","scanKm":0.38,"trackKm":0.44},"geometry":{"type":"Point","coordinates":[-122.89688,42.63106]}},{"type":"Feature","properties":{"observedAt":"2026-07-17T09:45:00Z","satellite":"N20","instrument":"VIIRS","confidence":"n","frpMw":1.06,"brightnessI4K":300.27,"brightnessI5K":285.84,"dayNight":"N","scanKm":0.38,"trackKm":0.44},"geometry":{"type":"Point","coordinates":[-122.90122,42.63149]}},{"type":"Feature","properties":{"observedAt":"2026-07-17T09:45:00Z","satellite":"N20","instrument":"VIIRS","confidence":"n","frpMw":2.03,"brightnessI4K":305.33,"brightnessI5K":287.26,"dayNight":"N","scanKm":0.39,"trackKm":0.44},"geometry":{"type":"Point","coordinates":[-122.91995,42.63334]}},{"type":"Feature","properties":{"observedAt":"2026-07-17T09:45:00Z","satellite":"N20","instrument":"VIIRS","confidence":"n","frpMw":2.03,"brightnessI4K":323.72,"brightnessI5K":288.47,"dayNight":"N","scanKm":0.39,"trackKm":0.44},"geometry":{"type":"Point","coordinates":[-122.92532,42.63386]}},{"type":"Feature","properties":{"observedAt":"2026-07-17T09:45:00Z","satellite":"N20","instrument":"VIIRS","confidence":"n","frpMw":0.88,"brightnessI4K":303.41,"brightnessI5K":286.77,"dayNight":"N","scanKm":0.39,"trackKm":0.44},"geometry":{"type":"Point","coordinates":[-123.00981,42.63395]}},{"type":"Feature","properties":{"observedAt":"2026-07-17T09:45:00Z","satellite":"N20","instrument":"VIIRS","confidence":"n","frpMw":0.67,"brightnessI4K":302.06,"brightnessI5K":285.48,"dayNight":"N","scanKm":0.39,"trackKm":0.44},"geometry":{"type":"Point","coordinates":[-122.93066,42.63438]}},{"type":"Feature","properties":{"observedAt":"2026-07-17T09:45:00Z","satellite":"N20","instrument":"VIIRS","confidence":"n","frpMw":1.24,"brightnessI4K":298.17,"brightnessI5K":285.51,"dayNight":"N","scanKm":0.39,"trackKm":0.44},"geometry":{"type":"Point","coordinates":[-123.01537,42.63448]}},{"type":"Feature","properties":{"observedAt":"2026-07-17T09:45:00Z","satellite":"N20","instrument":"VIIRS","confidence":"n","frpMw":0.79,"brightnessI4K":296.86,"brightnessI5K":284.83,"dayNight":"N","scanKm":0.38,"trackKm":0.44},"geometry":{"type":"Point","coordinates":[-122.8911,42.63456]}},{"type":"Feature","properties":{"observedAt":"2026-07-17T09:45:00Z","satellite":"N20","instrument":"VIIRS","confidence":"n","frpMw":0.79,"brightnessI4K":303.52,"brightnessI5K":286.3,"dayNight":"N","scanKm":0.38,"trackKm":0.44},"geometry":{"type":"Point","coordinates":[-122.89569,42.63501]}},{"type":"Feature","properties":{"observedAt":"2026-07-17T09:45:00Z","satellite":"N20","instrument":"VIIRS","confidence":"n","frpMw":1.24,"brightnessI4K":308.18,"brightnessI5K":286.09,"dayNight":"N","scanKm":0.39,"trackKm":0.44},"geometry":{"type":"Point","coordinates":[-123.02117,42.63504]}},{"type":"Feature","properties":{"observedAt":"2026-07-17T09:45:00Z","satellite":"N20","instrument":"VIIRS","confidence":"n","frpMw":0.48,"brightnessI4K":296.96,"brightnessI5K":286.26,"dayNight":"N","scanKm":0.38,"trackKm":0.44},"geometry":{"type":"Point","coordinates":[-122.90017,42.63545]}},{"type":"Feature","properties":{"observedAt":"2026-07-17T09:45:00Z","satellite":"N20","instrument":"VIIRS","confidence":"n","frpMw":3.53,"brightnessI4K":329.84,"brightnessI5K":286.82,"dayNight":"N","scanKm":0.39,"trackKm":0.44},"geometry":{"type":"Point","coordinates":[-123.02672,42.63557]}},{"type":"Feature","properties":{"observedAt":"2026-07-17T09:45:00Z","satellite":"N20","instrument":"VIIRS","confidence":"n","frpMw":1.35,"brightnessI4K":300.63,"brightnessI5K":286.26,"dayNight":"N","scanKm":0.39,"trackKm":0.44},"geometry":{"type":"Point","coordinates":[-122.92986,42.63836]}},{"type":"Feature","properties":{"observedAt":"2026-07-17T09:45:00Z","satellite":"N20","instrument":"VIIRS","confidence":"n","frpMw":0.75,"brightnessI4K":311.11,"brightnessI5K":286.58,"dayNight":"N","scanKm":0.39,"trackKm":0.44},"geometry":{"type":"Point","coordinates":[-123.01476,42.63851]}},{"type":"Feature","properties":{"observedAt":"2026-07-17T09:45:00Z","satellite":"N20","instrument":"VIIRS","confidence":"n","frpMw":0.79,"brightnessI4K":310.81,"brightnessI5K":287.0,"dayNight":"N","scanKm":0.38,"trackKm":0.44},"geometry":{"type":"Point","coordinates":[-122.89443,42.63895]}},{"type":"Feature","properties":{"observedAt":"2026-07-17T09:45:00Z","satellite":"N20","instrument":"VIIRS","confidence":"n","frpMw":0.75,"brightnessI4K":295.76,"brightnessI5K":284.57,"dayNight":"N","scanKm":0.39,"trackKm":0.44},"geometry":{"type":"Point","coordinates":[-123.0203,42.63905]}},{"type":"Feature","properties":{"observedAt":"2026-07-17T09:45:00Z","satellite":"N20","instrument":"VIIRS","confidence":"n","frpMw":0.48,"brightnessI4K":296.96,"brightnessI5K":286.16,"dayNight":"N","scanKm":0.38,"trackKm":0.44},"geometry":{"type":"Point","coordinates":[-122.89898,42.6394]}},{"type":"Feature","properties":{"observedAt":"2026-07-17T09:45:00Z","satellite":"N20","instrument":"VIIRS","confidence":"n","frpMw":0.48,"brightnessI4K":295.7,"brightnessI5K":285.35,"dayNight":"N","scanKm":0.39,"trackKm":0.44},"geometry":{"type":"Point","coordinates":[-122.90353,42.63985]}},{"type":"Feature","properties":{"observedAt":"2026-07-17T09:45:00Z","satellite":"N20","instrument":"VIIRS","confidence":"n","frpMw":0.95,"brightnessI4K":296.31,"brightnessI5K":285.89,"dayNight":"N","scanKm":0.39,"trackKm":0.44},"geometry":{"type":"Point","coordinates":[-123.00342,42.64149]}},{"type":"Feature","properties":{"observedAt":"2026-07-17T09:45:00Z","satellite":"N20","instrument":"VIIRS","confidence":"n","frpMw":0.95,"brightnessI4K":306.87,"brightnessI5K":286.25,"dayNight":"N","scanKm":0.39,"trackKm":0.44},"geometry":{"type":"Point","coordinates":[-123.00842,42.64198]}},{"type":"Feature","properties":{"observedAt":"2026-07-17T09:45:00Z","satellite":"N20","instrument":"VIIRS","confidence":"n","frpMw":0.45,"brightnessI4K":295.3,"brightnessI5K":285.22,"dayNight":"N","scanKm":0.38,"trackKm":0.43},"geometry":{"type":"Point","coordinates":[-122.84762,42.64243]}},{"type":"Feature","properties":{"observedAt":"2026-07-17T09:45:00Z","satellite":"N20","instrument":"VIIRS","confidence":"n","frpMw":0.75,"brightnessI4K":298.31,"brightnessI5K":285.07,"dayNight":"N","scanKm":0.39,"trackKm":0.44},"geometry":{"type":"Point","coordinates":[-123.01367,42.64249]}},{"type":"Feature","properties":{"observedAt":"2026-07-17T09:45:00Z","satellite":"N20","instrument":"VIIRS","confidence":"n","frpMw":1.35,"brightnessI4K":319.81,"brightnessI5K":287.06,"dayNight":"N","scanKm":0.39,"trackKm":0.44},"geometry":{"type":"Point","coordinates":[-122.9339,42.64284]}},{"type":"Feature","properties":{"observedAt":"2026-07-17T09:45:00Z","satellite":"N20","instrument":"VIIRS","confidence":"n","frpMw":1.28,"brightnessI4K":297.68,"brightnessI5K":285.88,"dayNight":"N","scanKm":0.38,"trackKm":0.43},"geometry":{"type":"Point","coordinates":[-122.85188,42.64285]}},{"type":"Feature","properties":{"observedAt":"2026-07-17T09:45:00Z","satellite":"N20","instrument":"VIIRS","confidence":"n","frpMw":0.94,"brightnessI4K":316.02,"brightnessI5K":285.78,"dayNight":"N","scanKm":0.38,"trackKm":0.44},"geometry":{"type":"Point","coordinates":[-122.89323,42.6429]}},{"type":"Feature","properties":{"observedAt":"2026-07-17T09:45:00Z","satellite":"N20","instrument":"VIIRS","confidence":"n","frpMw":2.77,"brightnessI4K":324.75,"brightnessI5K":287.95,"dayNight":"N","scanKm":0.39,"trackKm":0.44},"geometry":{"type":"Point","coordinates":[-123.00765,42.64599]}},{"type":"Feature","properties":{"observedAt":"2026-07-17T09:45:00Z","satellite":"N20","instrument":"VIIRS","confidence":"n","frpMw":4.82,"brightnessI4K":335.57,"brightnessI5K":288.12,"dayNight":"N","scanKm":0.39,"trackKm":0.44},"geometry":{"type":"Point","coordinates":[-123.01288,42.6465]}},{"type":"Feature","properties":{"observedAt":"2026-07-17T09:45:00Z","satellite":"N20","instrument":"VIIRS","confidence":"n","frpMw":0.74,"brightnessI4K":300.93,"brightnessI5K":286.63,"dayNight":"N","scanKm":0.38,"trackKm":0.43},"geometry":{"type":"Point","coordinates":[-122.85128,42.64685]}},{"type":"Feature","properties":{"observedAt":"2026-07-17T09:45:00Z","satellite":"N20","instrument":"VIIRS","confidence":"n","frpMw":4.82,"brightnessI4K":338.66,"brightnessI5K":287.45,"dayNight":"N","scanKm":0.39,"trackKm":0.44},"geometry":{"type":"Point","coordinates":[-123.01816,42.64701]}},{"type":"Feature","properties":{"observedAt":"2026-07-17T09:45:00Z","satellite":"N20","instrument":"VIIRS","confidence":"n","frpMw":0.74,"brightnessI4K":295.89,"brightnessI5K":285.02,"dayNight":"N","scanKm":0.38,"trackKm":0.43},"geometry":{"type":"Point","coordinates":[-122.85579,42.6473]}},{"type":"Feature","properties":{"observedAt":"2026-07-17T09:45:00Z","satellite":"N20","instrument":"VIIRS","confidence":"n","frpMw":3.95,"brightnessI4K":332.89,"brightnessI5K":286.21,"dayNight":"N","scanKm":0.39,"trackKm":0.44},"geometry":{"type":"Point","coordinates":[-123.02357,42.64754]}},{"type":"Feature","properties":{"observedAt":"2026-07-17T09:45:00Z","satellite":"N20","instrument":"VIIRS","confidence":"n","frpMw":1.21,"brightnessI4K":299.87,"brightnessI5K":284.36,"dayNight":"N","scanKm":0.39,"trackKm":0.44},"geometry":{"type":"Point","coordinates":[-122.90128,42.64776]}},{"type":"Feature","properties":{"observedAt":"2026-07-17T09:45:00Z","satellite":"N20","instrument":"VIIRS","confidence":"n","frpMw":0.94,"brightnessI4K":307.42,"brightnessI5K":286.71,"dayNight":"N","scanKm":0.39,"trackKm":0.44},"geometry":{"type":"Point","coordinates":[-122.98225,42.65168]}},{"type":"Feature","properties":{"observedAt":"2026-07-17T09:45:00Z","satellite":"N20","instrument":"VIIRS","confidence":"n","frpMw":1.65,"brightnessI4K":314.33,"brightnessI5K":285.27,"dayNight":"N","scanKm":0.39,"trackKm":0.44},"geometry":{"type":"Point","coordinates":[-122.94228,42.65181]}},{"type":"Feature","properties":{"observedAt":"2026-07-17T09:45:00Z","satellite":"N20","instrument":"VIIRS","confidence":"n","frpMw":0.94,"brightnessI4K":311.93,"brightnessI5K":286.27,"dayNight":"N","scanKm":0.39,"trackKm":0.44},"geometry":{"type":"Point","coordinates":[-122.9865,42.65209]}},{"type":"Feature","properties":{"observedAt":"2026-07-17T09:45:00Z","satellite":"N20","instrument":"VIIRS","confidence":"n","frpMw":0.44,"brightnessI4K":295.72,"brightnessI5K":284.46,"dayNight":"N","scanKm":0.39,"trackKm":0.44},"geometry":{"type":"Point","coordinates":[-122.99101,42.65254]}},{"type":"Feature","properties":{"observedAt":"2026-07-17T09:45:00Z","satellite":"N20","instrument":"VIIRS","confidence":"n","frpMw":0.94,"brightnessI4K":300.5,"brightnessI5K":286.13,"dayNight":"N","scanKm":0.39,"trackKm":0.44},"geometry":{"type":"Point","coordinates":[-122.98191,42.65572]}},{"type":"Feature","properties":{"observedAt":"2026-07-17T09:45:00Z","satellite":"N20","instrument":"VIIRS","confidence":"n","frpMw":2.85,"brightnessI4K":319.67,"brightnessI5K":285.7,"dayNight":"N","scanKm":0.39,"trackKm":0.44},"geometry":{"type":"Point","coordinates":[-122.94154,42.65582]}},{"type":"Feature","properties":{"observedAt":"2026-07-17T09:45:00Z","satellite":"N20","instrument":"VIIRS","confidence":"n","frpMw":0.39,"brightnessI4K":296.51,"brightnessI5K":284.77,"dayNight":"N","scanKm":0.39,"trackKm":0.44},"geometry":{"type":"Point","coordinates":[-122.93518,42.66333]}},{"type":"Feature","properties":{"observedAt":"2026-07-17T09:45:00Z","satellite":"N20","instrument":"VIIRS","confidence":"n","frpMw":0.48,"brightnessI4K":296.0,"brightnessI5K":285.0,"dayNight":"N","scanKm":0.39,"trackKm":0.44},"geometry":{"type":"Point","coordinates":[-122.89809,42.66777]}},{"type":"Feature","properties":{"observedAt":"2026-07-17T09:45:00Z","satellite":"N20","instrument":"VIIRS","confidence":"n","frpMw":0.62,"brightnessI4K":298.99,"brightnessI5K":285.55,"dayNight":"N","scanKm":0.39,"trackKm":0.44},"geometry":{"type":"Point","coordinates":[-122.90791,42.66876]}},{"type":"Feature","properties":{"observedAt":"2026-07-17T09:45:00Z","satellite":"N20","instrument":"VIIRS","confidence":"n","frpMw":3.25,"brightnessI4K":296.11,"brightnessI5K":283.0,"dayNight":"N","scanKm":0.39,"trackKm":0.44},"geometry":{"type":"Point","coordinates":[-122.93312,42.67127]}},{"type":"Feature","properties":{"observedAt":"2026-07-17T09:45:00Z","satellite":"N20","instrument":"VIIRS","confidence":"n","frpMw":5.53,"brightnessI4K":323.72,"brightnessI5K":289.16,"dayNight":"N","scanKm":0.39,"trackKm":0.44},"geometry":{"type":"Point","coordinates":[-122.92706,42.67474]}},{"type":"Feature","properties":{"observedAt":"2026-07-17T09:45:00Z","satellite":"N20","instrument":"VIIRS","confidence":"n","frpMw":3.25,"brightnessI4K":337.69,"brightnessI5K":285.89,"dayNight":"N","scanKm":0.39,"trackKm":0.44},"geometry":{"type":"Point","coordinates":[-122.93217,42.67525]}},{"type":"Feature","properties":{"observedAt":"2026-07-17T09:45:00Z","satellite":"N20","instrument":"VIIRS","confidence":"n","frpMw":3.67,"brightnessI4K":306.21,"brightnessI5K":286.33,"dayNight":"N","scanKm":0.39,"trackKm":0.44},"geometry":{"type":"Point","coordinates":[-122.92111,42.67822]}},{"type":"Feature","properties":{"observedAt":"2026-07-17T09:45:00Z","satellite":"N20","instrument":"VIIRS","confidence":"n","frpMw":3.67,"brightnessI4K":348.09,"brightnessI5K":290.04,"dayNight":"N","scanKm":0.39,"trackKm":0.44},"geometry":{"type":"Point","coordinates":[-122.92618,42.67873]}},{"type":"Feature","properties":{"observedAt":"2026-07-17T09:45:00Z","satellite":"N20","instrument":"VIIRS","confidence":"n","frpMw":1.58,"brightnessI4K":297.49,"brightnessI5K":283.48,"dayNight":"N","scanKm":0.39,"trackKm":0.44},"geometry":{"type":"Point","coordinates":[-122.93127,42.67924]}},{"type":"Feature","properties":{"observedAt":"2026-07-17T11:28:00Z","satellite":"N20","instrument":"VIIRS","confidence":"n","frpMw":2.13,"brightnessI4K":311.16,"brightnessI5K":284.21,"dayNight":"N","scanKm":0.7,"trackKm":0.75},"geometry":{"type":"Point","coordinates":[-123.03563,42.60908]}},{"type":"Feature","properties":{"observedAt":"2026-07-17T11:28:00Z","satellite":"N20","instrument":"VIIRS","confidence":"n","frpMw":2.99,"brightnessI4K":316.8,"brightnessI5K":284.98,"dayNight":"N","scanKm":0.71,"trackKm":0.75},"geometry":{"type":"Point","coordinates":[-122.90107,42.61067]}},{"type":"Feature","properties":{"observedAt":"2026-07-17T11:28:00Z","satellite":"N20","instrument":"VIIRS","confidence":"n","frpMw":4.23,"brightnessI4K":319.48,"brightnessI5K":284.54,"dayNight":"N","scanKm":0.7,"trackKm":0.75},"geometry":{"type":"Point","coordinates":[-123.03448,42.61091]}},{"type":"Feature","properties":{"observedAt":"2026-07-17T11:28:00Z","satellite":"N20","instrument":"VIIRS","confidence":"n","frpMw":2.86,"brightnessI4K":311.51,"brightnessI5K":284.68,"dayNight":"N","scanKm":0.7,"trackKm":0.75},"geometry":{"type":"Point","coordinates":[-123.0333,42.61589]}},{"type":"Feature","properties":{"observedAt":"2026-07-17T11:28:00Z","satellite":"N20","instrument":"VIIRS","confidence":"n","frpMw":2.99,"brightnessI4K":296.27,"brightnessI5K":285.04,"dayNight":"N","scanKm":0.71,"trackKm":0.75},"geometry":{"type":"Point","coordinates":[-122.90622,42.62012]}},{"type":"Feature","properties":{"observedAt":"2026-07-17T11:28:00Z","satellite":"N20","instrument":"VIIRS","confidence":"n","frpMw":2.86,"brightnessI4K":323.34,"brightnessI5K":285.46,"dayNight":"N","scanKm":0.7,"trackKm":0.75},"geometry":{"type":"Point","coordinates":[-123.03104,42.62273]}},{"type":"Feature","properties":{"observedAt":"2026-07-17T11:28:00Z","satellite":"N20","instrument":"VIIRS","confidence":"n","frpMw":1.95,"brightnessI4K":306.4,"brightnessI5K":285.75,"dayNight":"N","scanKm":0.71,"trackKm":0.75},"geometry":{"type":"Point","coordinates":[-122.91386,42.62275]}},{"type":"Feature","properties":{"observedAt":"2026-07-17T11:28:00Z","satellite":"N20","instrument":"VIIRS","confidence":"n","frpMw":5.38,"brightnessI4K":315.09,"brightnessI5K":285.32,"dayNight":"N","scanKm":0.7,"trackKm":0.75},"geometry":{"type":"Point","coordinates":[-123.02979,42.62456]}},{"type":"Feature","properties":{"observedAt":"2026-07-17T11:28:00Z","satellite":"N20","instrument":"VIIRS","confidence":"n","frpMw":2.86,"brightnessI4K":300.1,"brightnessI5K":282.49,"dayNight":"N","scanKm":0.7,"trackKm":0.75},"geometry":{"type":"Point","coordinates":[-123.03646,42.62458]}},{"type":"Feature","properties":{"observedAt":"2026-07-17T11:28:00Z","satellite":"N20","instrument":"VIIRS","confidence":"n","frpMw":1.95,"brightnessI4K":297.05,"brightnessI5K":283.99,"dayNight":"N","scanKm":0.71,"trackKm":0.75},"geometry":{"type":"Point","coordinates":[-122.9195,42.6247]}},{"type":"Feature","properties":{"observedAt":"2026-07-17T11:28:00Z","satellite":"N20","instrument":"VIIRS","confidence":"n","frpMw":2.39,"brightnessI4K":303.72,"brightnessI5K":284.37,"dayNight":"N","scanKm":0.71,"trackKm":0.75},"geometry":{"type":"Point","coordinates":[-122.89825,42.62503]}},{"type":"Feature","properties":{"observedAt":"2026-07-17T11:28:00Z","satellite":"N20","instrument":"VIIRS","confidence":"n","frpMw":4.42,"brightnessI4K":311.24,"brightnessI5K":282.75,"dayNight":"N","scanKm":0.7,"trackKm":0.75},"geometry":{"type":"Point","coordinates":[-123.03523,42.62643]}},{"type":"Feature","properties":{"observedAt":"2026-07-17T11:28:00Z","satellite":"N20","instrument":"VIIRS","confidence":"n","frpMw":3.29,"brightnessI4K":309.11,"brightnessI5K":284.83,"dayNight":"N","scanKm":0.71,"trackKm":0.75},"geometry":{"type":"Point","coordinates":[-122.9221,42.63326]}},{"type":"Feature","properties":{"observedAt":"2026-07-17T11:28:00Z","satellite":"N20","instrument":"VIIRS","confidence":"n","frpMw":1.38,"brightnessI4K":300.02,"brightnessI5K":284.26,"dayNight":"N","scanKm":0.7,"trackKm":0.75},"geometry":{"type":"Point","coordinates":[-123.02409,42.6356]}},{"type":"Feature","properties":{"observedAt":"2026-07-17T11:28:00Z","satellite":"N20","instrument":"VIIRS","confidence":"n","frpMw":3.39,"brightnessI4K":295.61,"brightnessI5K":284.46,"dayNight":"N","scanKm":0.7,"trackKm":0.75},"geometry":{"type":"Point","coordinates":[-123.01783,42.63568]}},{"type":"Feature","properties":{"observedAt":"2026-07-17T11:28:00Z","satellite":"N20","instrument":"VIIRS","confidence":"n","frpMw":3.39,"brightnessI4K":298.78,"brightnessI5K":283.9,"dayNight":"N","scanKm":0.7,"trackKm":0.75},"geometry":{"type":"Point","coordinates":[-123.02309,42.6375]}},{"type":"Feature","properties":{"observedAt":"2026-07-17T11:28:00Z","satellite":"N20","instrument":"VIIRS","confidence":"n","frpMw":1.38,"brightnessI4K":299.37,"brightnessI5K":282.62,"dayNight":"N","scanKm":0.7,"trackKm":0.75},"geometry":{"type":"Point","coordinates":[-123.03005,42.63762]}},{"type":"Feature","properties":{"observedAt":"2026-07-17T11:28:00Z","satellite":"N20","instrument":"VIIRS","confidence":"n","frpMw":5.51,"brightnessI4K":302.11,"brightnessI5K":283.22,"dayNight":"N","scanKm":0.7,"trackKm":0.75},"geometry":{"type":"Point","coordinates":[-123.02929,42.63964]}},{"type":"Feature","properties":{"observedAt":"2026-07-17T11:28:00Z","satellite":"N20","instrument":"VIIRS","confidence":"n","frpMw":4.51,"brightnessI4K":307.89,"brightnessI5K":284.56,"dayNight":"N","scanKm":0.7,"trackKm":0.75},"geometry":{"type":"Point","coordinates":[-123.00932,42.64038]}},{"type":"Feature","properties":{"observedAt":"2026-07-17T11:28:00Z","satellite":"N20","instrument":"VIIRS","confidence":"n","frpMw":3.39,"brightnessI4K":311.57,"brightnessI5K":285.06,"dayNight":"N","scanKm":0.7,"trackKm":0.75},"geometry":{"type":"Point","coordinates":[-123.01546,42.6425]}},{"type":"Feature","properties":{"observedAt":"2026-07-17T11:28:00Z","satellite":"N20","instrument":"VIIRS","confidence":"n","frpMw":3.39,"brightnessI4K":317.49,"brightnessI5K":285.11,"dayNight":"N","scanKm":0.7,"trackKm":0.75},"geometry":{"type":"Point","coordinates":[-123.02161,42.64462]}},{"type":"Feature","properties":{"observedAt":"2026-07-17T11:28:00Z","satellite":"N20","instrument":"VIIRS","confidence":"n","frpMw":5.51,"brightnessI4K":339.0,"brightnessI5K":285.01,"dayNight":"N","scanKm":0.7,"trackKm":0.75},"geometry":{"type":"Point","coordinates":[-123.02725,42.64656]}},{"type":"Feature","properties":{"observedAt":"2026-07-17T11:28:00Z","satellite":"N20","instrument":"VIIRS","confidence":"n","frpMw":2.88,"brightnessI4K":309.61,"brightnessI5K":283.52,"dayNight":"N","scanKm":0.71,"trackKm":0.75},"geometry":{"type":"Point","coordinates":[-122.93215,42.66885]}},{"type":"Feature","properties":{"observedAt":"2026-07-17T11:28:00Z","satellite":"N20","instrument":"VIIRS","confidence":"n","frpMw":5.62,"brightnessI4K":302.06,"brightnessI5K":285.32,"dayNight":"N","scanKm":0.71,"trackKm":0.75},"geometry":{"type":"Point","coordinates":[-122.9259,42.67282]}},{"type":"Feature","properties":{"observedAt":"2026-07-17T11:28:00Z","satellite":"N20","instrument":"VIIRS","confidence":"n","frpMw":7.4,"brightnessI4K":335.26,"brightnessI5K":283.65,"dayNight":"N","scanKm":0.71,"trackKm":0.75},"geometry":{"type":"Point","coordinates":[-122.93229,42.675]}},{"type":"Feature","properties":{"observedAt":"2026-07-17T11:28:00Z","satellite":"N20","instrument":"VIIRS","confidence":"n","frpMw":11.59,"brightnessI4K":344.44,"brightnessI5K":286.99,"dayNight":"N","scanKm":0.71,"trackKm":0.75},"geometry":{"type":"Point","coordinates":[-122.92954,42.6756]}},{"type":"Feature","properties":{"observedAt":"2026-07-17T11:28:00Z","satellite":"N20","instrument":"VIIRS","confidence":"n","frpMw":3.21,"brightnessI4K":306.71,"brightnessI5K":284.85,"dayNight":"N","scanKm":0.71,"trackKm":0.75},"geometry":{"type":"Point","coordinates":[-122.92293,42.67944]}},{"type":"Feature","properties":{"observedAt":"2026-07-17T11:28:00Z","satellite":"N20","instrument":"VIIRS","confidence":"n","frpMw":3.59,"brightnessI4K":312.66,"brightnessI5K":283.38,"dayNight":"N","scanKm":0.71,"trackKm":0.75},"geometry":{"type":"Point","coordinates":[-122.92989,42.68182]}},{"type":"Feature","properties":{"observedAt":"2026-07-17T10:34:00Z","satellite":"N21","instrument":"VIIRS","confidence":"n","frpMw":4.33,"brightnessI4K":322.39,"brightnessI5K":287.16,"dayNight":"N","scanKm":0.53,"trackKm":0.42},"geometry":{"type":"Point","coordinates":[-123.03354,42.60637]}},{"type":"Feature","properties":{"observedAt":"2026-07-17T10:34:00Z","satellite":"N21","instrument":"VIIRS","confidence":"n","frpMw":1.12,"brightnessI4K":304.16,"brightnessI5K":285.4,"dayNight":"N","scanKm":0.54,"trackKm":0.42},"geometry":{"type":"Point","coordinates":[-122.90036,42.60676]}},{"type":"Feature","properties":{"observedAt":"2026-07-17T10:34:00Z","satellite":"N21","instrument":"VIIRS","confidence":"n","frpMw":4.33,"brightnessI4K":310.39,"brightnessI5K":284.7,"dayNight":"N","scanKm":0.53,"trackKm":0.42},"geometry":{"type":"Point","coordinates":[-123.03983,42.60769]}},{"type":"Feature","properties":{"observedAt":"2026-07-17T10:34:00Z","satellite":"N21","instrument":"VIIRS","confidence":"n","frpMw":8.57,"brightnessI4K":347.81,"brightnessI5K":291.78,"dayNight":"N","scanKm":0.54,"trackKm":0.42},"geometry":{"type":"Point","coordinates":[-122.89941,42.60926]}},{"type":"Feature","properties":{"observedAt":"2026-07-17T10:34:00Z","satellite":"N21","instrument":"VIIRS","confidence":"n","frpMw":4.33,"brightnessI4K":328.5,"brightnessI5K":289.41,"dayNight":"N","scanKm":0.53,"trackKm":0.42},"geometry":{"type":"Point","coordinates":[-123.03236,42.61014]}},{"type":"Feature","properties":{"observedAt":"2026-07-17T10:34:00Z","satellite":"N21","instrument":"VIIRS","confidence":"n","frpMw":9.47,"brightnessI4K":347.32,"brightnessI5K":293.15,"dayNight":"N","scanKm":0.54,"trackKm":0.42},"geometry":{"type":"Point","coordinates":[-122.89854,42.61042]}},{"type":"Feature","properties":{"observedAt":"2026-07-17T10:34:00Z","satellite":"N21","instrument":"VIIRS","confidence":"n","frpMw":6.5,"brightnessI4K":319.89,"brightnessI5K":286.32,"dayNight":"N","scanKm":0.54,"trackKm":0.42},"geometry":{"type":"Point","coordinates":[-122.90607,42.61068]}},{"type":"Feature","properties":{"observedAt":"2026-07-17T10:34:00Z","satellite":"N21","instrument":"VIIRS","confidence":"n","frpMw":4.33,"brightnessI4K":322.44,"brightnessI5K":285.42,"dayNight":"N","scanKm":0.53,"trackKm":0.42},"geometry":{"type":"Point","coordinates":[-123.03828,42.61137]}},{"type":"Feature","properties":{"observedAt":"2026-07-17T10:34:00Z","satellite":"N21","instrument":"VIIRS","confidence":"n","frpMw":9.47,"brightnessI4K":337.26,"brightnessI5K":288.8,"dayNight":"N","scanKm":0.54,"trackKm":0.42},"geometry":{"type":"Point","coordinates":[-122.90539,42.61183]}},{"type":"Feature","properties":{"observedAt":"2026-07-17T10:34:00Z","satellite":"N21","instrument":"VIIRS","confidence":"n","frpMw":8.57,"brightnessI4K":335.74,"brightnessI5K":289.26,"dayNight":"N","scanKm":0.54,"trackKm":0.42},"geometry":{"type":"Point","coordinates":[-122.89758,42.6129]}},{"type":"Feature","properties":{"observedAt":"2026-07-17T10:34:00Z","satellite":"N21","instrument":"VIIRS","confidence":"n","frpMw":6.18,"brightnessI4K":320.68,"brightnessI5K":288.08,"dayNight":"N","scanKm":0.53,"trackKm":0.42},"geometry":{"type":"Point","coordinates":[-123.0313,42.61392]}},{"type":"Feature","properties":{"observedAt":"2026-07-17T10:34:00Z","satellite":"N21","instrument":"VIIRS","confidence":"n","frpMw":9.47,"brightnessI4K":332.05,"brightnessI5K":289.08,"dayNight":"N","scanKm":0.54,"trackKm":0.42},"geometry":{"type":"Point","coordinates":[-122.89673,42.61407]}},{"type":"Feature","properties":{"observedAt":"2026-07-17T10:34:00Z","satellite":"N21","instrument":"VIIRS","confidence":"n","frpMw":6.5,"brightnessI4K":349.57,"brightnessI5K":292.77,"dayNight":"N","scanKm":0.54,"trackKm":0.42},"geometry":{"type":"Point","coordinates":[-122.90459,42.6144]}},{"type":"Feature","properties":{"observedAt":"2026-07-17T10:34:00Z","satellite":"N21","instrument":"VIIRS","confidence":"n","frpMw":6.18,"brightnessI4K":332.09,"brightnessI5K":290.0,"dayNight":"N","scanKm":0.53,"trackKm":0.42},"geometry":{"type":"Point","coordinates":[-123.03696,42.6151]}},{"type":"Feature","properties":{"observedAt":"2026-07-17T10:34:00Z","satellite":"N21","instrument":"VIIRS","confidence":"n","frpMw":9.47,"brightnessI4K":344.74,"brightnessI5K":292.68,"dayNight":"N","scanKm":0.54,"trackKm":0.42},"geometry":{"type":"Point","coordinates":[-122.90392,42.61556]}},{"type":"Feature","properties":{"observedAt":"2026-07-17T10:34:00Z","satellite":"N21","instrument":"VIIRS","confidence":"n","frpMw":6.5,"brightnessI4K":320.15,"brightnessI5K":287.4,"dayNight":"N","scanKm":0.54,"trackKm":0.42},"geometry":{"type":"Point","coordinates":[-122.91099,42.61576]}},{"type":"Feature","properties":{"observedAt":"2026-07-17T10:34:00Z","satellite":"N21","instrument":"VIIRS","confidence":"n","frpMw":9.09,"brightnessI4K":336.77,"brightnessI5K":289.72,"dayNight":"N","scanKm":0.54,"trackKm":0.42},"geometry":{"type":"Point","coordinates":[-122.89584,42.61657]}},{"type":"Feature","properties":{"observedAt":"2026-07-17T10:34:00Z","satellite":"N21","instrument":"VIIRS","confidence":"n","frpMw":3.57,"brightnessI4K":330.47,"brightnessI5K":289.03,"dayNight":"N","scanKm":0.54,"trackKm":0.42},"geometry":{"type":"Point","coordinates":[-122.91035,42.61689]}},{"type":"Feature","properties":{"observedAt":"2026-07-17T10:34:00Z","satellite":"N21","instrument":"VIIRS","confidence":"n","frpMw":4.31,"brightnessI4K":327.5,"brightnessI5K":291.63,"dayNight":"N","scanKm":0.54,"trackKm":0.42},"geometry":{"type":"Point","coordinates":[-122.903,42.6181]}},{"type":"Feature","properties":{"observedAt":"2026-07-17T10:34:00Z","satellite":"N21","instrument":"VIIRS","confidence":"n","frpMw":3.57,"brightnessI4K":304.01,"brightnessI5K":285.29,"dayNight":"N","scanKm":0.54,"trackKm":0.42},"geometry":{"type":"Point","coordinates":[-122.91626,42.61812]}},{"type":"Feature","properties":{"observedAt":"2026-07-17T10:34:00Z","satellite":"N21","instrument":"VIIRS","confidence":"n","frpMw":6.18,"brightnessI4K":297.4,"brightnessI5K":285.68,"dayNight":"N","scanKm":0.53,"trackKm":0.42},"geometry":{"type":"Point","coordinates":[-123.03577,42.61886]}},{"type":"Feature","properties":{"observedAt":"2026-07-17T10:34:00Z","satellite":"N21","instrument":"VIIRS","confidence":"n","frpMw":4.31,"brightnessI4K":325.75,"brightnessI5K":290.76,"dayNight":"N","scanKm":0.54,"trackKm":0.42},"geometry":{"type":"Point","coordinates":[-122.90969,42.61952]}},{"type":"Feature","properties":{"observedAt":"2026-07-17T10:34:00Z","satellite":"N21","instrument":"VIIRS","confidence":"n","frpMw":9.09,"brightnessI4K":338.46,"brightnessI5K":288.88,"dayNight":"N","scanKm":0.54,"trackKm":0.42},"geometry":{"type":"Point","coordinates":[-122.89408,42.62024]}},{"type":"Feature","properties":{"observedAt":"2026-07-17T10:34:00Z","satellite":"N21","instrument":"VIIRS","confidence":"n","frpMw":3.22,"brightnessI4K":337.21,"brightnessI5K":290.33,"dayNight":"N","scanKm":0.54,"trackKm":0.42},"geometry":{"type":"Point","coordinates":[-122.91562,42.62079]}},{"type":"Feature","properties":{"observedAt":"2026-07-17T10:34:00Z","satellite":"N21","instrument":"VIIRS","confidence":"n","frpMw":5.33,"brightnessI4K":327.54,"brightnessI5K":287.22,"dayNight":"N","scanKm":0.53,"trackKm":0.42},"geometry":{"type":"Point","coordinates":[-123.02905,42.62146]}},{"type":"Feature","properties":{"observedAt":"2026-07-17T10:34:00Z","satellite":"N21","instrument":"VIIRS","confidence":"n","frpMw":4.31,"brightnessI4K":329.14,"brightnessI5K":291.17,"dayNight":"N","scanKm":0.54,"trackKm":0.42},"geometry":{"type":"Point","coordinates":[-122.90125,42.62177]}},{"type":"Feature","properties":{"observedAt":"2026-07-17T10:34:00Z","satellite":"N21","instrument":"VIIRS","confidence":"n","frpMw":3.22,"brightnessI4K":306.42,"brightnessI5K":285.11,"dayNight":"N","scanKm":0.53,"trackKm":0.42},"geometry":{"type":"Point","coordinates":[-122.92127,42.62199]}},{"type":"Feature","properties":{"observedAt":"2026-07-17T10:34:00Z","satellite":"N21","instrument":"VIIRS","confidence":"n","frpMw":5.33,"brightnessI4K":327.81,"brightnessI5K":286.98,"dayNight":"N","scanKm":0.53,"trackKm":0.42},"geometry":{"type":"Point","coordinates":[-123.03451,42.6226]}},{"type":"Feature","properties":{"observedAt":"2026-07-17T10:34:00Z","satellite":"N21","instrument":"VIIRS","confidence":"n","frpMw":4.31,"brightnessI4K":296.75,"brightnessI5K":286.44,"dayNight":"N","scanKm":0.54,"trackKm":0.42},"geometry":{"type":"Point","coordinates":[-122.908,42.6232]}},{"type":"Feature","properties":{"observedAt":"2026-07-17T10:34:00Z","satellite":"N21","instrument":"VIIRS","confidence":"n","frpMw":3.22,"brightnessI4K":309.31,"brightnessI5K":288.91,"dayNight":"N","scanKm":0.54,"trackKm":0.42},"geometry":{"type":"Point","coordinates":[-122.91415,42.6245]}},{"type":"Feature","properties":{"observedAt":"2026-07-17T10:34:00Z","satellite":"N21","instrument":"VIIRS","confidence":"n","frpMw":5.33,"brightnessI4K":297.4,"brightnessI5K":285.49,"dayNight":"N","scanKm":0.53,"trackKm":0.42},"geometry":{"type":"Point","coordinates":[-123.02758,42.62516]}},{"type":"Feature","properties":{"observedAt":"2026-07-17T10:34:00Z","satellite":"N21","instrument":"VIIRS","confidence":"n","frpMw":7.16,"brightnessI4K":325.64,"brightnessI5K":287.86,"dayNight":"N","scanKm":0.54,"trackKm":0.42},"geometry":{"type":"Point","coordinates":[-122.89929,42.62538]}},{"type":"Feature","properties":{"observedAt":"2026-07-17T10:34:00Z","satellite":"N21","instrument":"VIIRS","confidence":"n","frpMw":3.22,"brightnessI4K":311.22,"brightnessI5K":286.72,"dayNight":"N","scanKm":0.53,"trackKm":0.42},"geometry":{"type":"Point","coordinates":[-122.9199,42.62572]}},{"type":"Feature","properties":{"observedAt":"2026-07-17T10:34:00Z","satellite":"N21","instrument":"VIIRS","confidence":"n","frpMw":5.33,"brightnessI4K":328.44,"brightnessI5K":287.09,"dayNight":"N","scanKm":0.53,"trackKm":0.42},"geometry":{"type":"Point","coordinates":[-123.03307,42.62631]}},{"type":"Feature","properties":{"observedAt":"2026-07-17T10:34:00Z","satellite":"N21","instrument":"VIIRS","confidence":"n","frpMw":1.04,"brightnessI4K":302.86,"brightnessI5K":284.69,"dayNight":"N","scanKm":0.53,"trackKm":0.42},"geometry":{"type":"Point","coordinates":[-122.92559,42.62694]}},{"type":"Feature","properties":{"observedAt":"2026-07-17T10:34:00Z","satellite":"N21","instrument":"VIIRS","confidence":"n","frpMw":7.16,"brightnessI4K":330.08,"brightnessI5K":287.46,"dayNight":"N","scanKm":0.54,"trackKm":0.42},"geometry":{"type":"Point","coordinates":[-122.89759,42.62906]}},{"type":"Feature","properties":{"observedAt":"2026-07-17T10:34:00Z","satellite":"N21","instrument":"VIIRS","confidence":"n","frpMw":1.08,"brightnessI4K":298.34,"brightnessI5K":284.76,"dayNight":"N","scanKm":0.53,"trackKm":0.42},"geometry":{"type":"Point","coordinates":[-123.03192,42.62943]}},{"type":"Feature","properties":{"observedAt":"2026-07-17T10:34:00Z","satellite":"N21","instrument":"VIIRS","confidence":"n","frpMw":2.9,"brightnessI4K":300.35,"brightnessI5K":286.15,"dayNight":"N","scanKm":0.53,"trackKm":0.42},"geometry":{"type":"Point","coordinates":[-122.91846,42.62946]}},{"type":"Feature","properties":{"observedAt":"2026-07-17T10:34:00Z","satellite":"N21","instrument":"VIIRS","confidence":"n","frpMw":2.16,"brightnessI4K":297.52,"brightnessI5K":284.63,"dayNight":"N","scanKm":0.53,"trackKm":0.42},"geometry":{"type":"Point","coordinates":[-123.03159,42.63001]}},{"type":"Feature","properties":{"observedAt":"2026-07-17T10:34:00Z","satellite":"N21","instrument":"VIIRS","confidence":"n","frpMw":3.29,"brightnessI4K":344.05,"brightnessI5K":290.6,"dayNight":"N","scanKm":0.53,"trackKm":0.42},"geometry":{"type":"Point","coordinates":[-122.92422,42.63068]}},{"type":"Feature","properties":{"observedAt":"2026-07-17T10:34:00Z","satellite":"N21","instrument":"VIIRS","confidence":"n","frpMw":3.29,"brightnessI4K":300.48,"brightnessI5K":285.47,"dayNight":"N","scanKm":0.53,"trackKm":0.42},"geometry":{"type":"Point","coordinates":[-122.92994,42.63189]}},{"type":"Feature","properties":{"observedAt":"2026-07-17T10:34:00Z","satellite":"N21","instrument":"VIIRS","confidence":"n","frpMw":3.6,"brightnessI4K":316.7,"brightnessI5K":286.89,"dayNight":"N","scanKm":0.53,"trackKm":0.42},"geometry":{"type":"Point","coordinates":[-123.02502,42.63197]}},{"type":"Feature","properties":{"observedAt":"2026-07-17T10:34:00Z","satellite":"N21","instrument":"VIIRS","confidence":"n","frpMw":1.69,"brightnessI4K":298.99,"brightnessI5K":285.99,"dayNight":"N","scanKm":0.53,"trackKm":0.42},"geometry":{"type":"Point","coordinates":[-123.007,42.63216]}},{"type":"Feature","properties":{"observedAt":"2026-07-17T10:34:00Z","satellite":"N21","instrument":"VIIRS","confidence":"n","frpMw":2.16,"brightnessI4K":321.27,"brightnessI5K":287.21,"dayNight":"N","scanKm":0.53,"trackKm":0.42},"geometry":{"type":"Point","coordinates":[-123.0247,42.63258]}},{"type":"Feature","properties":{"observedAt":"2026-07-17T10:34:00Z","satellite":"N21","instrument":"VIIRS","confidence":"n","frpMw":1.03,"brightnessI4K":297.94,"brightnessI5K":285.83,"dayNight":"N","scanKm":0.53,"trackKm":0.42},"geometry":{"type":"Point","coordinates":[-123.00657,42.63281]}},{"type":"Feature","properties":{"observedAt":"2026-07-17T10:34:00Z","satellite":"N21","instrument":"VIIRS","confidence":"n","frpMw":2.45,"brightnessI4K":315.41,"brightnessI5K":286.5,"dayNight":"N","scanKm":0.54,"trackKm":0.42},"geometry":{"type":"Point","coordinates":[-122.89635,42.63282]}},{"type":"Feature","properties":{"observedAt":"2026-07-17T10:34:00Z","satellite":"N21","instrument":"VIIRS","confidence":"n","frpMw":1.08,"brightnessI4K":306.35,"brightnessI5K":284.71,"dayNight":"N","scanKm":0.53,"trackKm":0.42},"geometry":{"type":"Point","coordinates":[-123.03062,42.63316]}},{"type":"Feature","properties":{"observedAt":"2026-07-17T10:34:00Z","satellite":"N21","instrument":"VIIRS","confidence":"n","frpMw":1.69,"brightnessI4K":307.03,"brightnessI5K":287.94,"dayNight":"N","scanKm":0.53,"trackKm":0.42},"geometry":{"type":"Point","coordinates":[-123.0128,42.63339]}},{"type":"Feature","properties":{"observedAt":"2026-07-17T10:34:00Z","satellite":"N21","instrument":"VIIRS","confidence":"n","frpMw":2.16,"brightnessI4K":314.99,"brightnessI5K":285.68,"dayNight":"N","scanKm":0.53,"trackKm":0.42},"geometry":{"type":"Point","coordinates":[-123.03031,42.63375]}},{"type":"Feature","properties":{"observedAt":"2026-07-17T10:34:00Z","satellite":"N21","instrument":"VIIRS","confidence":"n","frpMw":2.73,"brightnessI4K":308.32,"brightnessI5K":288.23,"dayNight":"N","scanKm":0.53,"trackKm":0.42},"geometry":{"type":"Point","coordinates":[-123.01239,42.63402]}},{"type":"Feature","properties":{"observedAt":"2026-07-17T10:34:00Z","satellite":"N21","instrument":"VIIRS","confidence":"n","frpMw":3.29,"brightnessI4K":299.67,"brightnessI5K":286.07,"dayNight":"N","scanKm":0.53,"trackKm":0.42},"geometry":{"type":"Point","coordinates":[-122.92287,42.63442]}},{"type":"Feature","properties":{"observedAt":"2026-07-17T10:34:00Z","satellite":"N21","instrument":"VIIRS","confidence":"n","frpMw":3.75,"brightnessI4K":315.48,"brightnessI5K":287.54,"dayNight":"N","scanKm":0.53,"trackKm":0.42},"geometry":{"type":"Point","coordinates":[-123.01818,42.63454]}},{"type":"Feature","properties":{"observedAt":"2026-07-17T10:34:00Z","satellite":"N21","instrument":"VIIRS","confidence":"n","frpMw":2.73,"brightnessI4K":317.04,"brightnessI5K":287.51,"dayNight":"N","scanKm":0.53,"trackKm":0.42},"geometry":{"type":"Point","coordinates":[-123.01781,42.63515]}},{"type":"Feature","properties":{"observedAt":"2026-07-17T10:34:00Z","satellite":"N21","instrument":"VIIRS","confidence":"n","frpMw":3.29,"brightnessI4K":314.16,"brightnessI5K":287.37,"dayNight":"N","scanKm":0.53,"trackKm":0.42},"geometry":{"type":"Point","coordinates":[-122.92854,42.63562]}},{"type":"Feature","properties":{"observedAt":"2026-07-17T10:34:00Z","satellite":"N21","instrument":"VIIRS","confidence":"n","frpMw":3.75,"brightnessI4K":318.18,"brightnessI5K":286.25,"dayNight":"N","scanKm":0.53,"trackKm":0.42},"geometry":{"type":"Point","coordinates":[-123.02366,42.63569]}},{"type":"Feature","properties":{"observedAt":"2026-07-17T10:34:00Z","satellite":"N21","instrument":"VIIRS","confidence":"n","frpMw":2.88,"brightnessI4K":313.09,"brightnessI5K":285.95,"dayNight":"N","scanKm":0.53,"trackKm":0.42},"geometry":{"type":"Point","coordinates":[-123.02329,42.6363]}},{"type":"Feature","properties":{"observedAt":"2026-07-17T10:34:00Z","satellite":"N21","instrument":"VIIRS","confidence":"n","frpMw":2.45,"brightnessI4K":303.65,"brightnessI5K":286.69,"dayNight":"N","scanKm":0.54,"trackKm":0.42},"geometry":{"type":"Point","coordinates":[-122.89529,42.63663]}},{"type":"Feature","properties":{"observedAt":"2026-07-17T10:34:00Z","satellite":"N21","instrument":"VIIRS","confidence":"n","frpMw":0.8,"brightnessI4K":296.78,"brightnessI5K":285.16,"dayNight":"N","scanKm":0.53,"trackKm":0.42},"geometry":{"type":"Point","coordinates":[-122.93437,42.63686]}},{"type":"Feature","properties":{"observedAt":"2026-07-17T10:34:00Z","satellite":"N21","instrument":"VIIRS","confidence":"n","frpMw":3.87,"brightnessI4K":321.1,"brightnessI5K":285.99,"dayNight":"N","scanKm":0.53,"trackKm":0.42},"geometry":{"type":"Point","coordinates":[-123.02931,42.63689]}},{"type":"Feature","properties":{"observedAt":"2026-07-17T10:34:00Z","satellite":"N21","instrument":"VIIRS","confidence":"n","frpMw":2.88,"brightnessI4K":315.12,"brightnessI5K":285.36,"dayNight":"N","scanKm":0.53,"trackKm":0.42},"geometry":{"type":"Point","coordinates":[-123.029,42.63748]}},{"type":"Feature","properties":{"observedAt":"2026-07-17T10:34:00Z","satellite":"N21","instrument":"VIIRS","confidence":"n","frpMw":2.73,"brightnessI4K":296.79,"brightnessI5K":285.91,"dayNight":"N","scanKm":0.53,"trackKm":0.42},"geometry":{"type":"Point","coordinates":[-123.01086,42.63771]}},{"type":"Feature","properties":{"observedAt":"2026-07-17T10:34:00Z","satellite":"N21","instrument":"VIIRS","confidence":"n","frpMw":3.75,"brightnessI4K":332.43,"brightnessI5K":288.56,"dayNight":"N","scanKm":0.53,"trackKm":0.42},"geometry":{"type":"Point","coordinates":[-123.01679,42.63825]}},{"type":"Feature","properties":{"observedAt":"2026-07-17T10:34:00Z","satellite":"N21","instrument":"VIIRS","confidence":"n","frpMw":2.73,"brightnessI4K":336.29,"brightnessI5K":288.62,"dayNight":"N","scanKm":0.53,"trackKm":0.42},"geometry":{"type":"Point","coordinates":[-123.01646,42.63888]}},{"type":"Feature","properties":{"observedAt":"2026-07-17T10:34:00Z","satellite":"N21","instrument":"VIIRS","confidence":"n","frpMw":1.06,"brightnessI4K":307.16,"brightnessI5K":285.48,"dayNight":"N","scanKm":0.54,"trackKm":0.42},"geometry":{"type":"Point","coordinates":[-122.89427,42.64045]}},{"type":"Feature","properties":{"observedAt":"2026-07-17T10:34:00Z","satellite":"N21","instrument":"VIIRS","confidence":"n","frpMw":2.16,"brightnessI4K":316.44,"brightnessI5K":287.32,"dayNight":"N","scanKm":0.53,"trackKm":0.42},"geometry":{"type":"Point","coordinates":[-122.93314,42.64063]}},{"type":"Feature","properties":{"observedAt":"2026-07-17T10:34:00Z","satellite":"N21","instrument":"VIIRS","confidence":"n","frpMw":1.32,"brightnessI4K":295.22,"brightnessI5K":284.98,"dayNight":"N","scanKm":0.53,"trackKm":0.42},"geometry":{"type":"Point","coordinates":[-122.91443,42.64069]}},{"type":"Feature","properties":{"observedAt":"2026-07-17T10:34:00Z","satellite":"N21","instrument":"VIIRS","confidence":"n","frpMw":4.33,"brightnessI4K":332.36,"brightnessI5K":288.27,"dayNight":"N","scanKm":0.53,"trackKm":0.42},"geometry":{"type":"Point","coordinates":[-123.00993,42.6408]}},{"type":"Feature","properties":{"observedAt":"2026-07-17T10:34:00Z","satellite":"N21","instrument":"VIIRS","confidence":"n","frpMw":1.06,"brightnessI4K":297.1,"brightnessI5K":285.14,"dayNight":"N","scanKm":0.54,"trackKm":0.42},"geometry":{"type":"Point","coordinates":[-122.90084,42.64184]}},{"type":"Feature","properties":{"observedAt":"2026-07-17T10:34:00Z","satellite":"N21","instrument":"VIIRS","confidence":"n","frpMw":2.16,"brightnessI4K":301.97,"brightnessI5K":285.26,"dayNight":"N","scanKm":0.53,"trackKm":0.42},"geometry":{"type":"Point","coordinates":[-122.93916,42.64191]}},{"type":"Feature","properties":{"observedAt":"2026-07-17T10:34:00Z","satellite":"N21","instrument":"VIIRS","confidence":"n","frpMw":7.57,"brightnessI4K":314.82,"brightnessI5K":285.68,"dayNight":"N","scanKm":0.53,"trackKm":0.42},"geometry":{"type":"Point","coordinates":[-123.01567,42.64203]}},{"type":"Feature","properties":{"observedAt":"2026-07-17T10:34:00Z","satellite":"N21","instrument":"VIIRS","confidence":"n","frpMw":7.57,"brightnessI4K":299.32,"brightnessI5K":285.2,"dayNight":"N","scanKm":0.53,"trackKm":0.42},"geometry":{"type":"Point","coordinates":[-123.02145,42.64325]}},{"type":"Feature","properties":{"observedAt":"2026-07-17T10:34:00Z","satellite":"N21","instrument":"VIIRS","confidence":"n","frpMw":4.33,"brightnessI4K":300.43,"brightnessI5K":285.38,"dayNight":"N","scanKm":0.53,"trackKm":0.42},"geometry":{"type":"Point","coordinates":[-123.00266,42.64329]}},{"type":"Feature","properties":{"observedAt":"2026-07-17T10:34:00Z","satellite":"N21","instrument":"VIIRS","confidence":"n","frpMw":20.62,"brightnessI4K":341.52,"brightnessI5K":292.34,"dayNight":"N","scanKm":0.53,"trackKm":0.42},"geometry":{"type":"Point","coordinates":[-123.02713,42.64445]}},{"type":"Feature","properties":{"observedAt":"2026-07-17T10:34:00Z","satellite":"N21","instrument":"VIIRS","confidence":"n","frpMw":4.33,"brightnessI4K":336.54,"brightnessI5K":288.83,"dayNight":"N","scanKm":0.53,"trackKm":0.42},"geometry":{"type":"Point","coordinates":[-123.00864,42.64455]}},{"type":"Feature","properties":{"observedAt":"2026-07-17T10:34:00Z","satellite":"N21","instrument":"VIIRS","confidence":"n","frpMw":1.06,"brightnessI4K":298.34,"brightnessI5K":284.24,"dayNight":"N","scanKm":0.54,"trackKm":0.42},"geometry":{"type":"Point","coordinates":[-122.89975,42.64564]}},{"type":"Feature","properties":{"observedAt":"2026-07-17T10:34:00Z","satellite":"N21","instrument":"VIIRS","confidence":"n","frpMw":7.57,"brightnessI4K":351.46,"brightnessI5K":289.05,"dayNight":"N","scanKm":0.53,"trackKm":0.42},"geometry":{"type":"Point","coordinates":[-123.01443,42.64577]}},{"type":"Feature","properties":{"observedAt":"2026-07-17T10:34:00Z","satellite":"N21","instrument":"VIIRS","confidence":"n","frpMw":7.57,"brightnessI4K":346.78,"brightnessI5K":289.15,"dayNight":"N","scanKm":0.53,"trackKm":0.42},"geometry":{"type":"Point","coordinates":[-123.02016,42.64699]}},{"type":"Feature","properties":{"observedAt":"2026-07-17T10:34:00Z","satellite":"N21","instrument":"VIIRS","confidence":"n","frpMw":20.62,"brightnessI4K":328.63,"brightnessI5K":285.38,"dayNight":"N","scanKm":0.53,"trackKm":0.42},"geometry":{"type":"Point","coordinates":[-123.02573,42.64817]}},{"type":"Feature","properties":{"observedAt":"2026-07-17T10:34:00Z","satellite":"N21","instrument":"VIIRS","confidence":"n","frpMw":1.11,"brightnessI4K":302.06,"brightnessI5K":284.88,"dayNight":"N","scanKm":0.53,"trackKm":0.42},"geometry":{"type":"Point","coordinates":[-122.9425,42.65067]}},{"type":"Feature","properties":{"observedAt":"2026-07-17T10:34:00Z","satellite":"N21","instrument":"VIIRS","confidence":"n","frpMw":2.61,"brightnessI4K":313.5,"brightnessI5K":286.32,"dayNight":"N","scanKm":0.53,"trackKm":0.42},"geometry":{"type":"Point","coordinates":[-122.98614,42.65183]}},{"type":"Feature","properties":{"observedAt":"2026-07-17T10:34:00Z","satellite":"N21","instrument":"VIIRS","confidence":"n","frpMw":1.11,"brightnessI4K":308.42,"brightnessI5K":285.19,"dayNight":"N","scanKm":0.53,"trackKm":0.42},"geometry":{"type":"Point","coordinates":[-122.94107,42.65438]}},{"type":"Feature","properties":{"observedAt":"2026-07-17T10:34:00Z","satellite":"N21","instrument":"VIIRS","confidence":"n","frpMw":1.02,"brightnessI4K":295.21,"brightnessI5K":284.82,"dayNight":"N","scanKm":0.53,"trackKm":0.42},"geometry":{"type":"Point","coordinates":[-122.90472,42.66684]}},{"type":"Feature","properties":{"observedAt":"2026-07-17T10:34:00Z","satellite":"N21","instrument":"VIIRS","confidence":"n","frpMw":11.46,"brightnessI4K":326.11,"brightnessI5K":289.62,"dayNight":"N","scanKm":0.53,"trackKm":0.42},"geometry":{"type":"Point","coordinates":[-122.92854,42.67186]}},{"type":"Feature","properties":{"observedAt":"2026-07-17T10:34:00Z","satellite":"N21","instrument":"VIIRS","confidence":"n","frpMw":7.89,"brightnessI4K":326.57,"brightnessI5K":286.99,"dayNight":"N","scanKm":0.53,"trackKm":0.42},"geometry":{"type":"Point","coordinates":[-122.9344,42.6731]}},{"type":"Feature","properties":{"observedAt":"2026-07-17T10:34:00Z","satellite":"N21","instrument":"VIIRS","confidence":"n","frpMw":0.8,"brightnessI4K":295.39,"brightnessI5K":284.87,"dayNight":"N","scanKm":0.53,"trackKm":0.42},"geometry":{"type":"Point","coordinates":[-122.95491,42.67339]}},{"type":"Feature","properties":{"observedAt":"2026-07-17T10:34:00Z","satellite":"N21","instrument":"VIIRS","confidence":"n","frpMw":11.46,"brightnessI4K":345.33,"brightnessI5K":293.07,"dayNight":"N","scanKm":0.53,"trackKm":0.42},"geometry":{"type":"Point","coordinates":[-122.9272,42.67561]}},{"type":"Feature","properties":{"observedAt":"2026-07-17T10:34:00Z","satellite":"N21","instrument":"VIIRS","confidence":"n","frpMw":7.89,"brightnessI4K":308.48,"brightnessI5K":283.95,"dayNight":"N","scanKm":0.53,"trackKm":0.42},"geometry":{"type":"Point","coordinates":[-122.93314,42.67686]}},{"type":"Feature","properties":{"observedAt":"2026-07-17T10:34:00Z","satellite":"N21","instrument":"VIIRS","confidence":"n","frpMw":3.02,"brightnessI4K":315.36,"brightnessI5K":285.51,"dayNight":"N","scanKm":0.53,"trackKm":0.42},"geometry":{"type":"Point","coordinates":[-122.92592,42.67936]}},{"type":"Feature","properties":{"observedAt":"2026-07-17T09:28:00Z","satellite":"N","instrument":"VIIRS","confidence":"n","frpMw":1.08,"brightnessI4K":303.97,"brightnessI5K":285.22,"dayNight":"N","scanKm":0.4,"trackKm":0.6},"geometry":{"type":"Point","coordinates":[-123.03616,42.60524]}},{"type":"Feature","properties":{"observedAt":"2026-07-17T09:28:00Z","satellite":"N","instrument":"VIIRS","confidence":"n","frpMw":5.53,"brightnessI4K":320.58,"brightnessI5K":286.2,"dayNight":"N","scanKm":0.39,"trackKm":0.6},"geometry":{"type":"Point","coordinates":[-122.89602,42.61026]}},{"type":"Feature","properties":{"observedAt":"2026-07-17T09:28:00Z","satellite":"N","instrument":"VIIRS","confidence":"h","frpMw":5.53,"brightnessI4K":367.0,"brightnessI5K":291.09,"dayNight":"N","scanKm":0.39,"trackKm":0.6},"geometry":{"type":"Point","coordinates":[-122.89989,42.61043]}},{"type":"Feature","properties":{"observedAt":"2026-07-17T09:28:00Z","satellite":"N","instrument":"VIIRS","confidence":"n","frpMw":4.64,"brightnessI4K":334.35,"brightnessI5K":287.45,"dayNight":"N","scanKm":0.39,"trackKm":0.6},"geometry":{"type":"Point","coordinates":[-122.9039,42.61061]}},{"type":"Feature","properties":{"observedAt":"2026-07-17T09:28:00Z","satellite":"N","instrument":"VIIRS","confidence":"n","frpMw":1.69,"brightnessI4K":325.69,"brightnessI5K":287.23,"dayNight":"N","scanKm":0.4,"trackKm":0.6},"geometry":{"type":"Point","coordinates":[-123.03557,42.61084]}},{"type":"Feature","properties":{"observedAt":"2026-07-17T09:28:00Z","satellite":"N","instrument":"VIIRS","confidence":"n","frpMw":4.64,"brightnessI4K":298.64,"brightnessI5K":284.47,"dayNight":"N","scanKm":0.39,"trackKm":0.6},"geometry":{"type":"Point","coordinates":[-122.90913,42.61085]}},{"type":"Feature","properties":{"observedAt":"2026-07-17T09:28:00Z","satellite":"N","instrument":"VIIRS","confidence":"n","frpMw":7.36,"brightnessI4K":332.19,"brightnessI5K":286.48,"dayNight":"N","scanKm":0.39,"trackKm":0.6},"geometry":{"type":"Point","coordinates":[-122.89604,42.61585]}},{"type":"Feature","properties":{"observedAt":"2026-07-17T09:28:00Z","satellite":"N","instrument":"VIIRS","confidence":"h","frpMw":7.36,"brightnessI4K":367.0,"brightnessI5K":293.14,"dayNight":"N","scanKm":0.39,"trackKm":0.6},"geometry":{"type":"Point","coordinates":[-122.89979,42.61602]}},{"type":"Feature","properties":{"observedAt":"2026-07-17T09:28:00Z","satellite":"N","instrument":"VIIRS","confidence":"n","frpMw":5.51,"brightnessI4K":336.57,"brightnessI5K":291.46,"dayNight":"N","scanKm":0.39,"trackKm":0.6},"geometry":{"type":"Point","coordinates":[-122.90359,42.61619]}},{"type":"Feature","properties":{"observedAt":"2026-07-17T09:28:00Z","satellite":"N","instrument":"VIIRS","confidence":"n","frpMw":5.51,"brightnessI4K":351.8,"brightnessI5K":290.8,"dayNight":"N","scanKm":0.39,"trackKm":0.6},"geometry":{"type":"Point","coordinates":[-122.9081,42.61639]}},{"type":"Feature","properties":{"observedAt":"2026-07-17T09:28:00Z","satellite":"N","instrument":"VIIRS","confidence":"n","frpMw":1.69,"brightnessI4K":305.81,"brightnessI5K":285.98,"dayNight":"N","scanKm":0.4,"trackKm":0.6},"geometry":{"type":"Point","coordinates":[-123.03423,42.61641]}},{"type":"Feature","properties":{"observedAt":"2026-07-17T09:28:00Z","satellite":"N","instrument":"VIIRS","confidence":"n","frpMw":2.71,"brightnessI4K":320.45,"brightnessI5K":286.7,"dayNight":"N","scanKm":0.4,"trackKm":0.6},"geometry":{"type":"Point","coordinates":[-122.91351,42.61664]}},{"type":"Feature","properties":{"observedAt":"2026-07-17T09:28:00Z","satellite":"N","instrument":"VIIRS","confidence":"n","frpMw":3.18,"brightnessI4K":299.07,"brightnessI5K":284.65,"dayNight":"N","scanKm":0.4,"trackKm":0.6},"geometry":{"type":"Point","coordinates":[-123.04028,42.61667]}},{"type":"Feature","properties":{"observedAt":"2026-07-17T09:28:00Z","satellite":"N","instrument":"VIIRS","confidence":"n","frpMw":7.36,"brightnessI4K":351.04,"brightnessI5K":289.65,"dayNight":"N","scanKm":0.39,"trackKm":0.6},"geometry":{"type":"Point","coordinates":[-122.89592,42.62143]}},{"type":"Feature","properties":{"observedAt":"2026-07-17T09:28:00Z","satellite":"N","instrument":"VIIRS","confidence":"n","frpMw":7.36,"brightnessI4K":347.79,"brightnessI5K":292.58,"dayNight":"N","scanKm":0.39,"trackKm":0.6},"geometry":{"type":"Point","coordinates":[-122.89968,42.6216]}},{"type":"Feature","properties":{"observedAt":"2026-07-17T09:28:00Z","satellite":"N","instrument":"VIIRS","confidence":"n","frpMw":5.51,"brightnessI4K":314.4,"brightnessI5K":288.49,"dayNight":"N","scanKm":0.39,"trackKm":0.6},"geometry":{"type":"Point","coordinates":[-122.9034,42.62177]}},{"type":"Feature","properties":{"observedAt":"2026-07-17T09:28:00Z","satellite":"N","instrument":"VIIRS","confidence":"n","frpMw":5.51,"brightnessI4K":305.17,"brightnessI5K":287.37,"dayNight":"N","scanKm":0.39,"trackKm":0.6},"geometry":{"type":"Point","coordinates":[-122.90765,42.62197]}},{"type":"Feature","properties":{"observedAt":"2026-07-17T09:28:00Z","satellite":"N","instrument":"VIIRS","confidence":"n","frpMw":2.71,"brightnessI4K":312.85,"brightnessI5K":288.55,"dayNight":"N","scanKm":0.4,"trackKm":0.6},"geometry":{"type":"Point","coordinates":[-122.91259,42.62219]}},{"type":"Feature","properties":{"observedAt":"2026-07-17T09:28:00Z","satellite":"N","instrument":"VIIRS","confidence":"n","frpMw":2.71,"brightnessI4K":306.54,"brightnessI5K":286.92,"dayNight":"N","scanKm":0.4,"trackKm":0.6},"geometry":{"type":"Point","coordinates":[-122.91909,42.62249]}},{"type":"Feature","properties":{"observedAt":"2026-07-17T09:28:00Z","satellite":"N","instrument":"VIIRS","confidence":"n","frpMw":3.81,"brightnessI4K":305.9,"brightnessI5K":283.96,"dayNight":"N","scanKm":0.39,"trackKm":0.6},"geometry":{"type":"Point","coordinates":[-122.89592,42.62702]}},{"type":"Feature","properties":{"observedAt":"2026-07-17T09:28:00Z","satellite":"N","instrument":"VIIRS","confidence":"n","frpMw":3.81,"brightnessI4K":342.75,"brightnessI5K":289.92,"dayNight":"N","scanKm":0.39,"trackKm":0.6},"geometry":{"type":"Point","coordinates":[-122.90006,42.62721]}},{"type":"Feature","properties":{"observedAt":"2026-07-17T09:28:00Z","satellite":"N","instrument":"VIIRS","confidence":"n","frpMw":4.5,"brightnessI4K":302.79,"brightnessI5K":287.16,"dayNight":"N","scanKm":0.39,"trackKm":0.6},"geometry":{"type":"Point","coordinates":[-122.90411,42.6274]}},{"type":"Feature","properties":{"observedAt":"2026-07-17T09:28:00Z","satellite":"N","instrument":"VIIRS","confidence":"n","frpMw":2.17,"brightnessI4K":303.86,"brightnessI5K":286.98,"dayNight":"N","scanKm":0.4,"trackKm":0.6},"geometry":{"type":"Point","coordinates":[-122.91902,42.62808]}},{"type":"Feature","properties":{"observedAt":"2026-07-17T09:28:00Z","satellite":"N","instrument":"VIIRS","confidence":"n","frpMw":1.31,"brightnessI4K":318.71,"brightnessI5K":286.07,"dayNight":"N","scanKm":0.4,"trackKm":0.6},"geometry":{"type":"Point","coordinates":[-122.92551,42.62838]}},{"type":"Feature","properties":{"observedAt":"2026-07-17T09:28:00Z","satellite":"N","instrument":"VIIRS","confidence":"n","frpMw":5.79,"brightnessI4K":345.3,"brightnessI5K":285.86,"dayNight":"N","scanKm":0.39,"trackKm":0.6},"geometry":{"type":"Point","coordinates":[-122.89531,42.63057]}},{"type":"Feature","properties":{"observedAt":"2026-07-17T09:28:00Z","satellite":"N","instrument":"VIIRS","confidence":"n","frpMw":8.1,"brightnessI4K":332.75,"brightnessI5K":287.12,"dayNight":"N","scanKm":0.39,"trackKm":0.6},"geometry":{"type":"Point","coordinates":[-122.89968,42.63074]}},{"type":"Feature","properties":{"observedAt":"2026-07-17T09:28:00Z","satellite":"N","instrument":"VIIRS","confidence":"n","frpMw":2.15,"brightnessI4K":319.41,"brightnessI5K":287.55,"dayNight":"N","scanKm":0.4,"trackKm":0.6},"geometry":{"type":"Point","coordinates":[-122.92521,42.63177]}},{"type":"Feature","properties":{"observedAt":"2026-07-17T09:28:00Z","satellite":"N","instrument":"VIIRS","confidence":"n","frpMw":1.59,"brightnessI4K":297.67,"brightnessI5K":285.12,"dayNight":"N","scanKm":0.4,"trackKm":0.6},"geometry":{"type":"Point","coordinates":[-122.93176,42.63203]}},{"type":"Feature","properties":{"observedAt":"2026-07-17T09:28:00Z","satellite":"N","instrument":"VIIRS","confidence":"n","frpMw":3.81,"brightnessI4K":348.56,"brightnessI5K":287.03,"dayNight":"N","scanKm":0.39,"trackKm":0.6},"geometry":{"type":"Point","coordinates":[-122.89474,42.63256]}},{"type":"Feature","properties":{"observedAt":"2026-07-17T09:28:00Z","satellite":"N","instrument":"VIIRS","confidence":"n","frpMw":3.81,"brightnessI4K":322.23,"brightnessI5K":286.68,"dayNight":"N","scanKm":0.39,"trackKm":0.6},"geometry":{"type":"Point","coordinates":[-122.89925,42.63277]}},{"type":"Feature","properties":{"observedAt":"2026-07-17T09:28:00Z","satellite":"N","instrument":"VIIRS","confidence":"n","frpMw":1.31,"brightnessI4K":303.72,"brightnessI5K":286.74,"dayNight":"N","scanKm":0.4,"trackKm":0.6},"geometry":{"type":"Point","coordinates":[-122.92514,42.63396]}},{"type":"Feature","properties":{"observedAt":"2026-07-17T09:28:00Z","satellite":"N","instrument":"VIIRS","confidence":"n","frpMw":1.31,"brightnessI4K":298.08,"brightnessI5K":285.25,"dayNight":"N","scanKm":0.4,"trackKm":0.6},"geometry":{"type":"Point","coordinates":[-122.93169,42.63426]}},{"type":"Feature","properties":{"observedAt":"2026-07-17T09:28:00Z","satellite":"N","instrument":"VIIRS","confidence":"n","frpMw":1.6,"brightnessI4K":296.58,"brightnessI5K":284.77,"dayNight":"N","scanKm":0.4,"trackKm":0.6},"geometry":{"type":"Point","coordinates":[-123.01852,42.63551]}},{"type":"Feature","properties":{"observedAt":"2026-07-17T09:28:00Z","satellite":"N","instrument":"VIIRS","confidence":"n","frpMw":0.79,"brightnessI4K":298.03,"brightnessI5K":284.79,"dayNight":"N","scanKm":0.4,"trackKm":0.6},"geometry":{"type":"Point","coordinates":[-123.01837,42.6382]}},{"type":"Feature","properties":{"observedAt":"2026-07-17T09:28:00Z","satellite":"N","instrument":"VIIRS","confidence":"n","frpMw":0.82,"brightnessI4K":297.81,"brightnessI5K":285.53,"dayNight":"N","scanKm":0.39,"trackKm":0.6},"geometry":{"type":"Point","coordinates":[-122.89749,42.63828]}},{"type":"Feature","properties":{"observedAt":"2026-07-17T09:28:00Z","satellite":"N","instrument":"VIIRS","confidence":"n","frpMw":1.11,"brightnessI4K":300.77,"brightnessI5K":285.26,"dayNight":"N","scanKm":0.4,"trackKm":0.6},"geometry":{"type":"Point","coordinates":[-123.01067,42.64082]}},{"type":"Feature","properties":{"observedAt":"2026-07-17T09:28:00Z","satellite":"N","instrument":"VIIRS","confidence":"n","frpMw":0.99,"brightnessI4K":299.19,"brightnessI5K":285.36,"dayNight":"N","scanKm":0.39,"trackKm":0.6},"geometry":{"type":"Point","coordinates":[-122.89607,42.64178]}},{"type":"Feature","properties":{"observedAt":"2026-07-17T09:28:00Z","satellite":"N","instrument":"VIIRS","confidence":"n","frpMw":1.87,"brightnessI4K":315.74,"brightnessI5K":286.37,"dayNight":"N","scanKm":0.4,"trackKm":0.6},"geometry":{"type":"Point","coordinates":[-123.01018,42.64346]}},{"type":"Feature","properties":{"observedAt":"2026-07-17T09:28:00Z","satellite":"N","instrument":"VIIRS","confidence":"n","frpMw":1.87,"brightnessI4K":312.37,"brightnessI5K":285.1,"dayNight":"N","scanKm":0.4,"trackKm":0.6},"geometry":{"type":"Point","coordinates":[-123.01642,42.64374]}},{"type":"Feature","properties":{"observedAt":"2026-07-17T09:28:00Z","satellite":"N","instrument":"VIIRS","confidence":"n","frpMw":1.28,"brightnessI4K":317.25,"brightnessI5K":284.56,"dayNight":"N","scanKm":0.4,"trackKm":0.6},"geometry":{"type":"Point","coordinates":[-123.02306,42.64404]}},{"type":"Feature","properties":{"observedAt":"2026-07-17T09:28:00Z","satellite":"N","instrument":"VIIRS","confidence":"n","frpMw":1.28,"brightnessI4K":296.21,"brightnessI5K":283.82,"dayNight":"N","scanKm":0.4,"trackKm":0.6},"geometry":{"type":"Point","coordinates":[-123.02995,42.64436]}},{"type":"Feature","properties":{"observedAt":"2026-07-17T09:28:00Z","satellite":"N","instrument":"VIIRS","confidence":"n","frpMw":1.1,"brightnessI4K":296.41,"brightnessI5K":285.21,"dayNight":"N","scanKm":0.39,"trackKm":0.6},"geometry":{"type":"Point","coordinates":[-122.85419,42.64563]}},{"type":"Feature","properties":{"observedAt":"2026-07-17T09:28:00Z","satellite":"N","instrument":"VIIRS","confidence":"n","frpMw":1.14,"brightnessI4K":306.17,"brightnessI5K":284.86,"dayNight":"N","scanKm":0.4,"trackKm":0.6},"geometry":{"type":"Point","coordinates":[-123.01006,42.64642]}},{"type":"Feature","properties":{"observedAt":"2026-07-17T09:28:00Z","satellite":"N","instrument":"VIIRS","confidence":"n","frpMw":2.4,"brightnessI4K":310.91,"brightnessI5K":285.41,"dayNight":"N","scanKm":0.4,"trackKm":0.6},"geometry":{"type":"Point","coordinates":[-123.0163,42.64667]}},{"type":"Feature","properties":{"observedAt":"2026-07-17T09:28:00Z","satellite":"N","instrument":"VIIRS","confidence":"n","frpMw":2.4,"brightnessI4K":324.49,"brightnessI5K":285.46,"dayNight":"N","scanKm":0.4,"trackKm":0.6},"geometry":{"type":"Point","coordinates":[-123.02271,42.64692]}},{"type":"Feature","properties":{"observedAt":"2026-07-17T09:28:00Z","satellite":"N","instrument":"VIIRS","confidence":"n","frpMw":3.36,"brightnessI4K":315.3,"brightnessI5K":284.75,"dayNight":"N","scanKm":0.4,"trackKm":0.6},"geometry":{"type":"Point","coordinates":[-123.02969,42.64719]}},{"type":"Feature","properties":{"observedAt":"2026-07-17T09:28:00Z","satellite":"N","instrument":"VIIRS","confidence":"n","frpMw":0.71,"brightnessI4K":295.21,"brightnessI5K":285.01,"dayNight":"N","scanKm":0.39,"trackKm":0.59},"geometry":{"type":"Point","coordinates":[-122.8545,42.64743]}},{"type":"Feature","properties":{"observedAt":"2026-07-17T09:28:00Z","satellite":"N","instrument":"VIIRS","confidence":"n","frpMw":1.28,"brightnessI4K":302.35,"brightnessI5K":284.48,"dayNight":"N","scanKm":0.4,"trackKm":0.6},"geometry":{"type":"Point","coordinates":[-123.0234,42.64968]}},{"type":"Feature","properties":{"observedAt":"2026-07-17T09:28:00Z","satellite":"N","instrument":"VIIRS","confidence":"n","frpMw":1.28,"brightnessI4K":307.88,"brightnessI5K":284.55,"dayNight":"N","scanKm":0.4,"trackKm":0.6},"geometry":{"type":"Point","coordinates":[-123.03003,42.64999]}},{"type":"Feature","properties":{"observedAt":"2026-07-17T09:28:00Z","satellite":"N","instrument":"VIIRS","confidence":"n","frpMw":0.64,"brightnessI4K":296.74,"brightnessI5K":285.35,"dayNight":"N","scanKm":0.4,"trackKm":0.6},"geometry":{"type":"Point","coordinates":[-122.98324,42.65096]}},{"type":"Feature","properties":{"observedAt":"2026-07-17T09:28:00Z","satellite":"N","instrument":"VIIRS","confidence":"n","frpMw":0.64,"brightnessI4K":303.36,"brightnessI5K":285.59,"dayNight":"N","scanKm":0.4,"trackKm":0.6},"geometry":{"type":"Point","coordinates":[-122.9874,42.65113]}},{"type":"Feature","properties":{"observedAt":"2026-07-17T09:28:00Z","satellite":"N","instrument":"VIIRS","confidence":"n","frpMw":1.77,"brightnessI4K":308.62,"brightnessI5K":285.07,"dayNight":"N","scanKm":0.4,"trackKm":0.6},"geometry":{"type":"Point","coordinates":[-122.94611,42.65173]}},{"type":"Feature","properties":{"observedAt":"2026-07-17T09:28:00Z","satellite":"N","instrument":"VIIRS","confidence":"n","frpMw":0.68,"brightnessI4K":299.43,"brightnessI5K":285.96,"dayNight":"N","scanKm":0.4,"trackKm":0.6},"geometry":{"type":"Point","coordinates":[-122.98339,42.65346]}},{"type":"Feature","properties":{"observedAt":"2026-07-17T09:28:00Z","satellite":"N","instrument":"VIIRS","confidence":"n","frpMw":1.18,"brightnessI4K":300.76,"brightnessI5K":285.45,"dayNight":"N","scanKm":0.4,"trackKm":0.6},"geometry":{"type":"Point","coordinates":[-122.98727,42.65364]}},{"type":"Feature","properties":{"observedAt":"2026-07-17T09:28:00Z","satellite":"N","instrument":"VIIRS","confidence":"n","frpMw":0.87,"brightnessI4K":301.52,"brightnessI5K":285.12,"dayNight":"N","scanKm":0.4,"trackKm":0.6},"geometry":{"type":"Point","coordinates":[-122.9404,42.65479]}},{"type":"Feature","properties":{"observedAt":"2026-07-17T09:28:00Z","satellite":"N","instrument":"VIIRS","confidence":"n","frpMw":0.87,"brightnessI4K":311.58,"brightnessI5K":285.38,"dayNight":"N","scanKm":0.4,"trackKm":0.6},"geometry":{"type":"Point","coordinates":[-122.94567,42.65501]}},{"type":"Feature","properties":{"observedAt":"2026-07-17T09:28:00Z","satellite":"N","instrument":"VIIRS","confidence":"n","frpMw":1.32,"brightnessI4K":304.12,"brightnessI5K":285.12,"dayNight":"N","scanKm":0.4,"trackKm":0.6},"geometry":{"type":"Point","coordinates":[-122.94043,42.65707]}},{"type":"Feature","properties":{"observedAt":"2026-07-17T09:28:00Z","satellite":"N","instrument":"VIIRS","confidence":"n","frpMw":1.12,"brightnessI4K":307.68,"brightnessI5K":285.18,"dayNight":"N","scanKm":0.4,"trackKm":0.6},"geometry":{"type":"Point","coordinates":[-122.93221,42.67126]}},{"type":"Feature","properties":{"observedAt":"2026-07-17T09:28:00Z","satellite":"N","instrument":"VIIRS","confidence":"n","frpMw":1.73,"brightnessI4K":296.79,"brightnessI5K":285.32,"dayNight":"N","scanKm":0.4,"trackKm":0.6},"geometry":{"type":"Point","coordinates":[-122.92524,42.67657]}},{"type":"Feature","properties":{"observedAt":"2026-07-17T09:28:00Z","satellite":"N","instrument":"VIIRS","confidence":"n","frpMw":1.73,"brightnessI4K":331.9,"brightnessI5K":287.03,"dayNight":"N","scanKm":0.4,"trackKm":0.6},"geometry":{"type":"Point","coordinates":[-122.93126,42.67683]}},{"type":"Feature","properties":{"observedAt":"2026-07-17T11:08:00Z","satellite":"N","instrument":"VIIRS","confidence":"n","frpMw":0.65,"brightnessI4K":304.99,"brightnessI5K":284.49,"dayNight":"N","scanKm":0.35,"trackKm":0.57},"geometry":{"type":"Point","coordinates":[-123.03494,42.60739]}},{"type":"Feature","properties":{"observedAt":"2026-07-17T11:08:00Z","satellite":"N","instrument":"VIIRS","confidence":"n","frpMw":0.84,"brightnessI4K":308.15,"brightnessI5K":285.03,"dayNight":"N","scanKm":0.35,"trackKm":0.57},"geometry":{"type":"Point","coordinates":[-123.03492,42.60811]}},{"type":"Feature","properties":{"observedAt":"2026-07-17T11:08:00Z","satellite":"N","instrument":"VIIRS","confidence":"n","frpMw":0.65,"brightnessI4K":297.22,"brightnessI5K":283.84,"dayNight":"N","scanKm":0.35,"trackKm":0.57},"geometry":{"type":"Point","coordinates":[-123.03905,42.60851]}},{"type":"Feature","properties":{"observedAt":"2026-07-17T11:08:00Z","satellite":"N","instrument":"VIIRS","confidence":"n","frpMw":0.84,"brightnessI4K":303.08,"brightnessI5K":283.95,"dayNight":"N","scanKm":0.35,"trackKm":0.57},"geometry":{"type":"Point","coordinates":[-123.03896,42.60925]}},{"type":"Feature","properties":{"observedAt":"2026-07-17T11:08:00Z","satellite":"N","instrument":"VIIRS","confidence":"n","frpMw":2.42,"brightnessI4K":322.91,"brightnessI5K":286.49,"dayNight":"N","scanKm":0.35,"trackKm":0.57},"geometry":{"type":"Point","coordinates":[-122.89879,42.6099]}},{"type":"Feature","properties":{"observedAt":"2026-07-17T11:08:00Z","satellite":"N","instrument":"VIIRS","confidence":"n","frpMw":2.42,"brightnessI4K":331.69,"brightnessI5K":286.81,"dayNight":"N","scanKm":0.35,"trackKm":0.57},"geometry":{"type":"Point","coordinates":[-122.90383,42.6113]}},{"type":"Feature","properties":{"observedAt":"2026-07-17T11:08:00Z","satellite":"N","instrument":"VIIRS","confidence":"n","frpMw":2.28,"brightnessI4K":303.12,"brightnessI5K":284.42,"dayNight":"N","scanKm":0.35,"trackKm":0.57},"geometry":{"type":"Point","coordinates":[-122.90808,42.61248]}},{"type":"Feature","properties":{"observedAt":"2026-07-17T11:08:00Z","satellite":"N","instrument":"VIIRS","confidence":"n","frpMw":2.59,"brightnessI4K":328.39,"brightnessI5K":287.77,"dayNight":"N","scanKm":0.35,"trackKm":0.57},"geometry":{"type":"Point","coordinates":[-123.0332,42.61255]}},{"type":"Feature","properties":{"observedAt":"2026-07-17T11:08:00Z","satellite":"N","instrument":"VIIRS","confidence":"n","frpMw":2.25,"brightnessI4K":322.05,"brightnessI5K":286.85,"dayNight":"N","scanKm":0.35,"trackKm":0.57},"geometry":{"type":"Point","coordinates":[-123.03321,42.61329]}},{"type":"Feature","properties":{"observedAt":"2026-07-17T11:08:00Z","satellite":"N","instrument":"VIIRS","confidence":"n","frpMw":2.59,"brightnessI4K":340.33,"brightnessI5K":286.56,"dayNight":"N","scanKm":0.35,"trackKm":0.57},"geometry":{"type":"Point","coordinates":[-123.03664,42.61349]}},{"type":"Feature","properties":{"observedAt":"2026-07-17T11:08:00Z","satellite":"N","instrument":"VIIRS","confidence":"n","frpMw":2.25,"brightnessI4K":343.6,"brightnessI5K":287.62,"dayNight":"N","scanKm":0.35,"trackKm":0.57},"geometry":{"type":"Point","coordinates":[-123.03662,42.61424]}},{"type":"Feature","properties":{"observedAt":"2026-07-17T11:08:00Z","satellite":"N","instrument":"VIIRS","confidence":"n","frpMw":2.42,"brightnessI4K":298.62,"brightnessI5K":285.18,"dayNight":"N","scanKm":0.35,"trackKm":0.57},"geometry":{"type":"Point","coordinates":[-122.89487,42.6145]}},{"type":"Feature","properties":{"observedAt":"2026-07-17T11:08:00Z","satellite":"N","instrument":"VIIRS","confidence":"n","frpMw":2.42,"brightnessI4K":337.11,"brightnessI5K":288.86,"dayNight":"N","scanKm":0.35,"trackKm":0.57},"geometry":{"type":"Point","coordinates":[-122.90046,42.61605]}},{"type":"Feature","properties":{"observedAt":"2026-07-17T11:08:00Z","satellite":"N","instrument":"VIIRS","confidence":"n","frpMw":2.28,"brightnessI4K":321.0,"brightnessI5K":287.93,"dayNight":"N","scanKm":0.35,"trackKm":0.57},"geometry":{"type":"Point","coordinates":[-122.90563,42.61749]}},{"type":"Feature","properties":{"observedAt":"2026-07-17T11:08:00Z","satellite":"N","instrument":"VIIRS","confidence":"n","frpMw":2.59,"brightnessI4K":299.63,"brightnessI5K":284.7,"dayNight":"N","scanKm":0.35,"trackKm":0.57},"geometry":{"type":"Point","coordinates":[-123.03487,42.61864]}},{"type":"Feature","properties":{"observedAt":"2026-07-17T11:08:00Z","satellite":"N","instrument":"VIIRS","confidence":"n","frpMw":2.28,"brightnessI4K":309.41,"brightnessI5K":286.45,"dayNight":"N","scanKm":0.35,"trackKm":0.57},"geometry":{"type":"Point","coordinates":[-122.91005,42.61871]}},{"type":"Feature","properties":{"observedAt":"2026-07-17T11:08:00Z","satellite":"N","instrument":"VIIRS","confidence":"n","frpMw":2.25,"brightnessI4K":298.31,"brightnessI5K":284.81,"dayNight":"N","scanKm":0.35,"trackKm":0.57},"geometry":{"type":"Point","coordinates":[-123.03487,42.61941]}},{"type":"Feature","properties":{"observedAt":"2026-07-17T11:08:00Z","satellite":"N","instrument":"VIIRS","confidence":"n","frpMw":1.31,"brightnessI4K":301.96,"brightnessI5K":285.4,"dayNight":"N","scanKm":0.35,"trackKm":0.57},"geometry":{"type":"Point","coordinates":[-122.9139,42.61978]}},{"type":"Feature","properties":{"observedAt":"2026-07-17T11:08:00Z","satellite":"N","instrument":"VIIRS","confidence":"n","frpMw":2.55,"brightnessI4K":324.44,"brightnessI5K":287.49,"dayNight":"N","scanKm":0.35,"trackKm":0.57},"geometry":{"type":"Point","coordinates":[-122.89661,42.62067]}},{"type":"Feature","properties":{"observedAt":"2026-07-17T11:08:00Z","satellite":"N","instrument":"VIIRS","confidence":"n","frpMw":1.31,"brightnessI4K":318.59,"brightnessI5K":286.17,"dayNight":"N","scanKm":0.35,"trackKm":0.57},"geometry":{"type":"Point","coordinates":[-122.91727,42.62072]}},{"type":"Feature","properties":{"observedAt":"2026-07-17T11:08:00Z","satellite":"N","instrument":"VIIRS","confidence":"n","frpMw":2.5,"brightnessI4K":316.53,"brightnessI5K":287.07,"dayNight":"N","scanKm":0.35,"trackKm":0.57},"geometry":{"type":"Point","coordinates":[-122.90226,42.62223]}},{"type":"Feature","properties":{"observedAt":"2026-07-17T11:08:00Z","satellite":"N","instrument":"VIIRS","confidence":"n","frpMw":2.76,"brightnessI4K":306.92,"brightnessI5K":285.22,"dayNight":"N","scanKm":0.35,"trackKm":0.57},"geometry":{"type":"Point","coordinates":[-123.02969,42.62362]}},{"type":"Feature","properties":{"observedAt":"2026-07-17T11:08:00Z","satellite":"N","instrument":"VIIRS","confidence":"h","frpMw":2.76,"brightnessI4K":367.0,"brightnessI5K":289.63,"dayNight":"N","scanKm":0.35,"trackKm":0.57},"geometry":{"type":"Point","coordinates":[-123.03277,42.62447]}},{"type":"Feature","properties":{"observedAt":"2026-07-17T11:08:00Z","satellite":"N","instrument":"VIIRS","confidence":"n","frpMw":0.95,"brightnessI4K":300.17,"brightnessI5K":286.12,"dayNight":"N","scanKm":0.35,"trackKm":0.57},"geometry":{"type":"Point","coordinates":[-122.91107,42.62468]}},{"type":"Feature","properties":{"observedAt":"2026-07-17T11:08:00Z","satellite":"N","instrument":"VIIRS","confidence":"n","frpMw":0.95,"brightnessI4K":303.74,"brightnessI5K":286.65,"dayNight":"N","scanKm":0.35,"trackKm":0.57},"geometry":{"type":"Point","coordinates":[-122.9148,42.62571]}},{"type":"Feature","properties":{"observedAt":"2026-07-17T11:08:00Z","satellite":"N","instrument":"VIIRS","confidence":"n","frpMw":1.2,"brightnessI4K":305.1,"brightnessI5K":286.12,"dayNight":"N","scanKm":0.35,"trackKm":0.57},"geometry":{"type":"Point","coordinates":[-122.91827,42.62668]}},{"type":"Feature","properties":{"observedAt":"2026-07-17T11:08:00Z","satellite":"N","instrument":"VIIRS","confidence":"n","frpMw":2.5,"brightnessI4K":317.07,"brightnessI5K":285.19,"dayNight":"N","scanKm":0.35,"trackKm":0.57},"geometry":{"type":"Point","coordinates":[-122.8979,42.62671]}},{"type":"Feature","properties":{"observedAt":"2026-07-17T11:08:00Z","satellite":"N","instrument":"VIIRS","confidence":"n","frpMw":1.2,"brightnessI4K":308.23,"brightnessI5K":284.81,"dayNight":"N","scanKm":0.35,"trackKm":0.57},"geometry":{"type":"Point","coordinates":[-122.9217,42.62762]}},{"type":"Feature","properties":{"observedAt":"2026-07-17T11:08:00Z","satellite":"N","instrument":"VIIRS","confidence":"n","frpMw":1.83,"brightnessI4K":324.88,"brightnessI5K":284.69,"dayNight":"N","scanKm":0.35,"trackKm":0.57},"geometry":{"type":"Point","coordinates":[-122.92507,42.62856]}},{"type":"Feature","properties":{"observedAt":"2026-07-17T11:08:00Z","satellite":"N","instrument":"VIIRS","confidence":"n","frpMw":2.76,"brightnessI4K":303.76,"brightnessI5K":284.66,"dayNight":"N","scanKm":0.35,"trackKm":0.57},"geometry":{"type":"Point","coordinates":[-123.03026,42.62943]}},{"type":"Feature","properties":{"observedAt":"2026-07-17T11:08:00Z","satellite":"N","instrument":"VIIRS","confidence":"n","frpMw":1.65,"brightnessI4K":321.82,"brightnessI5K":284.49,"dayNight":"N","scanKm":0.35,"trackKm":0.57},"geometry":{"type":"Point","coordinates":[-122.89545,42.63171]}},{"type":"Feature","properties":{"observedAt":"2026-07-17T11:08:00Z","satellite":"N","instrument":"VIIRS","confidence":"n","frpMw":1.2,"brightnessI4K":296.03,"brightnessI5K":284.94,"dayNight":"N","scanKm":0.35,"trackKm":0.57},"geometry":{"type":"Point","coordinates":[-122.91946,42.63268]}},{"type":"Feature","properties":{"observedAt":"2026-07-17T11:08:00Z","satellite":"N","instrument":"VIIRS","confidence":"n","frpMw":1.65,"brightnessI4K":308.61,"brightnessI5K":285.24,"dayNight":"N","scanKm":0.35,"trackKm":0.57},"geometry":{"type":"Point","coordinates":[-122.90029,42.63306]}},{"type":"Feature","properties":{"observedAt":"2026-07-17T11:08:00Z","satellite":"N","instrument":"VIIRS","confidence":"n","frpMw":1.08,"brightnessI4K":309.68,"brightnessI5K":285.07,"dayNight":"N","scanKm":0.35,"trackKm":0.57},"geometry":{"type":"Point","coordinates":[-123.02494,42.6336]}},{"type":"Feature","properties":{"observedAt":"2026-07-17T11:08:00Z","satellite":"N","instrument":"VIIRS","confidence":"n","frpMw":1.83,"brightnessI4K":312.72,"brightnessI5K":286.94,"dayNight":"N","scanKm":0.35,"trackKm":0.57},"geometry":{"type":"Point","coordinates":[-122.92286,42.63363]}},{"type":"Feature","properties":{"observedAt":"2026-07-17T11:08:00Z","satellite":"N","instrument":"VIIRS","confidence":"n","frpMw":1.08,"brightnessI4K":310.95,"brightnessI5K":284.55,"dayNight":"N","scanKm":0.35,"trackKm":0.57},"geometry":{"type":"Point","coordinates":[-123.0282,42.6345]}},{"type":"Feature","properties":{"observedAt":"2026-07-17T11:08:00Z","satellite":"N","instrument":"VIIRS","confidence":"n","frpMw":1.83,"brightnessI4K":307.05,"brightnessI5K":286.54,"dayNight":"N","scanKm":0.35,"trackKm":0.57},"geometry":{"type":"Point","coordinates":[-122.92621,42.63455]}},{"type":"Feature","properties":{"observedAt":"2026-07-17T11:08:00Z","satellite":"N","instrument":"VIIRS","confidence":"n","frpMw":1.13,"brightnessI4K":301.08,"brightnessI5K":285.89,"dayNight":"N","scanKm":0.35,"trackKm":0.57},"geometry":{"type":"Point","coordinates":[-123.01,42.63511]}},{"type":"Feature","properties":{"observedAt":"2026-07-17T11:08:00Z","satellite":"N","instrument":"VIIRS","confidence":"n","frpMw":2.14,"brightnessI4K":309.95,"brightnessI5K":283.63,"dayNight":"N","scanKm":0.35,"trackKm":0.57},"geometry":{"type":"Point","coordinates":[-123.03164,42.63546]}},{"type":"Feature","properties":{"observedAt":"2026-07-17T11:08:00Z","satellite":"N","instrument":"VIIRS","confidence":"n","frpMw":1.63,"brightnessI4K":307.9,"brightnessI5K":285.76,"dayNight":"N","scanKm":0.35,"trackKm":0.57},"geometry":{"type":"Point","coordinates":[-122.92957,42.63548]}},{"type":"Feature","properties":{"observedAt":"2026-07-17T11:08:00Z","satellite":"N","instrument":"VIIRS","confidence":"n","frpMw":1.42,"brightnessI4K":299.63,"brightnessI5K":285.57,"dayNight":"N","scanKm":0.35,"trackKm":0.57},"geometry":{"type":"Point","coordinates":[-123.01638,42.63688]}},{"type":"Feature","properties":{"observedAt":"2026-07-17T11:08:00Z","satellite":"N","instrument":"VIIRS","confidence":"n","frpMw":1.42,"brightnessI4K":320.39,"brightnessI5K":285.86,"dayNight":"N","scanKm":0.35,"trackKm":0.57},"geometry":{"type":"Point","coordinates":[-123.01952,42.63775]}},{"type":"Feature","properties":{"observedAt":"2026-07-17T11:08:00Z","satellite":"N","instrument":"VIIRS","confidence":"n","frpMw":1.08,"brightnessI4K":297.23,"brightnessI5K":284.25,"dayNight":"N","scanKm":0.35,"trackKm":0.57},"geometry":{"type":"Point","coordinates":[-123.02287,42.63868]}},{"type":"Feature","properties":{"observedAt":"2026-07-17T11:08:00Z","satellite":"N","instrument":"VIIRS","confidence":"n","frpMw":1.08,"brightnessI4K":302.0,"brightnessI5K":284.27,"dayNight":"N","scanKm":0.35,"trackKm":0.57},"geometry":{"type":"Point","coordinates":[-123.02635,42.63964]}},{"type":"Feature","properties":{"observedAt":"2026-07-17T11:08:00Z","satellite":"N","instrument":"VIIRS","confidence":"n","frpMw":1.5,"brightnessI4K":314.95,"brightnessI5K":285.27,"dayNight":"N","scanKm":0.35,"trackKm":0.57},"geometry":{"type":"Point","coordinates":[-123.01113,42.64108]}},{"type":"Feature","properties":{"observedAt":"2026-07-17T11:08:00Z","satellite":"N","instrument":"VIIRS","confidence":"n","frpMw":0.85,"brightnessI4K":296.46,"brightnessI5K":285.55,"dayNight":"N","scanKm":0.35,"trackKm":0.57},"geometry":{"type":"Point","coordinates":[-122.93119,42.64161]}},{"type":"Feature","properties":{"observedAt":"2026-07-17T11:08:00Z","satellite":"N","instrument":"VIIRS","confidence":"n","frpMw":1.77,"brightnessI4K":315.48,"brightnessI5K":285.92,"dayNight":"N","scanKm":0.35,"trackKm":0.57},"geometry":{"type":"Point","coordinates":[-123.01462,42.64204]}},{"type":"Feature","properties":{"observedAt":"2026-07-17T11:08:00Z","satellite":"N","instrument":"VIIRS","confidence":"n","frpMw":1.4,"brightnessI4K":308.33,"brightnessI5K":285.13,"dayNight":"N","scanKm":0.35,"trackKm":0.57},"geometry":{"type":"Point","coordinates":[-122.93495,42.64265]}},{"type":"Feature","properties":{"observedAt":"2026-07-17T11:08:00Z","satellite":"N","instrument":"VIIRS","confidence":"n","frpMw":1.77,"brightnessI4K":319.9,"brightnessI5K":285.84,"dayNight":"N","scanKm":0.35,"trackKm":0.57},"geometry":{"type":"Point","coordinates":[-123.01811,42.64301]}},{"type":"Feature","properties":{"observedAt":"2026-07-17T11:08:00Z","satellite":"N","instrument":"VIIRS","confidence":"n","frpMw":2.68,"brightnessI4K":313.68,"brightnessI5K":284.42,"dayNight":"N","scanKm":0.35,"trackKm":0.57},"geometry":{"type":"Point","coordinates":[-123.02161,42.64397]}},{"type":"Feature","properties":{"observedAt":"2026-07-17T11:08:00Z","satellite":"N","instrument":"VIIRS","confidence":"n","frpMw":2.68,"brightnessI4K":348.36,"brightnessI5K":287.06,"dayNight":"N","scanKm":0.35,"trackKm":0.57},"geometry":{"type":"Point","coordinates":[-123.02499,42.64491]}},{"type":"Feature","properties":{"observedAt":"2026-07-17T11:08:00Z","satellite":"N","instrument":"VIIRS","confidence":"n","frpMw":1.5,"brightnessI4K":301.65,"brightnessI5K":284.9,"dayNight":"N","scanKm":0.35,"trackKm":0.57},"geometry":{"type":"Point","coordinates":[-123.00544,42.64515]}},{"type":"Feature","properties":{"observedAt":"2026-07-17T11:08:00Z","satellite":"N","instrument":"VIIRS","confidence":"n","frpMw":9.02,"brightnessI4K":352.48,"brightnessI5K":287.09,"dayNight":"N","scanKm":0.35,"trackKm":0.57},"geometry":{"type":"Point","coordinates":[-123.02827,42.64582]}},{"type":"Feature","properties":{"observedAt":"2026-07-17T11:08:00Z","satellite":"N","instrument":"VIIRS","confidence":"n","frpMw":1.5,"brightnessI4K":320.41,"brightnessI5K":286.45,"dayNight":"N","scanKm":0.35,"trackKm":0.57},"geometry":{"type":"Point","coordinates":[-123.00897,42.64613]}},{"type":"Feature","properties":{"observedAt":"2026-07-17T11:08:00Z","satellite":"N","instrument":"VIIRS","confidence":"n","frpMw":1.77,"brightnessI4K":316.17,"brightnessI5K":285.24,"dayNight":"N","scanKm":0.35,"trackKm":0.57},"geometry":{"type":"Point","coordinates":[-123.01241,42.64707]}},{"type":"Feature","properties":{"observedAt":"2026-07-17T11:08:00Z","satellite":"N","instrument":"VIIRS","confidence":"n","frpMw":1.77,"brightnessI4K":302.29,"brightnessI5K":284.77,"dayNight":"N","scanKm":0.35,"trackKm":0.57},"geometry":{"type":"Point","coordinates":[-123.01575,42.648]}},{"type":"Feature","properties":{"observedAt":"2026-07-17T11:08:00Z","satellite":"N","instrument":"VIIRS","confidence":"n","frpMw":2.68,"brightnessI4K":315.51,"brightnessI5K":285.4,"dayNight":"N","scanKm":0.35,"trackKm":0.57},"geometry":{"type":"Point","coordinates":[-123.01908,42.64893]}},{"type":"Feature","properties":{"observedAt":"2026-07-17T11:08:00Z","satellite":"N","instrument":"VIIRS","confidence":"n","frpMw":2.68,"brightnessI4K":301.73,"brightnessI5K":284.27,"dayNight":"N","scanKm":0.35,"trackKm":0.57},"geometry":{"type":"Point","coordinates":[-123.02235,42.64983]}},{"type":"Feature","properties":{"observedAt":"2026-07-17T11:08:00Z","satellite":"N","instrument":"VIIRS","confidence":"n","frpMw":0.8,"brightnessI4K":303.49,"brightnessI5K":284.11,"dayNight":"N","scanKm":0.35,"trackKm":0.57},"geometry":{"type":"Point","coordinates":[-122.94159,42.65582]}},{"type":"Feature","properties":{"observedAt":"2026-07-17T11:08:00Z","satellite":"N","instrument":"VIIRS","confidence":"n","frpMw":1.41,"brightnessI4K":319.59,"brightnessI5K":284.6,"dayNight":"N","scanKm":0.35,"trackKm":0.57},"geometry":{"type":"Point","coordinates":[-122.93144,42.67001]}},{"type":"Feature","properties":{"observedAt":"2026-07-17T11:08:00Z","satellite":"N","instrument":"VIIRS","confidence":"n","frpMw":1.41,"brightnessI4K":300.7,"brightnessI5K":282.45,"dayNight":"N","scanKm":0.35,"trackKm":0.57},"geometry":{"type":"Point","coordinates":[-122.9351,42.67102]}},{"type":"Feature","properties":{"observedAt":"2026-07-17T11:08:00Z","satellite":"N","instrument":"VIIRS","confidence":"n","frpMw":1.96,"brightnessI4K":297.89,"brightnessI5K":285.51,"dayNight":"N","scanKm":0.35,"trackKm":0.57},"geometry":{"type":"Point","coordinates":[-122.9259,42.67416]}},{"type":"Feature","properties":{"observedAt":"2026-07-17T11:08:00Z","satellite":"N","instrument":"VIIRS","confidence":"n","frpMw":4.31,"brightnessI4K":355.17,"brightnessI5K":290.33,"dayNight":"N","scanKm":0.35,"trackKm":0.57},"geometry":{"type":"Point","coordinates":[-122.92947,42.67513]}},{"type":"Feature","properties":{"observedAt":"2026-07-17T11:08:00Z","satellite":"N","instrument":"VIIRS","confidence":"n","frpMw":4.31,"brightnessI4K":329.45,"brightnessI5K":284.65,"dayNight":"N","scanKm":0.35,"trackKm":0.57},"geometry":{"type":"Point","coordinates":[-122.93316,42.67615]}},{"type":"Feature","properties":{"observedAt":"2026-07-17T11:08:00Z","satellite":"N","instrument":"VIIRS","confidence":"n","frpMw":1.96,"brightnessI4K":309.86,"brightnessI5K":286.42,"dayNight":"N","scanKm":0.35,"trackKm":0.57},"geometry":{"type":"Point","coordinates":[-122.92383,42.67924]}},{"type":"Feature","properties":{"observedAt":"2026-07-17T11:08:00Z","satellite":"N","instrument":"VIIRS","confidence":"n","frpMw":4.31,"brightnessI4K":345.1,"brightnessI5K":288.25,"dayNight":"N","scanKm":0.35,"trackKm":0.57},"geometry":{"type":"Point","coordinates":[-122.92747,42.68025]}},{"type":"Feature","properties":{"observedAt":"2026-07-17T11:08:00Z","satellite":"N","instrument":"VIIRS","confidence":"n","frpMw":4.31,"brightnessI4K":298.58,"brightnessI5K":283.23,"dayNight":"N","scanKm":0.35,"trackKm":0.57},"geometry":{"type":"Point","coordinates":[-122.93137,42.68132]}}]}
