{"type":"FeatureCollection","features":[{"type":"Feature","properties":{"observedAt":"2026-07-17T21:10:00Z","satellite":"N20","instrument":"VIIRS","confidence":"n","frpMw":18.33,"brightnessI4K":347.49,"brightnessI5K":307.89,"dayNight":"D","scanKm":0.39,"trackKm":0.36},"geometry":{"type":"Point","coordinates":[-122.89935,42.6099]}},{"type":"Feature","properties":{"observedAt":"2026-07-17T21:10:00Z","satellite":"N20","instrument":"VIIRS","confidence":"n","frpMw":3.64,"brightnessI4K":343.33,"brightnessI5K":306.73,"dayNight":"D","scanKm":0.39,"trackKm":0.36},"geometry":{"type":"Point","coordinates":[-123.03453,42.61026]}},{"type":"Feature","properties":{"observedAt":"2026-07-17T21:10:00Z","satellite":"N20","instrument":"VIIRS","confidence":"n","frpMw":18.33,"brightnessI4K":354.65,"brightnessI5K":311.59,"dayNight":"D","scanKm":0.39,"trackKm":0.36},"geometry":{"type":"Point","coordinates":[-122.90494,42.61249]}},{"type":"Feature","properties":{"observedAt":"2026-07-17T21:10:00Z","satellite":"N20","instrument":"VIIRS","confidence":"n","frpMw":5.88,"brightnessI4K":334.63,"brightnessI5K":305.94,"dayNight":"D","scanKm":0.39,"trackKm":0.36},"geometry":{"type":"Point","coordinates":[-122.91048,42.61508]}},{"type":"Feature","properties":{"observedAt":"2026-07-17T21:10:00Z","satellite":"N20","instrument":"VIIRS","confidence":"h","frpMw":15.16,"brightnessI4K":367.0,"brightnessI5K":307.13,"dayNight":"D","scanKm":0.39,"trackKm":0.36},"geometry":{"type":"Point","coordinates":[-122.90582,42.61576]}},{"type":"Feature","properties":{"observedAt":"2026-07-17T21:10:00Z","satellite":"N20","instrument":"VIIRS","confidence":"n","frpMw":5.88,"brightnessI4K":343.09,"brightnessI5K":302.42,"dayNight":"D","scanKm":0.39,"trackKm":0.36},"geometry":{"type":"Point","coordinates":[-122.91137,42.61835]}},{"type":"Feature","properties":{"observedAt":"2026-07-17T21:10:00Z","satellite":"N20","instrument":"VIIRS","confidence":"n","frpMw":6.78,"brightnessI4K":346.55,"brightnessI5K":304.06,"dayNight":"D","scanKm":0.39,"trackKm":0.36},"geometry":{"type":"Point","coordinates":[-122.91688,42.62094]}},{"type":"Feature","properties":{"observedAt":"2026-07-17T21:10:00Z","satellite":"N20","instrument":"VIIRS","confidence":"l","frpMw":3.23,"brightnessI4K":332.43,"brightnessI5K":302.49,"dayNight":"D","scanKm":0.39,"trackKm":0.36},"geometry":{"type":"Point","coordinates":[-122.92234,42.62354]}},{"type":"Feature","properties":{"observedAt":"2026-07-17T21:10:00Z","satellite":"N20","instrument":"VIIRS","confidence":"n","frpMw":5.49,"brightnessI4K":338.24,"brightnessI5K":305.41,"dayNight":"D","scanKm":0.39,"trackKm":0.36},"geometry":{"type":"Point","coordinates":[-122.8982,42.6237]}},{"type":"Feature","properties":{"observedAt":"2026-07-17T21:10:00Z","satellite":"N20","instrument":"VIIRS","confidence":"n","frpMw":6.78,"brightnessI4K":334.98,"brightnessI5K":303.0,"dayNight":"D","scanKm":0.39,"trackKm":0.36},"geometry":{"type":"Point","coordinates":[-122.91774,42.62422]}},{"type":"Feature","properties":{"observedAt":"2026-07-17T21:10:00Z","satellite":"N20","instrument":"VIIRS","confidence":"n","frpMw":12.26,"brightnessI4K":343.34,"brightnessI5K":307.79,"dayNight":"D","scanKm":0.39,"trackKm":0.36},"geometry":{"type":"Point","coordinates":[-122.92322,42.62682]}},{"type":"Feature","properties":{"observedAt":"2026-07-17T21:10:00Z","satellite":"N20","instrument":"VIIRS","confidence":"n","frpMw":12.26,"brightnessI4K":347.03,"brightnessI5K":307.69,"dayNight":"D","scanKm":0.39,"trackKm":0.36},"geometry":{"type":"Point","coordinates":[-122.9241,42.6301]}},{"type":"Feature","properties":{"observedAt":"2026-07-17T21:10:00Z","satellite":"N20","instrument":"VIIRS","confidence":"n","frpMw":8.65,"brightnessI4K":343.99,"brightnessI5K":305.67,"dayNight":"D","scanKm":0.39,"trackKm":0.36},"geometry":{"type":"Point","coordinates":[-122.92958,42.63269]}},{"type":"Feature","properties":{"observedAt":"2026-07-17T21:10:00Z","satellite":"N20","instrument":"VIIRS","confidence":"n","frpMw":8.65,"brightnessI4K":346.73,"brightnessI5K":302.19,"dayNight":"D","scanKm":0.39,"trackKm":0.36},"geometry":{"type":"Point","coordinates":[-122.92498,42.63337]}},{"type":"Feature","properties":{"observedAt":"2026-07-17T21:10:00Z","satellite":"N20","instrument":"VIIRS","confidence":"n","frpMw":3.33,"brightnessI4K":338.28,"brightnessI5K":299.4,"dayNight":"D","scanKm":0.39,"trackKm":0.36},"geometry":{"type":"Point","coordinates":[-122.89158,42.63491]}},{"type":"Feature","properties":{"observedAt":"2026-07-17T21:10:00Z","satellite":"N20","instrument":"VIIRS","confidence":"n","frpMw":16.49,"brightnessI4K":352.16,"brightnessI5K":309.64,"dayNight":"D","scanKm":0.39,"trackKm":0.36},"geometry":{"type":"Point","coordinates":[-123.02698,42.63525]}},{"type":"Feature","properties":{"observedAt":"2026-07-17T21:10:00Z","satellite":"N20","instrument":"VIIRS","confidence":"n","frpMw":16.49,"brightnessI4K":352.28,"brightnessI5K":302.38,"dayNight":"D","scanKm":0.39,"trackKm":0.36},"geometry":{"type":"Point","coordinates":[-123.02236,42.63594]}},{"type":"Feature","properties":{"observedAt":"2026-07-17T21:10:00Z","satellite":"N20","instrument":"VIIRS","confidence":"n","frpMw":11.36,"brightnessI4K":351.61,"brightnessI5K":302.97,"dayNight":"D","scanKm":0.39,"trackKm":0.36},"geometry":{"type":"Point","coordinates":[-123.01777,42.63662]}},{"type":"Feature","properties":{"observedAt":"2026-07-17T21:10:00Z","satellite":"N20","instrument":"VIIRS","confidence":"n","frpMw":11.19,"brightnessI4K":355.43,"brightnessI5K":310.3,"dayNight":"D","scanKm":0.39,"trackKm":0.36},"geometry":{"type":"Point","coordinates":[-123.03249,42.63784]}},{"type":"Feature","properties":{"observedAt":"2026-07-17T21:10:00Z","satellite":"N20","instrument":"VIIRS","confidence":"n","frpMw":4.27,"brightnessI4K":334.33,"brightnessI5K":298.47,"dayNight":"D","scanKm":0.39,"trackKm":0.36},"geometry":{"type":"Point","coordinates":[-122.89251,42.63818]}},{"type":"Feature","properties":{"observedAt":"2026-07-17T21:10:00Z","satellite":"N20","instrument":"VIIRS","confidence":"n","frpMw":13.49,"brightnessI4K":333.9,"brightnessI5K":300.98,"dayNight":"D","scanKm":0.39,"trackKm":0.36},"geometry":{"type":"Point","coordinates":[-123.02787,42.63852]}},{"type":"Feature","properties":{"observedAt":"2026-07-17T21:10:00Z","satellite":"N20","instrument":"VIIRS","confidence":"n","frpMw":13.49,"brightnessI4K":349.23,"brightnessI5K":305.37,"dayNight":"D","scanKm":0.39,"trackKm":0.36},"geometry":{"type":"Point","coordinates":[-123.02326,42.63921]}},{"type":"Feature","properties":{"observedAt":"2026-07-17T21:10:00Z","satellite":"N20","instrument":"VIIRS","confidence":"n","frpMw":56.91,"brightnessI4K":347.13,"brightnessI5K":319.53,"dayNight":"D","scanKm":0.39,"trackKm":0.36},"geometry":{"type":"Point","coordinates":[-123.01408,42.64058]}},{"type":"Feature","properties":{"observedAt":"2026-07-17T21:10:00Z","satellite":"N20","instrument":"VIIRS","confidence":"n","frpMw":8.25,"brightnessI4K":335.88,"brightnessI5K":302.35,"dayNight":"D","scanKm":0.39,"trackKm":0.36},"geometry":{"type":"Point","coordinates":[-122.89811,42.64077]}},{"type":"Feature","properties":{"observedAt":"2026-07-17T21:10:00Z","satellite":"N20","instrument":"VIIRS","confidence":"n","frpMw":11.19,"brightnessI4K":349.17,"brightnessI5K":307.52,"dayNight":"D","scanKm":0.39,"trackKm":0.36},"geometry":{"type":"Point","coordinates":[-123.03337,42.64111]}},{"type":"Feature","properties":{"observedAt":"2026-07-17T21:10:00Z","satellite":"N20","instrument":"VIIRS","confidence":"n","frpMw":17.83,"brightnessI4K":348.55,"brightnessI5K":303.46,"dayNight":"D","scanKm":0.39,"trackKm":0.36},"geometry":{"type":"Point","coordinates":[-123.00947,42.64127]}},{"type":"Feature","properties":{"observedAt":"2026-07-17T21:10:00Z","satellite":"N20","instrument":"VIIRS","confidence":"n","frpMw":4.27,"brightnessI4K":343.2,"brightnessI5K":299.83,"dayNight":"D","scanKm":0.39,"trackKm":0.36},"geometry":{"type":"Point","coordinates":[-122.89345,42.64145]}},{"type":"Feature","properties":{"observedAt":"2026-07-17T21:10:00Z","satellite":"N20","instrument":"VIIRS","confidence":"n","frpMw":13.49,"brightnessI4K":356.24,"brightnessI5K":303.88,"dayNight":"D","scanKm":0.39,"trackKm":0.36},"geometry":{"type":"Point","coordinates":[-123.02877,42.6418]}},{"type":"Feature","properties":{"observedAt":"2026-07-17T21:10:00Z","satellite":"N20","instrument":"VIIRS","confidence":"n","frpMw":13.49,"brightnessI4K":351.15,"brightnessI5K":314.95,"dayNight":"D","scanKm":0.39,"trackKm":0.36},"geometry":{"type":"Point","coordinates":[-123.02418,42.64248]}},{"type":"Feature","properties":{"observedAt":"2026-07-17T21:10:00Z","satellite":"N20","instrument":"VIIRS","confidence":"n","frpMw":56.91,"brightnessI4K":355.23,"brightnessI5K":311.54,"dayNight":"D","scanKm":0.39,"trackKm":0.36},"geometry":{"type":"Point","coordinates":[-123.01959,42.64317]}},{"type":"Feature","properties":{"observedAt":"2026-07-17T21:10:00Z","satellite":"N20","instrument":"VIIRS","confidence":"n","frpMw":56.91,"brightnessI4K":353.69,"brightnessI5K":309.38,"dayNight":"D","scanKm":0.39,"trackKm":0.36},"geometry":{"type":"Point","coordinates":[-123.01497,42.64385]}},{"type":"Feature","properties":{"observedAt":"2026-07-17T21:10:00Z","satellite":"N20","instrument":"VIIRS","confidence":"n","frpMw":8.04,"brightnessI4K":352.6,"brightnessI5K":305.15,"dayNight":"D","scanKm":0.39,"trackKm":0.36},"geometry":{"type":"Point","coordinates":[-123.02969,42.64507]}},{"type":"Feature","properties":{"observedAt":"2026-07-17T21:10:00Z","satellite":"N20","instrument":"VIIRS","confidence":"n","frpMw":8.04,"brightnessI4K":347.82,"brightnessI5K":304.29,"dayNight":"D","scanKm":0.39,"trackKm":0.36},"geometry":{"type":"Point","coordinates":[-123.02508,42.64576]}},{"type":"Feature","properties":{"observedAt":"2026-07-17T21:10:00Z","satellite":"N20","instrument":"VIIRS","confidence":"n","frpMw":2.26,"brightnessI4K":333.51,"brightnessI5K":299.63,"dayNight":"D","scanKm":0.39,"trackKm":0.36},"geometry":{"type":"Point","coordinates":[-122.98344,42.65196]}},{"type":"Feature","properties":{"observedAt":"2026-07-17T21:10:00Z","satellite":"N20","instrument":"VIIRS","confidence":"n","frpMw":7.52,"brightnessI4K":345.88,"brightnessI5K":306.03,"dayNight":"D","scanKm":0.39,"trackKm":0.36},"geometry":{"type":"Point","coordinates":[-122.93102,42.67339]}},{"type":"Feature","properties":{"observedAt":"2026-07-17T21:10:00Z","satellite":"N20","instrument":"VIIRS","confidence":"n","frpMw":7.52,"brightnessI4K":334.37,"brightnessI5K":301.43,"dayNight":"D","scanKm":0.39,"trackKm":0.36},"geometry":{"type":"Point","coordinates":[-122.93192,42.67667]}},{"type":"Feature","properties":{"observedAt":"2026-07-17T21:10:00Z","satellite":"N20","instrument":"VIIRS","confidence":"n","frpMw":7.52,"brightnessI4K":348.29,"brightnessI5K":309.22,"dayNight":"D","scanKm":0.39,"trackKm":0.36},"geometry":{"type":"Point","coordinates":[-122.9273,42.67735]}},{"type":"Feature","properties":{"observedAt":"2026-07-17T21:57:00Z","satellite":"N21","instrument":"VIIRS","confidence":"n","frpMw":10.62,"brightnessI4K":340.74,"brightnessI5K":299.05,"dayNight":"D","scanKm":0.41,"trackKm":0.61},"geometry":{"type":"Point","coordinates":[-122.90316,42.61174]}},{"type":"Feature","properties":{"observedAt":"2026-07-17T21:57:00Z","satellite":"N21","instrument":"VIIRS","confidence":"n","frpMw":5.36,"brightnessI4K":335.3,"brightnessI5K":300.95,"dayNight":"D","scanKm":0.4,"trackKm":0.6},"geometry":{"type":"Point","coordinates":[-123.03654,42.61192]}},{"type":"Feature","properties":{"observedAt":"2026-07-17T21:57:00Z","satellite":"N21","instrument":"VIIRS","confidence":"n","frpMw":15.67,"brightnessI4K":329.5,"brightnessI5K":298.45,"dayNight":"D","scanKm":0.41,"trackKm":0.61},"geometry":{"type":"Point","coordinates":[-122.91828,42.62232]}},{"type":"Feature","properties":{"observedAt":"2026-07-17T21:57:00Z","satellite":"N21","instrument":"VIIRS","confidence":"h","frpMw":22.65,"brightnessI4K":367.0,"brightnessI5K":305.47,"dayNight":"D","scanKm":0.41,"trackKm":0.61},"geometry":{"type":"Point","coordinates":[-122.92233,42.62775]}},{"type":"Feature","properties":{"observedAt":"2026-07-17T21:57:00Z","satellite":"N21","instrument":"VIIRS","confidence":"n","frpMw":6.82,"brightnessI4K":336.53,"brightnessI5K":298.48,"dayNight":"D","scanKm":0.41,"trackKm":0.61},"geometry":{"type":"Point","coordinates":[-122.93048,42.63301]}},{"type":"Feature","properties":{"observedAt":"2026-07-17T21:57:00Z","satellite":"N21","instrument":"VIIRS","confidence":"h","frpMw":13.81,"brightnessI4K":367.0,"brightnessI5K":303.24,"dayNight":"D","scanKm":0.41,"trackKm":0.61},"geometry":{"type":"Point","coordinates":[-122.92648,42.63317]}},{"type":"Feature","properties":{"observedAt":"2026-07-17T21:57:00Z","satellite":"N21","instrument":"VIIRS","confidence":"n","frpMw":25.49,"brightnessI4K":337.32,"brightnessI5K":299.23,"dayNight":"D","scanKm":0.41,"trackKm":0.6},"geometry":{"type":"Point","coordinates":[-123.02608,42.63461]}},{"type":"Feature","properties":{"observedAt":"2026-07-17T21:57:00Z","satellite":"N21","instrument":"VIIRS","confidence":"h","frpMw":25.49,"brightnessI4K":367.0,"brightnessI5K":308.24,"dayNight":"D","scanKm":0.41,"trackKm":0.6},"geometry":{"type":"Point","coordinates":[-123.02225,42.63477]}},{"type":"Feature","properties":{"observedAt":"2026-07-17T21:57:00Z","satellite":"N21","instrument":"VIIRS","confidence":"n","frpMw":4.96,"brightnessI4K":329.56,"brightnessI5K":297.17,"dayNight":"D","scanKm":0.41,"trackKm":0.61},"geometry":{"type":"Point","coordinates":[-122.89503,42.64006]}},{"type":"Feature","properties":{"observedAt":"2026-07-17T21:57:00Z","satellite":"N21","instrument":"VIIRS","confidence":"h","frpMw":9.68,"brightnessI4K":367.0,"brightnessI5K":300.08,"dayNight":"D","scanKm":0.41,"trackKm":0.6},"geometry":{"type":"Point","coordinates":[-123.02675,42.64015]}},{"type":"Feature","properties":{"observedAt":"2026-07-17T21:57:00Z","satellite":"N21","instrument":"VIIRS","confidence":"n","frpMw":9.68,"brightnessI4K":346.41,"brightnessI5K":300.17,"dayNight":"D","scanKm":0.41,"trackKm":0.6},"geometry":{"type":"Point","coordinates":[-123.02284,42.64032]}},{"type":"Feature","properties":{"observedAt":"2026-07-17T21:57:00Z","satellite":"N21","instrument":"VIIRS","confidence":"n","frpMw":42.42,"brightnessI4K":354.42,"brightnessI5K":304.45,"dayNight":"D","scanKm":0.41,"trackKm":0.6},"geometry":{"type":"Point","coordinates":[-123.019,42.64048]}},{"type":"Feature","properties":{"observedAt":"2026-07-17T21:57:00Z","satellite":"N21","instrument":"VIIRS","confidence":"n","frpMw":42.42,"brightnessI4K":339.69,"brightnessI5K":309.41,"dayNight":"D","scanKm":0.41,"trackKm":0.6},"geometry":{"type":"Point","coordinates":[-123.01511,42.64064]}},{"type":"Feature","properties":{"observedAt":"2026-07-17T21:57:00Z","satellite":"N21","instrument":"VIIRS","confidence":"h","frpMw":26.2,"brightnessI4K":367.0,"brightnessI5K":302.31,"dayNight":"D","scanKm":0.41,"trackKm":0.6},"geometry":{"type":"Point","coordinates":[-123.01118,42.64081]}},{"type":"Feature","properties":{"observedAt":"2026-07-17T21:57:00Z","satellite":"N21","instrument":"VIIRS","confidence":"n","frpMw":26.2,"brightnessI4K":331.6,"brightnessI5K":296.2,"dayNight":"D","scanKm":0.41,"trackKm":0.6},"geometry":{"type":"Point","coordinates":[-123.00709,42.64098]}},{"type":"Feature","properties":{"observedAt":"2026-07-17T21:57:00Z","satellite":"N21","instrument":"VIIRS","confidence":"n","frpMw":8.84,"brightnessI4K":338.63,"brightnessI5K":299.79,"dayNight":"D","scanKm":0.41,"trackKm":0.6},"geometry":{"type":"Point","coordinates":[-123.02978,42.645]}},{"type":"Feature","properties":{"observedAt":"2026-07-17T21:57:00Z","satellite":"N21","instrument":"VIIRS","confidence":"h","frpMw":18.84,"brightnessI4K":367.0,"brightnessI5K":303.95,"dayNight":"D","scanKm":0.41,"trackKm":0.6},"geometry":{"type":"Point","coordinates":[-123.02592,42.64514]}},{"type":"Feature","properties":{"observedAt":"2026-07-17T21:57:00Z","satellite":"N21","instrument":"VIIRS","confidence":"n","frpMw":3.76,"brightnessI4K":328.91,"brightnessI5K":298.57,"dayNight":"D","scanKm":0.41,"trackKm":0.6},"geometry":{"type":"Point","coordinates":[-123.01807,42.64544]}},{"type":"Feature","properties":{"observedAt":"2026-07-17T21:57:00Z","satellite":"N21","instrument":"VIIRS","confidence":"n","frpMw":3.76,"brightnessI4K":334.12,"brightnessI5K":298.8,"dayNight":"D","scanKm":0.41,"trackKm":0.6},"geometry":{"type":"Point","coordinates":[-123.01385,42.6456]}},{"type":"Feature","properties":{"observedAt":"2026-07-17T21:57:00Z","satellite":"N21","instrument":"VIIRS","confidence":"n","frpMw":9.68,"brightnessI4K":350.62,"brightnessI5K":300.91,"dayNight":"D","scanKm":0.41,"trackKm":0.6},"geometry":{"type":"Point","coordinates":[-123.02779,42.64567]}},{"type":"Feature","properties":{"observedAt":"2026-07-17T21:57:00Z","satellite":"N21","instrument":"VIIRS","confidence":"n","frpMw":9.68,"brightnessI4K":340.74,"brightnessI5K":300.94,"dayNight":"D","scanKm":0.41,"trackKm":0.6},"geometry":{"type":"Point","coordinates":[-123.02393,42.64583]}},{"type":"Feature","properties":{"observedAt":"2026-07-17T21:57:00Z","satellite":"N21","instrument":"VIIRS","confidence":"n","frpMw":4.1,"brightnessI4K":328.58,"brightnessI5K":301.54,"dayNight":"D","scanKm":0.41,"trackKm":0.61},"geometry":{"type":"Point","coordinates":[-122.93186,42.67096]}},{"type":"Feature","properties":{"observedAt":"2026-07-17T21:57:00Z","satellite":"N21","instrument":"VIIRS","confidence":"n","frpMw":3.02,"brightnessI4K":331.62,"brightnessI5K":301.17,"dayNight":"D","scanKm":0.41,"trackKm":0.61},"geometry":{"type":"Point","coordinates":[-122.9298,42.67218]}},{"type":"Feature","properties":{"observedAt":"2026-07-17T21:57:00Z","satellite":"N21","instrument":"VIIRS","confidence":"n","frpMw":4.1,"brightnessI4K":331.77,"brightnessI5K":299.77,"dayNight":"D","scanKm":0.41,"trackKm":0.61},"geometry":{"type":"Point","coordinates":[-122.93255,42.67652]}},{"type":"Feature","properties":{"observedAt":"2026-07-17T21:57:00Z","satellite":"N21","instrument":"VIIRS","confidence":"h","frpMw":11.88,"brightnessI4K":367.0,"brightnessI5K":304.57,"dayNight":"D","scanKm":0.41,"trackKm":0.61},"geometry":{"type":"Point","coordinates":[-122.9282,42.67669]}},{"type":"Feature","properties":{"observedAt":"2026-07-17T21:57:00Z","satellite":"N21","instrument":"VIIRS","confidence":"n","frpMw":11.88,"brightnessI4K":342.63,"brightnessI5K":300.67,"dayNight":"D","scanKm":0.41,"trackKm":0.61},"geometry":{"type":"Point","coordinates":[-122.924,42.67685]}}]}
