{"type":"FeatureCollection","features":[{"type":"Feature","properties":{"observedAt":"2026-07-17T20:17:00Z","satellite":"N21","instrument":"VIIRS","confidence":"n","frpMw":8.18,"brightnessI4K":348.75,"brightnessI5K":297.37,"dayNight":"D","scanKm":0.35,"trackKm":0.57},"geometry":{"type":"Point","coordinates":[-122.90665,42.61154]}},{"type":"Feature","properties":{"observedAt":"2026-07-17T20:17:00Z","satellite":"N21","instrument":"VIIRS","confidence":"n","frpMw":8.18,"brightnessI4K":346.21,"brightnessI5K":298.7,"dayNight":"D","scanKm":0.35,"trackKm":0.57},"geometry":{"type":"Point","coordinates":[-122.90288,42.61256]}},{"type":"Feature","properties":{"observedAt":"2026-07-17T20:17:00Z","satellite":"N21","instrument":"VIIRS","confidence":"n","frpMw":6.84,"brightnessI4K":328.52,"brightnessI5K":298.24,"dayNight":"D","scanKm":0.35,"trackKm":0.57},"geometry":{"type":"Point","coordinates":[-122.8996,42.61345]}},{"type":"Feature","properties":{"observedAt":"2026-07-17T20:17:00Z","satellite":"N21","instrument":"VIIRS","confidence":"h","frpMw":8.18,"brightnessI4K":367.0,"brightnessI5K":300.61,"dayNight":"D","scanKm":0.35,"trackKm":0.57},"geometry":{"type":"Point","coordinates":[-122.90876,42.61655]}},{"type":"Feature","properties":{"observedAt":"2026-07-17T20:17:00Z","satellite":"N21","instrument":"VIIRS","confidence":"n","frpMw":4.4,"brightnessI4K":344.48,"brightnessI5K":303.42,"dayNight":"D","scanKm":0.35,"trackKm":0.57},"geometry":{"type":"Point","coordinates":[-122.89756,42.62516]}},{"type":"Feature","properties":{"observedAt":"2026-07-17T20:17:00Z","satellite":"N21","instrument":"VIIRS","confidence":"n","frpMw":4.78,"brightnessI4K":331.83,"brightnessI5K":300.02,"dayNight":"D","scanKm":0.35,"trackKm":0.57},"geometry":{"type":"Point","coordinates":[-122.92241,42.62963]}},{"type":"Feature","properties":{"observedAt":"2026-07-17T20:17:00Z","satellite":"N21","instrument":"VIIRS","confidence":"l","frpMw":2.74,"brightnessI4K":326.65,"brightnessI5K":297.72,"dayNight":"D","scanKm":0.35,"trackKm":0.57},"geometry":{"type":"Point","coordinates":[-122.92498,42.6309]}},{"type":"Feature","properties":{"observedAt":"2026-07-17T20:17:00Z","satellite":"N21","instrument":"VIIRS","confidence":"n","frpMw":4.4,"brightnessI4K":327.79,"brightnessI5K":297.66,"dayNight":"D","scanKm":0.35,"trackKm":0.57},"geometry":{"type":"Point","coordinates":[-122.896,42.63117]}},{"type":"Feature","properties":{"observedAt":"2026-07-17T20:17:00Z","satellite":"N21","instrument":"VIIRS","confidence":"n","frpMw":7.28,"brightnessI4K":343.27,"brightnessI5K":299.28,"dayNight":"D","scanKm":0.36,"trackKm":0.57},"geometry":{"type":"Point","coordinates":[-123.03311,42.64042]}},{"type":"Feature","properties":{"observedAt":"2026-07-17T20:17:00Z","satellite":"N21","instrument":"VIIRS","confidence":"n","frpMw":3.16,"brightnessI4K":328.97,"brightnessI5K":295.37,"dayNight":"D","scanKm":0.35,"trackKm":0.57},"geometry":{"type":"Point","coordinates":[-122.89825,42.64172]}},{"type":"Feature","properties":{"observedAt":"2026-07-17T20:17:00Z","satellite":"N21","instrument":"VIIRS","confidence":"n","frpMw":12.56,"brightnessI4K":334.97,"brightnessI5K":297.22,"dayNight":"D","scanKm":0.36,"trackKm":0.57},"geometry":{"type":"Point","coordinates":[-123.02213,42.64345]}},{"type":"Feature","properties":{"observedAt":"2026-07-17T20:17:00Z","satellite":"N21","instrument":"VIIRS","confidence":"n","frpMw":10.23,"brightnessI4K":345.95,"brightnessI5K":296.95,"dayNight":"D","scanKm":0.36,"trackKm":0.57},"geometry":{"type":"Point","coordinates":[-123.01676,42.64493]}},{"type":"Feature","properties":{"observedAt":"2026-07-17T20:51:00Z","satellite":"N","instrument":"VIIRS","confidence":"n","frpMw":5.88,"brightnessI4K":336.06,"brightnessI5K":301.7,"dayNight":"D","scanKm":0.52,"trackKm":0.41},"geometry":{"type":"Point","coordinates":[-122.91615,42.62243]}},{"type":"Feature","properties":{"observedAt":"2026-07-17T20:51:00Z","satellite":"N","instrument":"VIIRS","confidence":"n","frpMw":7.42,"brightnessI4K":338.31,"brightnessI5K":303.23,"dayNight":"D","scanKm":0.52,"trackKm":0.41},"geometry":{"type":"Point","coordinates":[-122.91788,42.62608]}},{"type":"Feature","properties":{"observedAt":"2026-07-17T20:51:00Z","satellite":"N","instrument":"VIIRS","confidence":"n","frpMw":7.42,"brightnessI4K":338.48,"brightnessI5K":306.31,"dayNight":"D","scanKm":0.52,"trackKm":0.41},"geometry":{"type":"Point","coordinates":[-122.91949,42.62976]}},{"type":"Feature","properties":{"observedAt":"2026-07-17T20:51:00Z","satellite":"N","instrument":"VIIRS","confidence":"n","frpMw":12.69,"brightnessI4K":346.55,"brightnessI5K":301.62,"dayNight":"D","scanKm":0.52,"trackKm":0.41},"geometry":{"type":"Point","coordinates":[-122.92785,42.63205]}},{"type":"Feature","properties":{"observedAt":"2026-07-17T20:51:00Z","satellite":"N","instrument":"VIIRS","confidence":"n","frpMw":7.37,"brightnessI4K":331.95,"brightnessI5K":299.83,"dayNight":"D","scanKm":0.52,"trackKm":0.42},"geometry":{"type":"Point","coordinates":[-123.02395,42.63416]}},{"type":"Feature","properties":{"observedAt":"2026-07-17T20:51:00Z","satellite":"N","instrument":"VIIRS","confidence":"n","frpMw":11.3,"brightnessI4K":344.11,"brightnessI5K":299.55,"dayNight":"D","scanKm":0.52,"trackKm":0.42},"geometry":{"type":"Point","coordinates":[-123.02306,42.6366]}},{"type":"Feature","properties":{"observedAt":"2026-07-17T20:51:00Z","satellite":"N","instrument":"VIIRS","confidence":"n","frpMw":7.37,"brightnessI4K":346.28,"brightnessI5K":299.82,"dayNight":"D","scanKm":0.52,"trackKm":0.42},"geometry":{"type":"Point","coordinates":[-123.02556,42.63785]}},{"type":"Feature","properties":{"observedAt":"2026-07-17T20:51:00Z","satellite":"N","instrument":"VIIRS","confidence":"n","frpMw":11.3,"brightnessI4K":338.04,"brightnessI5K":298.47,"dayNight":"D","scanKm":0.52,"trackKm":0.42},"geometry":{"type":"Point","coordinates":[-123.01595,42.63805]}},{"type":"Feature","properties":{"observedAt":"2026-07-17T20:51:00Z","satellite":"N","instrument":"VIIRS","confidence":"n","frpMw":13.15,"brightnessI4K":353.6,"brightnessI5K":306.3,"dayNight":"D","scanKm":0.52,"trackKm":0.42},"geometry":{"type":"Point","coordinates":[-123.03133,42.63894]}},{"type":"Feature","properties":{"observedAt":"2026-07-17T20:51:00Z","satellite":"N","instrument":"VIIRS","confidence":"n","frpMw":21.26,"brightnessI4K":339.14,"brightnessI5K":300.5,"dayNight":"D","scanKm":0.52,"trackKm":0.42},"geometry":{"type":"Point","coordinates":[-123.01852,42.63933]}},{"type":"Feature","properties":{"observedAt":"2026-07-17T20:51:00Z","satellite":"N","instrument":"VIIRS","confidence":"n","frpMw":9.26,"brightnessI4K":348.56,"brightnessI5K":304.51,"dayNight":"D","scanKm":0.52,"trackKm":0.42},"geometry":{"type":"Point","coordinates":[-123.0337,42.64016]}},{"type":"Feature","properties":{"observedAt":"2026-07-17T20:51:00Z","satellite":"N","instrument":"VIIRS","confidence":"n","frpMw":11.3,"brightnessI4K":337.15,"brightnessI5K":299.92,"dayNight":"D","scanKm":0.52,"trackKm":0.42},"geometry":{"type":"Point","coordinates":[-123.0244,42.64035]}},{"type":"Feature","properties":{"observedAt":"2026-07-17T20:51:00Z","satellite":"N","instrument":"VIIRS","confidence":"n","frpMw":9.26,"brightnessI4K":340.14,"brightnessI5K":300.43,"dayNight":"D","scanKm":0.52,"trackKm":0.42},"geometry":{"type":"Point","coordinates":[-123.02682,42.64161]}},{"type":"Feature","properties":{"observedAt":"2026-07-17T20:51:00Z","satellite":"N","instrument":"VIIRS","confidence":"n","frpMw":11.3,"brightnessI4K":354.45,"brightnessI5K":306.38,"dayNight":"D","scanKm":0.52,"trackKm":0.42},"geometry":{"type":"Point","coordinates":[-123.01733,42.64179]}},{"type":"Feature","properties":{"observedAt":"2026-07-17T20:51:00Z","satellite":"N","instrument":"VIIRS","confidence":"n","frpMw":7.41,"brightnessI4K":337.71,"brightnessI5K":297.38,"dayNight":"D","scanKm":0.52,"trackKm":0.41},"geometry":{"type":"Point","coordinates":[-122.89682,42.6424]}},{"type":"Feature","properties":{"observedAt":"2026-07-17T20:51:00Z","satellite":"N","instrument":"VIIRS","confidence":"n","frpMw":14.53,"brightnessI4K":356.02,"brightnessI5K":303.59,"dayNight":"D","scanKm":0.52,"trackKm":0.42},"geometry":{"type":"Point","coordinates":[-123.01977,42.64309]}},{"type":"Feature","properties":{"observedAt":"2026-07-17T20:51:00Z","satellite":"N","instrument":"VIIRS","confidence":"n","frpMw":11.86,"brightnessI4K":341.98,"brightnessI5K":299.58,"dayNight":"D","scanKm":0.52,"trackKm":0.42},"geometry":{"type":"Point","coordinates":[-123.01044,42.64319]}},{"type":"Feature","properties":{"observedAt":"2026-07-17T20:51:00Z","satellite":"N","instrument":"VIIRS","confidence":"n","frpMw":14.53,"brightnessI4K":345.8,"brightnessI5K":299.18,"dayNight":"D","scanKm":0.52,"trackKm":0.42},"geometry":{"type":"Point","coordinates":[-123.01295,42.64453]}},{"type":"Feature","properties":{"observedAt":"2026-07-17T20:51:00Z","satellite":"N","instrument":"VIIRS","confidence":"n","frpMw":9.26,"brightnessI4K":354.98,"brightnessI5K":301.72,"dayNight":"D","scanKm":0.52,"trackKm":0.42},"geometry":{"type":"Point","coordinates":[-123.02817,42.64536]}}]}
