{"type":"FeatureCollection","features":[{"type":"Feature","properties":{"observedAt":"2026-07-16T20:36:00Z","satellite":"N21","instrument":"VIIRS","confidence":"l","frpMw":2.76,"brightnessI4K":328.83,"brightnessI5K":300.93,"dayNight":"D","scanKm":0.42,"trackKm":0.45},"geometry":{"type":"Point","coordinates":[-123.00172,42.59203]}},{"type":"Feature","properties":{"observedAt":"2026-07-16T20:36:00Z","satellite":"N21","instrument":"VIIRS","confidence":"n","frpMw":2.76,"brightnessI4K":339.29,"brightnessI5K":301.95,"dayNight":"D","scanKm":0.42,"trackKm":0.45},"geometry":{"type":"Point","coordinates":[-123.00375,42.59596]}},{"type":"Feature","properties":{"observedAt":"2026-07-16T20:36:00Z","satellite":"N21","instrument":"VIIRS","confidence":"n","frpMw":11.36,"brightnessI4K":350.22,"brightnessI5K":307.15,"dayNight":"D","scanKm":0.42,"trackKm":0.46},"geometry":{"type":"Point","coordinates":[-123.02981,42.60765]}},{"type":"Feature","properties":{"observedAt":"2026-07-16T20:36:00Z","satellite":"N21","instrument":"VIIRS","confidence":"n","frpMw":4.11,"brightnessI4K":338.36,"brightnessI5K":302.83,"dayNight":"D","scanKm":0.42,"trackKm":0.46},"geometry":{"type":"Point","coordinates":[-123.03093,42.61179]}},{"type":"Feature","properties":{"observedAt":"2026-07-16T20:36:00Z","satellite":"N21","instrument":"VIIRS","confidence":"l","frpMw":4.11,"brightnessI4K":325.95,"brightnessI5K":298.72,"dayNight":"D","scanKm":0.42,"trackKm":0.46},"geometry":{"type":"Point","coordinates":[-123.03249,42.61582]}},{"type":"Feature","properties":{"observedAt":"2026-07-16T20:36:00Z","satellite":"N21","instrument":"VIIRS","confidence":"n","frpMw":35.67,"brightnessI4K":343.79,"brightnessI5K":308.99,"dayNight":"D","scanKm":0.42,"trackKm":0.45},"geometry":{"type":"Point","coordinates":[-122.90197,42.61876]}},{"type":"Feature","properties":{"observedAt":"2026-07-16T20:36:00Z","satellite":"N21","instrument":"VIIRS","confidence":"n","frpMw":5.09,"brightnessI4K":332.74,"brightnessI5K":297.74,"dayNight":"D","scanKm":0.42,"trackKm":0.46},"geometry":{"type":"Point","coordinates":[-123.03422,42.61982]}},{"type":"Feature","properties":{"observedAt":"2026-07-16T20:36:00Z","satellite":"N21","instrument":"VIIRS","confidence":"n","frpMw":65.3,"brightnessI4K":334.54,"brightnessI5K":304.17,"dayNight":"D","scanKm":0.42,"trackKm":0.45},"geometry":{"type":"Point","coordinates":[-122.91287,42.62068]}},{"type":"Feature","properties":{"observedAt":"2026-07-16T20:36:00Z","satellite":"N21","instrument":"VIIRS","confidence":"n","frpMw":65.3,"brightnessI4K":348.83,"brightnessI5K":303.62,"dayNight":"D","scanKm":0.42,"trackKm":0.45},"geometry":{"type":"Point","coordinates":[-122.90804,42.62177]}},{"type":"Feature","properties":{"observedAt":"2026-07-16T20:36:00Z","satellite":"N21","instrument":"VIIRS","confidence":"n","frpMw":13.51,"brightnessI4K":344.56,"brightnessI5K":297.34,"dayNight":"D","scanKm":0.42,"trackKm":0.45},"geometry":{"type":"Point","coordinates":[-122.90361,42.62275]}},{"type":"Feature","properties":{"observedAt":"2026-07-16T20:36:00Z","satellite":"N21","instrument":"VIIRS","confidence":"n","frpMw":13.51,"brightnessI4K":340.89,"brightnessI5K":305.89,"dayNight":"D","scanKm":0.42,"trackKm":0.45},"geometry":{"type":"Point","coordinates":[-122.89942,42.62369]}},{"type":"Feature","properties":{"observedAt":"2026-07-16T20:36:00Z","satellite":"N21","instrument":"VIIRS","confidence":"l","frpMw":65.3,"brightnessI4K":313.63,"brightnessI5K":322.12,"dayNight":"D","scanKm":0.42,"trackKm":0.45},"geometry":{"type":"Point","coordinates":[-122.91494,42.62458]}},{"type":"Feature","properties":{"observedAt":"2026-07-16T20:36:00Z","satellite":"N21","instrument":"VIIRS","confidence":"n","frpMw":65.3,"brightnessI4K":349.9,"brightnessI5K":319.13,"dayNight":"D","scanKm":0.42,"trackKm":0.45},"geometry":{"type":"Point","coordinates":[-122.90999,42.62568]}},{"type":"Feature","properties":{"observedAt":"2026-07-16T20:36:00Z","satellite":"N21","instrument":"VIIRS","confidence":"n","frpMw":13.51,"brightnessI4K":354.87,"brightnessI5K":298.14,"dayNight":"D","scanKm":0.42,"trackKm":0.45},"geometry":{"type":"Point","coordinates":[-122.90118,42.62764]}},{"type":"Feature","properties":{"observedAt":"2026-07-16T20:36:00Z","satellite":"N21","instrument":"VIIRS","confidence":"n","frpMw":4.89,"brightnessI4K":333.73,"brightnessI5K":297.2,"dayNight":"D","scanKm":0.42,"trackKm":0.45},"geometry":{"type":"Point","coordinates":[-123.02853,42.62803]}},{"type":"Feature","properties":{"observedAt":"2026-07-16T20:36:00Z","satellite":"N21","instrument":"VIIRS","confidence":"l","frpMw":90.85,"brightnessI4K":367.0,"brightnessI5K":329.67,"dayNight":"D","scanKm":0.42,"trackKm":0.45},"geometry":{"type":"Point","coordinates":[-122.91702,42.62848]}},{"type":"Feature","properties":{"observedAt":"2026-07-16T20:36:00Z","satellite":"N21","instrument":"VIIRS","confidence":"n","frpMw":6.75,"brightnessI4K":339.01,"brightnessI5K":297.85,"dayNight":"D","scanKm":0.42,"trackKm":0.45},"geometry":{"type":"Point","coordinates":[-122.8967,42.62864]}},{"type":"Feature","properties":{"observedAt":"2026-07-16T20:36:00Z","satellite":"N21","instrument":"VIIRS","confidence":"n","frpMw":90.85,"brightnessI4K":348.1,"brightnessI5K":316.8,"dayNight":"D","scanKm":0.42,"trackKm":0.45},"geometry":{"type":"Point","coordinates":[-122.91189,42.62961]}},{"type":"Feature","properties":{"observedAt":"2026-07-16T20:36:00Z","satellite":"N21","instrument":"VIIRS","confidence":"n","frpMw":24.38,"brightnessI4K":332.65,"brightnessI5K":297.15,"dayNight":"D","scanKm":0.42,"trackKm":0.45},"geometry":{"type":"Point","coordinates":[-122.92438,42.63119]}},{"type":"Feature","properties":{"observedAt":"2026-07-16T20:36:00Z","satellite":"N21","instrument":"VIIRS","confidence":"n","frpMw":90.85,"brightnessI4K":349.39,"brightnessI5K":318.06,"dayNight":"D","scanKm":0.42,"trackKm":0.45},"geometry":{"type":"Point","coordinates":[-122.91883,42.63243]}},{"type":"Feature","properties":{"observedAt":"2026-07-16T20:36:00Z","satellite":"N21","instrument":"VIIRS","confidence":"n","frpMw":43.57,"brightnessI4K":344.71,"brightnessI5K":306.09,"dayNight":"D","scanKm":0.42,"trackKm":0.45},"geometry":{"type":"Point","coordinates":[-122.8979,42.63273]}},{"type":"Feature","properties":{"observedAt":"2026-07-16T20:36:00Z","satellite":"N21","instrument":"VIIRS","confidence":"n","frpMw":5.61,"brightnessI4K":334.66,"brightnessI5K":296.37,"dayNight":"D","scanKm":0.42,"trackKm":0.45},"geometry":{"type":"Point","coordinates":[-123.01472,42.63292]}},{"type":"Feature","properties":{"observedAt":"2026-07-16T20:36:00Z","satellite":"N21","instrument":"VIIRS","confidence":"n","frpMw":9.65,"brightnessI4K":342.32,"brightnessI5K":298.73,"dayNight":"D","scanKm":0.42,"trackKm":0.45},"geometry":{"type":"Point","coordinates":[-123.01892,42.63463]}},{"type":"Feature","properties":{"observedAt":"2026-07-16T20:36:00Z","satellite":"N21","instrument":"VIIRS","confidence":"n","frpMw":3.35,"brightnessI4K":337.79,"brightnessI5K":298.86,"dayNight":"D","scanKm":0.42,"trackKm":0.45},"geometry":{"type":"Point","coordinates":[-122.92635,42.63511]}},{"type":"Feature","properties":{"observedAt":"2026-07-16T20:36:00Z","satellite":"N21","instrument":"VIIRS","confidence":"n","frpMw":11.28,"brightnessI4K":350.02,"brightnessI5K":297.36,"dayNight":"D","scanKm":0.42,"trackKm":0.45},"geometry":{"type":"Point","coordinates":[-123.01308,42.63597]}},{"type":"Feature","properties":{"observedAt":"2026-07-16T20:36:00Z","satellite":"N21","instrument":"VIIRS","confidence":"n","frpMw":5.61,"brightnessI4K":340.2,"brightnessI5K":296.94,"dayNight":"D","scanKm":0.42,"trackKm":0.45},"geometry":{"type":"Point","coordinates":[-123.01725,42.63673]}},{"type":"Feature","properties":{"observedAt":"2026-07-16T20:36:00Z","satellite":"N21","instrument":"VIIRS","confidence":"n","frpMw":5.61,"brightnessI4K":336.98,"brightnessI5K":296.81,"dayNight":"D","scanKm":0.42,"trackKm":0.45},"geometry":{"type":"Point","coordinates":[-123.01144,42.63802]}},{"type":"Feature","properties":{"observedAt":"2026-07-16T20:36:00Z","satellite":"N21","instrument":"VIIRS","confidence":"n","frpMw":3.35,"brightnessI4K":330.51,"brightnessI5K":299.69,"dayNight":"D","scanKm":0.42,"trackKm":0.45},"geometry":{"type":"Point","coordinates":[-122.9282,42.63905]}},{"type":"Feature","properties":{"observedAt":"2026-07-16T20:36:00Z","satellite":"N21","instrument":"VIIRS","confidence":"n","frpMw":3.6,"brightnessI4K":336.42,"brightnessI5K":295.79,"dayNight":"D","scanKm":0.42,"trackKm":0.45},"geometry":{"type":"Point","coordinates":[-123.00933,42.64121]}},{"type":"Feature","properties":{"observedAt":"2026-07-16T20:36:00Z","satellite":"N21","instrument":"VIIRS","confidence":"n","frpMw":3.27,"brightnessI4K":328.08,"brightnessI5K":297.53,"dayNight":"D","scanKm":0.42,"trackKm":0.45},"geometry":{"type":"Point","coordinates":[-122.93517,42.64186]}},{"type":"Feature","properties":{"observedAt":"2026-07-16T20:36:00Z","satellite":"N21","instrument":"VIIRS","confidence":"n","frpMw":3.27,"brightnessI4K":328.91,"brightnessI5K":298.73,"dayNight":"D","scanKm":0.42,"trackKm":0.45},"geometry":{"type":"Point","coordinates":[-122.92979,42.64305]}},{"type":"Feature","properties":{"observedAt":"2026-07-16T20:36:00Z","satellite":"N21","instrument":"VIIRS","confidence":"n","frpMw":12.34,"brightnessI4K":344.98,"brightnessI5K":302.66,"dayNight":"D","scanKm":0.42,"trackKm":0.45},"geometry":{"type":"Point","coordinates":[-122.84972,42.64344]}},{"type":"Feature","properties":{"observedAt":"2026-07-16T20:36:00Z","satellite":"N21","instrument":"VIIRS","confidence":"n","frpMw":12.34,"brightnessI4K":351.17,"brightnessI5K":299.62,"dayNight":"D","scanKm":0.42,"trackKm":0.45},"geometry":{"type":"Point","coordinates":[-122.85132,42.64743]}},{"type":"Feature","properties":{"observedAt":"2026-07-16T20:36:00Z","satellite":"N21","instrument":"VIIRS","confidence":"n","frpMw":5.22,"brightnessI4K":331.94,"brightnessI5K":296.06,"dayNight":"D","scanKm":0.42,"trackKm":0.45},"geometry":{"type":"Point","coordinates":[-122.98552,42.65102]}},{"type":"Feature","properties":{"observedAt":"2026-07-16T20:36:00Z","satellite":"N21","instrument":"VIIRS","confidence":"l","frpMw":2.82,"brightnessI4K":328.11,"brightnessI5K":299.31,"dayNight":"D","scanKm":0.42,"trackKm":0.45},"geometry":{"type":"Point","coordinates":[-122.99172,42.65398]}},{"type":"Feature","properties":{"observedAt":"2026-07-16T20:36:00Z","satellite":"N21","instrument":"VIIRS","confidence":"n","frpMw":8.37,"brightnessI4K":342.6,"brightnessI5K":299.75,"dayNight":"D","scanKm":0.42,"trackKm":0.45},"geometry":{"type":"Point","coordinates":[-122.93533,42.66239]}},{"type":"Feature","properties":{"observedAt":"2026-07-16T20:36:00Z","satellite":"N21","instrument":"VIIRS","confidence":"l","frpMw":4.78,"brightnessI4K":327.41,"brightnessI5K":297.55,"dayNight":"D","scanKm":0.42,"trackKm":0.45},"geometry":{"type":"Point","coordinates":[-122.90622,42.66465]}},{"type":"Feature","properties":{"observedAt":"2026-07-16T20:36:00Z","satellite":"N21","instrument":"VIIRS","confidence":"n","frpMw":4.91,"brightnessI4K":342.0,"brightnessI5K":299.96,"dayNight":"D","scanKm":0.42,"trackKm":0.45},"geometry":{"type":"Point","coordinates":[-122.92751,42.67289]}},{"type":"Feature","properties":{"observedAt":"2026-07-16T20:36:00Z","satellite":"N21","instrument":"VIIRS","confidence":"l","frpMw":6.68,"brightnessI4K":328.46,"brightnessI5K":298.47,"dayNight":"D","scanKm":0.42,"trackKm":0.45},"geometry":{"type":"Point","coordinates":[-122.9221,42.67412]}},{"type":"Feature","properties":{"observedAt":"2026-07-16T20:36:00Z","satellite":"N21","instrument":"VIIRS","confidence":"n","frpMw":4.47,"brightnessI4K":335.24,"brightnessI5K":296.78,"dayNight":"D","scanKm":0.42,"trackKm":0.45},"geometry":{"type":"Point","coordinates":[-122.95552,42.67527]}},{"type":"Feature","properties":{"observedAt":"2026-07-16T20:36:00Z","satellite":"N21","instrument":"VIIRS","confidence":"n","frpMw":4.85,"brightnessI4K":338.74,"brightnessI5K":298.68,"dayNight":"D","scanKm":0.42,"trackKm":0.45},"geometry":{"type":"Point","coordinates":[-122.92925,42.67685]}}]}
