{"type":"FeatureCollection","features":[{"type":"Feature","properties":{"observedAt":"2026-07-18T09:28:00Z","satellite":"N20","instrument":"VIIRS","confidence":"n","frpMw":1.04,"brightnessI4K":307.97,"brightnessI5K":288.31,"dayNight":"N","scanKm":0.33,"trackKm":0.55},"geometry":{"type":"Point","coordinates":[-122.90343,42.61097]}},{"type":"Feature","properties":{"observedAt":"2026-07-18T09:28:00Z","satellite":"N20","instrument":"VIIRS","confidence":"n","frpMw":1.35,"brightnessI4K":300.37,"brightnessI5K":288.69,"dayNight":"N","scanKm":0.33,"trackKm":0.55},"geometry":{"type":"Point","coordinates":[-122.90667,42.6163]}},{"type":"Feature","properties":{"observedAt":"2026-07-18T09:28:00Z","satellite":"N20","instrument":"VIIRS","confidence":"n","frpMw":1.06,"brightnessI4K":299.5,"brightnessI5K":288.68,"dayNight":"N","scanKm":0.33,"trackKm":0.55},"geometry":{"type":"Point","coordinates":[-122.92113,42.61712]}},{"type":"Feature","properties":{"observedAt":"2026-07-18T09:28:00Z","satellite":"N20","instrument":"VIIRS","confidence":"n","frpMw":1.06,"brightnessI4K":311.79,"brightnessI5K":290.65,"dayNight":"N","scanKm":0.33,"trackKm":0.55},"geometry":{"type":"Point","coordinates":[-122.91982,42.6222]}},{"type":"Feature","properties":{"observedAt":"2026-07-18T09:28:00Z","satellite":"N20","instrument":"VIIRS","confidence":"n","frpMw":0.76,"brightnessI4K":300.63,"brightnessI5K":288.71,"dayNight":"N","scanKm":0.33,"trackKm":0.55},"geometry":{"type":"Point","coordinates":[-122.89964,42.62619]}},{"type":"Feature","properties":{"observedAt":"2026-07-18T09:28:00Z","satellite":"N20","instrument":"VIIRS","confidence":"n","frpMw":1.18,"brightnessI4K":304.47,"brightnessI5K":288.57,"dayNight":"N","scanKm":0.33,"trackKm":0.55},"geometry":{"type":"Point","coordinates":[-122.92464,42.62764]}},{"type":"Feature","properties":{"observedAt":"2026-07-18T09:28:00Z","satellite":"N20","instrument":"VIIRS","confidence":"n","frpMw":1.08,"brightnessI4K":299.99,"brightnessI5K":288.96,"dayNight":"N","scanKm":0.33,"trackKm":0.55},"geometry":{"type":"Point","coordinates":[-122.92939,42.63306]}},{"type":"Feature","properties":{"observedAt":"2026-07-18T09:28:00Z","satellite":"N20","instrument":"VIIRS","confidence":"n","frpMw":1.47,"brightnessI4K":305.68,"brightnessI5K":289.63,"dayNight":"N","scanKm":0.34,"trackKm":0.56},"geometry":{"type":"Point","coordinates":[-123.02322,42.63845]}},{"type":"Feature","properties":{"observedAt":"2026-07-18T09:28:00Z","satellite":"N20","instrument":"VIIRS","confidence":"n","frpMw":1.09,"brightnessI4K":303.52,"brightnessI5K":288.26,"dayNight":"N","scanKm":0.34,"trackKm":0.56},"geometry":{"type":"Point","coordinates":[-123.02843,42.63874]}},{"type":"Feature","properties":{"observedAt":"2026-07-18T09:28:00Z","satellite":"N20","instrument":"VIIRS","confidence":"n","frpMw":0.87,"brightnessI4K":301.01,"brightnessI5K":289.0,"dayNight":"N","scanKm":0.33,"trackKm":0.55},"geometry":{"type":"Point","coordinates":[-122.89201,42.6412]}},{"type":"Feature","properties":{"observedAt":"2026-07-18T09:28:00Z","satellite":"N20","instrument":"VIIRS","confidence":"n","frpMw":0.87,"brightnessI4K":301.94,"brightnessI5K":289.15,"dayNight":"N","scanKm":0.33,"trackKm":0.55},"geometry":{"type":"Point","coordinates":[-122.89588,42.64143]}},{"type":"Feature","properties":{"observedAt":"2026-07-18T09:28:00Z","satellite":"N20","instrument":"VIIRS","confidence":"n","frpMw":1.04,"brightnessI4K":307.42,"brightnessI5K":289.46,"dayNight":"N","scanKm":0.33,"trackKm":0.55},"geometry":{"type":"Point","coordinates":[-122.89976,42.64165]}},{"type":"Feature","properties":{"observedAt":"2026-07-18T09:28:00Z","satellite":"N20","instrument":"VIIRS","confidence":"n","frpMw":0.82,"brightnessI4K":302.26,"brightnessI5K":289.43,"dayNight":"N","scanKm":0.34,"trackKm":0.56},"geometry":{"type":"Point","coordinates":[-123.01607,42.64322]}},{"type":"Feature","properties":{"observedAt":"2026-07-18T09:28:00Z","satellite":"N20","instrument":"VIIRS","confidence":"n","frpMw":0.82,"brightnessI4K":305.38,"brightnessI5K":289.4,"dayNight":"N","scanKm":0.34,"trackKm":0.56},"geometry":{"type":"Point","coordinates":[-123.02129,42.64352]}},{"type":"Feature","properties":{"observedAt":"2026-07-18T09:28:00Z","satellite":"N20","instrument":"VIIRS","confidence":"n","frpMw":1.11,"brightnessI4K":307.85,"brightnessI5K":289.85,"dayNight":"N","scanKm":0.34,"trackKm":0.56},"geometry":{"type":"Point","coordinates":[-123.02663,42.64383]}},{"type":"Feature","properties":{"observedAt":"2026-07-18T09:28:00Z","satellite":"N20","instrument":"VIIRS","confidence":"n","frpMw":1.11,"brightnessI4K":310.41,"brightnessI5K":289.3,"dayNight":"N","scanKm":0.34,"trackKm":0.56},"geometry":{"type":"Point","coordinates":[-123.03194,42.64413]}},{"type":"Feature","properties":{"observedAt":"2026-07-18T09:28:00Z","satellite":"N20","instrument":"VIIRS","confidence":"n","frpMw":0.95,"brightnessI4K":302.11,"brightnessI5K":288.53,"dayNight":"N","scanKm":0.34,"trackKm":0.56},"geometry":{"type":"Point","coordinates":[-122.98389,42.65172]}},{"type":"Feature","properties":{"observedAt":"2026-07-18T09:28:00Z","satellite":"N20","instrument":"VIIRS","confidence":"n","frpMw":0.96,"brightnessI4K":297.49,"brightnessI5K":286.32,"dayNight":"N","scanKm":0.34,"trackKm":0.56},"geometry":{"type":"Point","coordinates":[-122.99123,42.65215]}},{"type":"Feature","properties":{"observedAt":"2026-07-18T09:28:00Z","satellite":"N20","instrument":"VIIRS","confidence":"n","frpMw":0.36,"brightnessI4K":299.82,"brightnessI5K":287.4,"dayNight":"N","scanKm":0.33,"trackKm":0.56},"geometry":{"type":"Point","coordinates":[-122.92395,42.68138]}},{"type":"Feature","properties":{"observedAt":"2026-07-18T11:08:00Z","satellite":"N20","instrument":"VIIRS","confidence":"n","frpMw":2.0,"brightnessI4K":315.26,"brightnessI5K":288.85,"dayNight":"N","scanKm":0.43,"trackKm":0.62},"geometry":{"type":"Point","coordinates":[-122.91338,42.61736]}},{"type":"Feature","properties":{"observedAt":"2026-07-18T11:08:00Z","satellite":"N20","instrument":"VIIRS","confidence":"n","frpMw":1.72,"brightnessI4K":306.88,"brightnessI5K":288.67,"dayNight":"N","scanKm":0.43,"trackKm":0.62},"geometry":{"type":"Point","coordinates":[-122.90954,42.61817]}},{"type":"Feature","properties":{"observedAt":"2026-07-18T11:08:00Z","satellite":"N20","instrument":"VIIRS","confidence":"n","frpMw":2.0,"brightnessI4K":305.96,"brightnessI5K":289.07,"dayNight":"N","scanKm":0.43,"trackKm":0.62},"geometry":{"type":"Point","coordinates":[-122.91734,42.61853]}},{"type":"Feature","properties":{"observedAt":"2026-07-18T11:08:00Z","satellite":"N20","instrument":"VIIRS","confidence":"n","frpMw":1.72,"brightnessI4K":309.63,"brightnessI5K":288.37,"dayNight":"N","scanKm":0.43,"trackKm":0.62},"geometry":{"type":"Point","coordinates":[-122.91408,42.61948]}},{"type":"Feature","properties":{"observedAt":"2026-07-18T11:08:00Z","satellite":"N20","instrument":"VIIRS","confidence":"n","frpMw":3.48,"brightnessI4K":322.32,"brightnessI5K":289.22,"dayNight":"N","scanKm":0.43,"trackKm":0.62},"geometry":{"type":"Point","coordinates":[-122.92113,42.61966]}},{"type":"Feature","properties":{"observedAt":"2026-07-18T11:08:00Z","satellite":"N20","instrument":"VIIRS","confidence":"n","frpMw":2.49,"brightnessI4K":317.51,"brightnessI5K":290.15,"dayNight":"N","scanKm":0.43,"trackKm":0.62},"geometry":{"type":"Point","coordinates":[-122.91798,42.62062]}},{"type":"Feature","properties":{"observedAt":"2026-07-18T11:08:00Z","satellite":"N20","instrument":"VIIRS","confidence":"n","frpMw":2.49,"brightnessI4K":316.27,"brightnessI5K":288.76,"dayNight":"N","scanKm":0.43,"trackKm":0.62},"geometry":{"type":"Point","coordinates":[-122.92175,42.6217]}},{"type":"Feature","properties":{"observedAt":"2026-07-18T11:08:00Z","satellite":"N20","instrument":"VIIRS","confidence":"n","frpMw":1.1,"brightnessI4K":299.4,"brightnessI5K":287.76,"dayNight":"N","scanKm":0.42,"trackKm":0.61},"geometry":{"type":"Point","coordinates":[-122.92272,42.62623]}},{"type":"Feature","properties":{"observedAt":"2026-07-18T11:08:00Z","satellite":"N20","instrument":"VIIRS","confidence":"n","frpMw":2.65,"brightnessI4K":300.77,"brightnessI5K":287.96,"dayNight":"N","scanKm":0.43,"trackKm":0.62},"geometry":{"type":"Point","coordinates":[-122.92316,42.62822]}},{"type":"Feature","properties":{"observedAt":"2026-07-18T11:08:00Z","satellite":"N20","instrument":"VIIRS","confidence":"n","frpMw":1.16,"brightnessI4K":299.64,"brightnessI5K":286.69,"dayNight":"N","scanKm":0.42,"trackKm":0.61},"geometry":{"type":"Point","coordinates":[-122.93047,42.62852]}},{"type":"Feature","properties":{"observedAt":"2026-07-18T11:08:00Z","satellite":"N20","instrument":"VIIRS","confidence":"n","frpMw":1.31,"brightnessI4K":304.37,"brightnessI5K":287.25,"dayNight":"N","scanKm":0.42,"trackKm":0.61},"geometry":{"type":"Point","coordinates":[-122.93093,42.63046]}},{"type":"Feature","properties":{"observedAt":"2026-07-18T11:08:00Z","satellite":"N20","instrument":"VIIRS","confidence":"n","frpMw":1.16,"brightnessI4K":300.25,"brightnessI5K":288.25,"dayNight":"N","scanKm":0.42,"trackKm":0.61},"geometry":{"type":"Point","coordinates":[-122.92797,42.6339]}},{"type":"Feature","properties":{"observedAt":"2026-07-18T11:08:00Z","satellite":"N20","instrument":"VIIRS","confidence":"n","frpMw":1.32,"brightnessI4K":307.53,"brightnessI5K":287.32,"dayNight":"N","scanKm":0.42,"trackKm":0.61},"geometry":{"type":"Point","coordinates":[-122.93192,42.63506]}},{"type":"Feature","properties":{"observedAt":"2026-07-18T11:08:00Z","satellite":"N20","instrument":"VIIRS","confidence":"n","frpMw":1.14,"brightnessI4K":299.82,"brightnessI5K":288.58,"dayNight":"N","scanKm":0.42,"trackKm":0.61},"geometry":{"type":"Point","coordinates":[-123.022,42.63722]}},{"type":"Feature","properties":{"observedAt":"2026-07-18T11:08:00Z","satellite":"N20","instrument":"VIIRS","confidence":"n","frpMw":1.14,"brightnessI4K":304.63,"brightnessI5K":288.48,"dayNight":"N","scanKm":0.42,"trackKm":0.61},"geometry":{"type":"Point","coordinates":[-123.02592,42.63838]}},{"type":"Feature","properties":{"observedAt":"2026-07-18T11:08:00Z","satellite":"N20","instrument":"VIIRS","confidence":"n","frpMw":2.7,"brightnessI4K":304.8,"brightnessI5K":288.4,"dayNight":"N","scanKm":0.42,"trackKm":0.61},"geometry":{"type":"Point","coordinates":[-123.0229,42.63875]}},{"type":"Feature","properties":{"observedAt":"2026-07-18T11:08:00Z","satellite":"N20","instrument":"VIIRS","confidence":"n","frpMw":1.51,"brightnessI4K":304.93,"brightnessI5K":287.43,"dayNight":"N","scanKm":0.42,"trackKm":0.61},"geometry":{"type":"Point","coordinates":[-123.02997,42.63957]}},{"type":"Feature","properties":{"observedAt":"2026-07-18T11:08:00Z","satellite":"N20","instrument":"VIIRS","confidence":"n","frpMw":1.43,"brightnessI4K":307.22,"brightnessI5K":288.17,"dayNight":"N","scanKm":0.42,"trackKm":0.61},"geometry":{"type":"Point","coordinates":[-123.02692,42.63992]}},{"type":"Feature","properties":{"observedAt":"2026-07-18T11:08:00Z","satellite":"N20","instrument":"VIIRS","confidence":"n","frpMw":1.32,"brightnessI4K":298.61,"brightnessI5K":287.69,"dayNight":"N","scanKm":0.42,"trackKm":0.61},"geometry":{"type":"Point","coordinates":[-123.0126,42.64054]}},{"type":"Feature","properties":{"observedAt":"2026-07-18T11:08:00Z","satellite":"N20","instrument":"VIIRS","confidence":"n","frpMw":1.43,"brightnessI4K":304.02,"brightnessI5K":286.94,"dayNight":"N","scanKm":0.42,"trackKm":0.61},"geometry":{"type":"Point","coordinates":[-123.03102,42.6411]}},{"type":"Feature","properties":{"observedAt":"2026-07-18T11:08:00Z","satellite":"N20","instrument":"VIIRS","confidence":"n","frpMw":1.31,"brightnessI4K":298.9,"brightnessI5K":287.66,"dayNight":"N","scanKm":0.42,"trackKm":0.61},"geometry":{"type":"Point","coordinates":[-123.01351,42.64211]}},{"type":"Feature","properties":{"observedAt":"2026-07-18T11:08:00Z","satellite":"N20","instrument":"VIIRS","confidence":"n","frpMw":1.31,"brightnessI4K":299.55,"brightnessI5K":288.0,"dayNight":"N","scanKm":0.42,"trackKm":0.61},"geometry":{"type":"Point","coordinates":[-123.02057,42.64289]}},{"type":"Feature","properties":{"observedAt":"2026-07-18T11:08:00Z","satellite":"N20","instrument":"VIIRS","confidence":"n","frpMw":1.02,"brightnessI4K":302.33,"brightnessI5K":287.42,"dayNight":"N","scanKm":0.42,"trackKm":0.61},"geometry":{"type":"Point","coordinates":[-123.02836,42.64518]}},{"type":"Feature","properties":{"observedAt":"2026-07-18T11:08:00Z","satellite":"N20","instrument":"VIIRS","confidence":"n","frpMw":2.06,"brightnessI4K":323.92,"brightnessI5K":287.84,"dayNight":"N","scanKm":0.42,"trackKm":0.61},"geometry":{"type":"Point","coordinates":[-122.98761,42.65145]}},{"type":"Feature","properties":{"observedAt":"2026-07-18T11:08:00Z","satellite":"N20","instrument":"VIIRS","confidence":"n","frpMw":1.1,"brightnessI4K":298.36,"brightnessI5K":287.01,"dayNight":"N","scanKm":0.42,"trackKm":0.61},"geometry":{"type":"Point","coordinates":[-122.92858,42.67682]}},{"type":"Feature","properties":{"observedAt":"2026-07-18T11:08:00Z","satellite":"N20","instrument":"VIIRS","confidence":"n","frpMw":1.1,"brightnessI4K":316.76,"brightnessI5K":288.08,"dayNight":"N","scanKm":0.42,"trackKm":0.61},"geometry":{"type":"Point","coordinates":[-122.92213,42.68103]}},{"type":"Feature","properties":{"observedAt":"2026-07-18T11:08:00Z","satellite":"N20","instrument":"VIIRS","confidence":"n","frpMw":1.1,"brightnessI4K":299.69,"brightnessI5K":286.81,"dayNight":"N","scanKm":0.42,"trackKm":0.61},"geometry":{"type":"Point","coordinates":[-122.92678,42.68239]}},{"type":"Feature","properties":{"observedAt":"2026-07-18T10:13:00Z","satellite":"N21","instrument":"VIIRS","confidence":"n","frpMw":0.89,"brightnessI4K":299.08,"brightnessI5K":288.47,"dayNight":"N","scanKm":0.39,"trackKm":0.36},"geometry":{"type":"Point","coordinates":[-122.90221,42.60845]}},{"type":"Feature","properties":{"observedAt":"2026-07-18T10:13:00Z","satellite":"N21","instrument":"VIIRS","confidence":"n","frpMw":0.89,"brightnessI4K":313.84,"brightnessI5K":290.99,"dayNight":"N","scanKm":0.39,"trackKm":0.36},"geometry":{"type":"Point","coordinates":[-122.90117,42.61171]}},{"type":"Feature","properties":{"observedAt":"2026-07-18T10:13:00Z","satellite":"N21","instrument":"VIIRS","confidence":"n","frpMw":0.89,"brightnessI4K":302.99,"brightnessI5K":288.64,"dayNight":"N","scanKm":0.39,"trackKm":0.36},"geometry":{"type":"Point","coordinates":[-122.90589,42.61251]}},{"type":"Feature","properties":{"observedAt":"2026-07-18T10:13:00Z","satellite":"N21","instrument":"VIIRS","confidence":"n","frpMw":1.01,"brightnessI4K":299.82,"brightnessI5K":289.41,"dayNight":"N","scanKm":0.39,"trackKm":0.36},"geometry":{"type":"Point","coordinates":[-122.90013,42.61497]}},{"type":"Feature","properties":{"observedAt":"2026-07-18T10:13:00Z","satellite":"N21","instrument":"VIIRS","confidence":"n","frpMw":1.01,"brightnessI4K":303.43,"brightnessI5K":289.75,"dayNight":"N","scanKm":0.39,"trackKm":0.36},"geometry":{"type":"Point","coordinates":[-122.9049,42.61577]}},{"type":"Feature","properties":{"observedAt":"2026-07-18T10:13:00Z","satellite":"N21","instrument":"VIIRS","confidence":"n","frpMw":1.63,"brightnessI4K":308.83,"brightnessI5K":289.9,"dayNight":"N","scanKm":0.39,"trackKm":0.36},"geometry":{"type":"Point","coordinates":[-122.90957,42.61655]}},{"type":"Feature","properties":{"observedAt":"2026-07-18T10:13:00Z","satellite":"N21","instrument":"VIIRS","confidence":"n","frpMw":1.63,"brightnessI4K":336.48,"brightnessI5K":291.99,"dayNight":"N","scanKm":0.39,"trackKm":0.36},"geometry":{"type":"Point","coordinates":[-122.9142,42.61733]}},{"type":"Feature","properties":{"observedAt":"2026-07-18T10:13:00Z","satellite":"N21","instrument":"VIIRS","confidence":"n","frpMw":4.7,"brightnessI4K":345.92,"brightnessI5K":297.25,"dayNight":"N","scanKm":0.39,"trackKm":0.36},"geometry":{"type":"Point","coordinates":[-122.91875,42.61809]}},{"type":"Feature","properties":{"observedAt":"2026-07-18T10:13:00Z","satellite":"N21","instrument":"VIIRS","confidence":"n","frpMw":4.7,"brightnessI4K":300.71,"brightnessI5K":289.08,"dayNight":"N","scanKm":0.39,"trackKm":0.36},"geometry":{"type":"Point","coordinates":[-122.92331,42.61885]}},{"type":"Feature","properties":{"observedAt":"2026-07-18T10:13:00Z","satellite":"N21","instrument":"VIIRS","confidence":"n","frpMw":1.63,"brightnessI4K":299.57,"brightnessI5K":288.77,"dayNight":"N","scanKm":0.39,"trackKm":0.36},"geometry":{"type":"Point","coordinates":[-122.90857,42.61982]}},{"type":"Feature","properties":{"observedAt":"2026-07-18T10:13:00Z","satellite":"N21","instrument":"VIIRS","confidence":"n","frpMw":1.63,"brightnessI4K":300.62,"brightnessI5K":289.7,"dayNight":"N","scanKm":0.39,"trackKm":0.36},"geometry":{"type":"Point","coordinates":[-122.91323,42.6206]}},{"type":"Feature","properties":{"observedAt":"2026-07-18T10:13:00Z","satellite":"N21","instrument":"VIIRS","confidence":"n","frpMw":4.7,"brightnessI4K":310.65,"brightnessI5K":291.35,"dayNight":"N","scanKm":0.39,"trackKm":0.36},"geometry":{"type":"Point","coordinates":[-122.91779,42.62136]}},{"type":"Feature","properties":{"observedAt":"2026-07-18T10:13:00Z","satellite":"N21","instrument":"VIIRS","confidence":"n","frpMw":4.7,"brightnessI4K":332.07,"brightnessI5K":292.95,"dayNight":"N","scanKm":0.39,"trackKm":0.36},"geometry":{"type":"Point","coordinates":[-122.92234,42.62212]}},{"type":"Feature","properties":{"observedAt":"2026-07-18T10:13:00Z","satellite":"N21","instrument":"VIIRS","confidence":"n","frpMw":1.23,"brightnessI4K":301.11,"brightnessI5K":289.19,"dayNight":"N","scanKm":0.39,"trackKm":0.36},"geometry":{"type":"Point","coordinates":[-122.92136,42.62539]}},{"type":"Feature","properties":{"observedAt":"2026-07-18T10:13:00Z","satellite":"N21","instrument":"VIIRS","confidence":"n","frpMw":2.2,"brightnessI4K":303.42,"brightnessI5K":288.76,"dayNight":"N","scanKm":0.39,"trackKm":0.36},"geometry":{"type":"Point","coordinates":[-122.92592,42.62616]}},{"type":"Feature","properties":{"observedAt":"2026-07-18T10:13:00Z","satellite":"N21","instrument":"VIIRS","confidence":"n","frpMw":2.2,"brightnessI4K":307.35,"brightnessI5K":289.81,"dayNight":"N","scanKm":0.39,"trackKm":0.36},"geometry":{"type":"Point","coordinates":[-122.92493,42.62943]}},{"type":"Feature","properties":{"observedAt":"2026-07-18T10:13:00Z","satellite":"N21","instrument":"VIIRS","confidence":"n","frpMw":2.2,"brightnessI4K":340.99,"brightnessI5K":291.51,"dayNight":"N","scanKm":0.39,"trackKm":0.36},"geometry":{"type":"Point","coordinates":[-122.9295,42.63019]}},{"type":"Feature","properties":{"observedAt":"2026-07-18T10:13:00Z","satellite":"N21","instrument":"VIIRS","confidence":"n","frpMw":2.71,"brightnessI4K":312.63,"brightnessI5K":290.46,"dayNight":"N","scanKm":0.39,"trackKm":0.36},"geometry":{"type":"Point","coordinates":[-122.9285,42.63346]}},{"type":"Feature","properties":{"observedAt":"2026-07-18T10:13:00Z","satellite":"N21","instrument":"VIIRS","confidence":"n","frpMw":3.49,"brightnessI4K":327.24,"brightnessI5K":290.29,"dayNight":"N","scanKm":0.39,"trackKm":0.36},"geometry":{"type":"Point","coordinates":[-122.93309,42.63422]}},{"type":"Feature","properties":{"observedAt":"2026-07-18T10:13:00Z","satellite":"N21","instrument":"VIIRS","confidence":"n","frpMw":1.56,"brightnessI4K":312.35,"brightnessI5K":289.08,"dayNight":"N","scanKm":0.39,"trackKm":0.36},"geometry":{"type":"Point","coordinates":[-123.01657,42.63441]}},{"type":"Feature","properties":{"observedAt":"2026-07-18T10:13:00Z","satellite":"N21","instrument":"VIIRS","confidence":"n","frpMw":1.94,"brightnessI4K":314.71,"brightnessI5K":291.04,"dayNight":"N","scanKm":0.39,"trackKm":0.36},"geometry":{"type":"Point","coordinates":[-122.89404,42.63456]}},{"type":"Feature","properties":{"observedAt":"2026-07-18T10:13:00Z","satellite":"N21","instrument":"VIIRS","confidence":"n","frpMw":1.87,"brightnessI4K":301.63,"brightnessI5K":289.55,"dayNight":"N","scanKm":0.39,"trackKm":0.36},"geometry":{"type":"Point","coordinates":[-123.0211,42.63517]}},{"type":"Feature","properties":{"observedAt":"2026-07-18T10:13:00Z","satellite":"N21","instrument":"VIIRS","confidence":"n","frpMw":1.87,"brightnessI4K":309.48,"brightnessI5K":290.77,"dayNight":"N","scanKm":0.39,"trackKm":0.36},"geometry":{"type":"Point","coordinates":[-123.02563,42.63592]}},{"type":"Feature","properties":{"observedAt":"2026-07-18T10:13:00Z","satellite":"N21","instrument":"VIIRS","confidence":"n","frpMw":2.23,"brightnessI4K":301.21,"brightnessI5K":288.83,"dayNight":"N","scanKm":0.39,"trackKm":0.36},"geometry":{"type":"Point","coordinates":[-123.03022,42.63668]}},{"type":"Feature","properties":{"observedAt":"2026-07-18T10:13:00Z","satellite":"N21","instrument":"VIIRS","confidence":"n","frpMw":0.96,"brightnessI4K":302.68,"brightnessI5K":287.62,"dayNight":"N","scanKm":0.39,"trackKm":0.36},"geometry":{"type":"Point","coordinates":[-122.8884,42.63706]}},{"type":"Feature","properties":{"observedAt":"2026-07-18T10:13:00Z","satellite":"N21","instrument":"VIIRS","confidence":"n","frpMw":1.94,"brightnessI4K":315.46,"brightnessI5K":291.45,"dayNight":"N","scanKm":0.39,"trackKm":0.36},"geometry":{"type":"Point","coordinates":[-122.8931,42.63784]}},{"type":"Feature","properties":{"observedAt":"2026-07-18T10:13:00Z","satellite":"N21","instrument":"VIIRS","confidence":"n","frpMw":1.87,"brightnessI4K":322.95,"brightnessI5K":292.94,"dayNight":"N","scanKm":0.39,"trackKm":0.36},"geometry":{"type":"Point","coordinates":[-123.02011,42.63843]}},{"type":"Feature","properties":{"observedAt":"2026-07-18T10:13:00Z","satellite":"N21","instrument":"VIIRS","confidence":"n","frpMw":1.87,"brightnessI4K":328.35,"brightnessI5K":293.76,"dayNight":"N","scanKm":0.39,"trackKm":0.36},"geometry":{"type":"Point","coordinates":[-123.02468,42.63919]}},{"type":"Feature","properties":{"observedAt":"2026-07-18T10:13:00Z","satellite":"N21","instrument":"VIIRS","confidence":"n","frpMw":2.23,"brightnessI4K":334.49,"brightnessI5K":293.92,"dayNight":"N","scanKm":0.39,"trackKm":0.36},"geometry":{"type":"Point","coordinates":[-123.02926,42.63995]}},{"type":"Feature","properties":{"observedAt":"2026-07-18T10:13:00Z","satellite":"N21","instrument":"VIIRS","confidence":"n","frpMw":0.97,"brightnessI4K":303.53,"brightnessI5K":289.7,"dayNight":"N","scanKm":0.39,"trackKm":0.36},"geometry":{"type":"Point","coordinates":[-123.01003,42.64018]}},{"type":"Feature","properties":{"observedAt":"2026-07-18T10:13:00Z","satellite":"N21","instrument":"VIIRS","confidence":"n","frpMw":2.23,"brightnessI4K":312.95,"brightnessI5K":290.58,"dayNight":"N","scanKm":0.39,"trackKm":0.36},"geometry":{"type":"Point","coordinates":[-123.03385,42.64072]}},{"type":"Feature","properties":{"observedAt":"2026-07-18T10:13:00Z","satellite":"N21","instrument":"VIIRS","confidence":"n","frpMw":0.97,"brightnessI4K":311.46,"brightnessI5K":290.88,"dayNight":"N","scanKm":0.39,"trackKm":0.36},"geometry":{"type":"Point","coordinates":[-123.0146,42.64094]}},{"type":"Feature","properties":{"observedAt":"2026-07-18T10:13:00Z","satellite":"N21","instrument":"VIIRS","confidence":"n","frpMw":1.58,"brightnessI4K":312.33,"brightnessI5K":289.64,"dayNight":"N","scanKm":0.39,"trackKm":0.36},"geometry":{"type":"Point","coordinates":[-122.89218,42.64112]}},{"type":"Feature","properties":{"observedAt":"2026-07-18T10:13:00Z","satellite":"N21","instrument":"VIIRS","confidence":"n","frpMw":1.27,"brightnessI4K":313.97,"brightnessI5K":291.42,"dayNight":"N","scanKm":0.39,"trackKm":0.36},"geometry":{"type":"Point","coordinates":[-123.01918,42.6417]}},{"type":"Feature","properties":{"observedAt":"2026-07-18T10:13:00Z","satellite":"N21","instrument":"VIIRS","confidence":"n","frpMw":1.58,"brightnessI4K":320.12,"brightnessI5K":291.44,"dayNight":"N","scanKm":0.39,"trackKm":0.36},"geometry":{"type":"Point","coordinates":[-122.89687,42.6419]}},{"type":"Feature","properties":{"observedAt":"2026-07-18T10:13:00Z","satellite":"N21","instrument":"VIIRS","confidence":"n","frpMw":1.27,"brightnessI4K":306.19,"brightnessI5K":290.22,"dayNight":"N","scanKm":0.39,"trackKm":0.36},"geometry":{"type":"Point","coordinates":[-123.02376,42.64247]}},{"type":"Feature","properties":{"observedAt":"2026-07-18T10:13:00Z","satellite":"N21","instrument":"VIIRS","confidence":"n","frpMw":1.48,"brightnessI4K":304.78,"brightnessI5K":289.06,"dayNight":"N","scanKm":0.39,"trackKm":0.36},"geometry":{"type":"Point","coordinates":[-122.90157,42.64268]}},{"type":"Feature","properties":{"observedAt":"2026-07-18T10:13:00Z","satellite":"N21","instrument":"VIIRS","confidence":"n","frpMw":3.23,"brightnessI4K":341.02,"brightnessI5K":294.32,"dayNight":"N","scanKm":0.39,"trackKm":0.36},"geometry":{"type":"Point","coordinates":[-123.02833,42.64323]}},{"type":"Feature","properties":{"observedAt":"2026-07-18T10:13:00Z","satellite":"N21","instrument":"VIIRS","confidence":"n","frpMw":3.23,"brightnessI4K":306.22,"brightnessI5K":289.29,"dayNight":"N","scanKm":0.39,"trackKm":0.36},"geometry":{"type":"Point","coordinates":[-123.03291,42.64399]}},{"type":"Feature","properties":{"observedAt":"2026-07-18T10:13:00Z","satellite":"N21","instrument":"VIIRS","confidence":"n","frpMw":0.97,"brightnessI4K":302.7,"brightnessI5K":289.03,"dayNight":"N","scanKm":0.39,"trackKm":0.36},"geometry":{"type":"Point","coordinates":[-123.01365,42.64421]}},{"type":"Feature","properties":{"observedAt":"2026-07-18T10:13:00Z","satellite":"N21","instrument":"VIIRS","confidence":"n","frpMw":1.27,"brightnessI4K":300.4,"brightnessI5K":288.52,"dayNight":"N","scanKm":0.39,"trackKm":0.36},"geometry":{"type":"Point","coordinates":[-123.01823,42.64498]}},{"type":"Feature","properties":{"observedAt":"2026-07-18T10:13:00Z","satellite":"N21","instrument":"VIIRS","confidence":"n","frpMw":1.35,"brightnessI4K":315.04,"brightnessI5K":289.41,"dayNight":"N","scanKm":0.39,"trackKm":0.36},"geometry":{"type":"Point","coordinates":[-122.98761,42.65016]}},{"type":"Feature","properties":{"observedAt":"2026-07-18T10:13:00Z","satellite":"N21","instrument":"VIIRS","confidence":"n","frpMw":1.74,"brightnessI4K":305.94,"brightnessI5K":290.25,"dayNight":"N","scanKm":0.39,"trackKm":0.36},"geometry":{"type":"Point","coordinates":[-122.98183,42.65264]}},{"type":"Feature","properties":{"observedAt":"2026-07-18T10:13:00Z","satellite":"N21","instrument":"VIIRS","confidence":"n","frpMw":1.35,"brightnessI4K":310.66,"brightnessI5K":288.27,"dayNight":"N","scanKm":0.39,"trackKm":0.36},"geometry":{"type":"Point","coordinates":[-122.98659,42.65342]}},{"type":"Feature","properties":{"observedAt":"2026-07-18T10:13:00Z","satellite":"N21","instrument":"VIIRS","confidence":"n","frpMw":1.03,"brightnessI4K":305.54,"brightnessI5K":288.7,"dayNight":"N","scanKm":0.39,"trackKm":0.36},"geometry":{"type":"Point","coordinates":[-122.92036,42.67672]}},{"type":"Feature","properties":{"observedAt":"2026-07-18T10:13:00Z","satellite":"N21","instrument":"VIIRS","confidence":"n","frpMw":1.03,"brightnessI4K":303.86,"brightnessI5K":289.59,"dayNight":"N","scanKm":0.39,"trackKm":0.36},"geometry":{"type":"Point","coordinates":[-122.92498,42.67749]}},{"type":"Feature","properties":{"observedAt":"2026-07-18T10:13:00Z","satellite":"N21","instrument":"VIIRS","confidence":"n","frpMw":0.78,"brightnessI4K":297.34,"brightnessI5K":286.71,"dayNight":"N","scanKm":0.39,"trackKm":0.36},"geometry":{"type":"Point","coordinates":[-122.92957,42.67826]}},{"type":"Feature","properties":{"observedAt":"2026-07-18T10:13:00Z","satellite":"N21","instrument":"VIIRS","confidence":"n","frpMw":1.23,"brightnessI4K":311.58,"brightnessI5K":287.54,"dayNight":"N","scanKm":0.39,"trackKm":0.36},"geometry":{"type":"Point","coordinates":[-122.924,42.68076]}},{"type":"Feature","properties":{"observedAt":"2026-07-18T09:09:00Z","satellite":"N","instrument":"VIIRS","confidence":"n","frpMw":2.12,"brightnessI4K":299.44,"brightnessI5K":287.98,"dayNight":"N","scanKm":0.69,"trackKm":0.74},"geometry":{"type":"Point","coordinates":[-122.90465,42.61235]}},{"type":"Feature","properties":{"observedAt":"2026-07-18T10:49:00Z","satellite":"N","instrument":"VIIRS","confidence":"n","frpMw":1.08,"brightnessI4K":302.96,"brightnessI5K":288.57,"dayNight":"N","scanKm":0.42,"trackKm":0.45},"geometry":{"type":"Point","coordinates":[-122.90443,42.61406]}},{"type":"Feature","properties":{"observedAt":"2026-07-18T10:49:00Z","satellite":"N","instrument":"VIIRS","confidence":"n","frpMw":2.1,"brightnessI4K":300.98,"brightnessI5K":288.27,"dayNight":"N","scanKm":0.42,"trackKm":0.45},"geometry":{"type":"Point","coordinates":[-122.91424,42.61632]}},{"type":"Feature","properties":{"observedAt":"2026-07-18T10:49:00Z","satellite":"N","instrument":"VIIRS","confidence":"n","frpMw":2.1,"brightnessI4K":327.04,"brightnessI5K":289.74,"dayNight":"N","scanKm":0.42,"trackKm":0.45},"geometry":{"type":"Point","coordinates":[-122.91861,42.61733]}},{"type":"Feature","properties":{"observedAt":"2026-07-18T10:49:00Z","satellite":"N","instrument":"VIIRS","confidence":"n","frpMw":3.55,"brightnessI4K":304.06,"brightnessI5K":288.02,"dayNight":"N","scanKm":0.42,"trackKm":0.45},"geometry":{"type":"Point","coordinates":[-122.92301,42.61835]}},{"type":"Feature","properties":{"observedAt":"2026-07-18T10:49:00Z","satellite":"N","instrument":"VIIRS","confidence":"n","frpMw":1.08,"brightnessI4K":298.41,"brightnessI5K":288.38,"dayNight":"N","scanKm":0.42,"trackKm":0.45},"geometry":{"type":"Point","coordinates":[-122.90796,42.6193]}},{"type":"Feature","properties":{"observedAt":"2026-07-18T10:49:00Z","satellite":"N","instrument":"VIIRS","confidence":"n","frpMw":2.1,"brightnessI4K":324.62,"brightnessI5K":290.85,"dayNight":"N","scanKm":0.42,"trackKm":0.45},"geometry":{"type":"Point","coordinates":[-122.91294,42.62046]}},{"type":"Feature","properties":{"observedAt":"2026-07-18T10:49:00Z","satellite":"N","instrument":"VIIRS","confidence":"n","frpMw":2.1,"brightnessI4K":319.57,"brightnessI5K":291.27,"dayNight":"N","scanKm":0.42,"trackKm":0.45},"geometry":{"type":"Point","coordinates":[-122.91733,42.62146]}},{"type":"Feature","properties":{"observedAt":"2026-07-18T10:49:00Z","satellite":"N","instrument":"VIIRS","confidence":"n","frpMw":3.55,"brightnessI4K":333.27,"brightnessI5K":291.42,"dayNight":"N","scanKm":0.42,"trackKm":0.45},"geometry":{"type":"Point","coordinates":[-122.92166,42.62246]}},{"type":"Feature","properties":{"observedAt":"2026-07-18T10:49:00Z","satellite":"N","instrument":"VIIRS","confidence":"n","frpMw":1.58,"brightnessI4K":304.43,"brightnessI5K":288.37,"dayNight":"N","scanKm":0.42,"trackKm":0.45},"geometry":{"type":"Point","coordinates":[-122.92447,42.62754]}},{"type":"Feature","properties":{"observedAt":"2026-07-18T10:49:00Z","satellite":"N","instrument":"VIIRS","confidence":"n","frpMw":1.79,"brightnessI4K":299.31,"brightnessI5K":287.36,"dayNight":"N","scanKm":0.42,"trackKm":0.45},"geometry":{"type":"Point","coordinates":[-122.92887,42.62855]}},{"type":"Feature","properties":{"observedAt":"2026-07-18T10:49:00Z","satellite":"N","instrument":"VIIRS","confidence":"n","frpMw":1.79,"brightnessI4K":314.27,"brightnessI5K":289.66,"dayNight":"N","scanKm":0.42,"trackKm":0.45},"geometry":{"type":"Point","coordinates":[-122.92727,42.63261]}},{"type":"Feature","properties":{"observedAt":"2026-07-18T10:49:00Z","satellite":"N","instrument":"VIIRS","confidence":"n","frpMw":1.79,"brightnessI4K":325.13,"brightnessI5K":289.12,"dayNight":"N","scanKm":0.42,"trackKm":0.45},"geometry":{"type":"Point","coordinates":[-122.93172,42.63363]}},{"type":"Feature","properties":{"observedAt":"2026-07-18T10:49:00Z","satellite":"N","instrument":"VIIRS","confidence":"n","frpMw":0.64,"brightnessI4K":298.23,"brightnessI5K":287.69,"dayNight":"N","scanKm":0.42,"trackKm":0.45},"geometry":{"type":"Point","coordinates":[-122.89474,42.63398]}},{"type":"Feature","properties":{"observedAt":"2026-07-18T10:49:00Z","satellite":"N","instrument":"VIIRS","confidence":"n","frpMw":0.96,"brightnessI4K":301.14,"brightnessI5K":288.34,"dayNight":"N","scanKm":0.42,"trackKm":0.45},"geometry":{"type":"Point","coordinates":[-123.01918,42.63609]}},{"type":"Feature","properties":{"observedAt":"2026-07-18T10:49:00Z","satellite":"N","instrument":"VIIRS","confidence":"n","frpMw":1.33,"brightnessI4K":303.71,"brightnessI5K":289.17,"dayNight":"N","scanKm":0.42,"trackKm":0.45},"geometry":{"type":"Point","coordinates":[-123.02347,42.63708]}},{"type":"Feature","properties":{"observedAt":"2026-07-18T10:49:00Z","satellite":"N","instrument":"VIIRS","confidence":"n","frpMw":1.33,"brightnessI4K":309.84,"brightnessI5K":289.12,"dayNight":"N","scanKm":0.42,"trackKm":0.45},"geometry":{"type":"Point","coordinates":[-123.02788,42.6381]}},{"type":"Feature","properties":{"observedAt":"2026-07-18T10:49:00Z","satellite":"N","instrument":"VIIRS","confidence":"n","frpMw":1.12,"brightnessI4K":302.31,"brightnessI5K":289.49,"dayNight":"N","scanKm":0.42,"trackKm":0.45},"geometry":{"type":"Point","coordinates":[-122.89365,42.63816]}},{"type":"Feature","properties":{"observedAt":"2026-07-18T10:49:00Z","satellite":"N","instrument":"VIIRS","confidence":"n","frpMw":0.65,"brightnessI4K":297.0,"brightnessI5K":286.8,"dayNight":"N","scanKm":0.42,"trackKm":0.45},"geometry":{"type":"Point","coordinates":[-123.03244,42.63914]}},{"type":"Feature","properties":{"observedAt":"2026-07-18T10:49:00Z","satellite":"N","instrument":"VIIRS","confidence":"n","frpMw":0.81,"brightnessI4K":300.08,"brightnessI5K":288.81,"dayNight":"N","scanKm":0.42,"trackKm":0.45},"geometry":{"type":"Point","coordinates":[-123.01785,42.64019]}},{"type":"Feature","properties":{"observedAt":"2026-07-18T10:49:00Z","satellite":"N","instrument":"VIIRS","confidence":"n","frpMw":2.2,"brightnessI4K":314.78,"brightnessI5K":290.77,"dayNight":"N","scanKm":0.42,"trackKm":0.45},"geometry":{"type":"Point","coordinates":[-123.02229,42.64122]}},{"type":"Feature","properties":{"observedAt":"2026-07-18T10:49:00Z","satellite":"N","instrument":"VIIRS","confidence":"n","frpMw":2.2,"brightnessI4K":313.7,"brightnessI5K":290.38,"dayNight":"N","scanKm":0.42,"trackKm":0.45},"geometry":{"type":"Point","coordinates":[-123.02673,42.64223]}},{"type":"Feature","properties":{"observedAt":"2026-07-18T10:49:00Z","satellite":"N","instrument":"VIIRS","confidence":"n","frpMw":2.81,"brightnessI4K":322.46,"brightnessI5K":290.57,"dayNight":"N","scanKm":0.42,"trackKm":0.45},"geometry":{"type":"Point","coordinates":[-123.0312,42.64326]}},{"type":"Feature","properties":{"observedAt":"2026-07-18T10:49:00Z","satellite":"N","instrument":"VIIRS","confidence":"n","frpMw":0.81,"brightnessI4K":304.3,"brightnessI5K":288.81,"dayNight":"N","scanKm":0.42,"trackKm":0.45},"geometry":{"type":"Point","coordinates":[-123.01213,42.64328]}},{"type":"Feature","properties":{"observedAt":"2026-07-18T10:49:00Z","satellite":"N","instrument":"VIIRS","confidence":"n","frpMw":1.12,"brightnessI4K":302.35,"brightnessI5K":289.04,"dayNight":"N","scanKm":0.42,"trackKm":0.45},"geometry":{"type":"Point","coordinates":[-122.89782,42.64354]}},{"type":"Feature","properties":{"observedAt":"2026-07-18T10:49:00Z","satellite":"N","instrument":"VIIRS","confidence":"n","frpMw":0.81,"brightnessI4K":298.96,"brightnessI5K":288.49,"dayNight":"N","scanKm":0.42,"trackKm":0.45},"geometry":{"type":"Point","coordinates":[-123.01671,42.64433]}},{"type":"Feature","properties":{"observedAt":"2026-07-18T10:49:00Z","satellite":"N","instrument":"VIIRS","confidence":"n","frpMw":1.14,"brightnessI4K":317.55,"brightnessI5K":288.18,"dayNight":"N","scanKm":0.42,"trackKm":0.45},"geometry":{"type":"Point","coordinates":[-122.98856,42.65109]}},{"type":"Feature","properties":{"observedAt":"2026-07-18T10:49:00Z","satellite":"N","instrument":"VIIRS","confidence":"n","frpMw":1.14,"brightnessI4K":302.27,"brightnessI5K":288.03,"dayNight":"N","scanKm":0.42,"trackKm":0.45},"geometry":{"type":"Point","coordinates":[-122.98654,42.65504]}},{"type":"Feature","properties":{"observedAt":"2026-07-18T10:49:00Z","satellite":"N","instrument":"VIIRS","confidence":"n","frpMw":2.78,"brightnessI4K":325.42,"brightnessI5K":288.79,"dayNight":"N","scanKm":0.42,"trackKm":0.45},"geometry":{"type":"Point","coordinates":[-122.92446,42.68058]}}]}
