{"type":"FeatureCollection","features":[{"type":"Feature","properties":{"observedAt":"2026-07-19T21:21:00Z","satellite":"N21","instrument":"VIIRS","confidence":"n","frpMw":15.72,"brightnessI4K":355.0,"brightnessI5K":301.64,"dayNight":"D","scanKm":0.44,"trackKm":0.38},"geometry":{"type":"Point","coordinates":[-122.90197,42.59317]}},{"type":"Feature","properties":{"observedAt":"2026-07-19T21:21:00Z","satellite":"N21","instrument":"VIIRS","confidence":"n","frpMw":15.72,"brightnessI4K":349.21,"brightnessI5K":300.57,"dayNight":"D","scanKm":0.44,"trackKm":0.38},"geometry":{"type":"Point","coordinates":[-122.89664,42.59382]}},{"type":"Feature","properties":{"observedAt":"2026-07-19T21:21:00Z","satellite":"N21","instrument":"VIIRS","confidence":"n","frpMw":23.1,"brightnessI4K":342.51,"brightnessI5K":297.24,"dayNight":"D","scanKm":0.44,"trackKm":0.38},"geometry":{"type":"Point","coordinates":[-122.9082,42.59599]}},{"type":"Feature","properties":{"observedAt":"2026-07-19T21:21:00Z","satellite":"N21","instrument":"VIIRS","confidence":"n","frpMw":15.72,"brightnessI4K":347.42,"brightnessI5K":300.28,"dayNight":"D","scanKm":0.44,"trackKm":0.38},"geometry":{"type":"Point","coordinates":[-122.90302,42.59663]}},{"type":"Feature","properties":{"observedAt":"2026-07-19T21:21:00Z","satellite":"N21","instrument":"VIIRS","confidence":"n","frpMw":15.72,"brightnessI4K":336.6,"brightnessI5K":299.16,"dayNight":"D","scanKm":0.44,"trackKm":0.38},"geometry":{"type":"Point","coordinates":[-122.89771,42.59728]}},{"type":"Feature","properties":{"observedAt":"2026-07-19T21:21:00Z","satellite":"N21","instrument":"VIIRS","confidence":"n","frpMw":5.48,"brightnessI4K":342.15,"brightnessI5K":297.6,"dayNight":"D","scanKm":0.44,"trackKm":0.38},"geometry":{"type":"Point","coordinates":[-122.89236,42.59793]}},{"type":"Feature","properties":{"observedAt":"2026-07-19T21:21:00Z","satellite":"N21","instrument":"VIIRS","confidence":"n","frpMw":11.49,"brightnessI4K":355.13,"brightnessI5K":300.68,"dayNight":"D","scanKm":0.44,"trackKm":0.38},"geometry":{"type":"Point","coordinates":[-122.90916,42.59946]}},{"type":"Feature","properties":{"observedAt":"2026-07-19T21:21:00Z","satellite":"N21","instrument":"VIIRS","confidence":"n","frpMw":5.07,"brightnessI4K":330.33,"brightnessI5K":297.02,"dayNight":"D","scanKm":0.44,"trackKm":0.38},"geometry":{"type":"Point","coordinates":[-122.90412,42.60008]}},{"type":"Feature","properties":{"observedAt":"2026-07-19T21:21:00Z","satellite":"N21","instrument":"VIIRS","confidence":"n","frpMw":5.07,"brightnessI4K":332.09,"brightnessI5K":297.94,"dayNight":"D","scanKm":0.44,"trackKm":0.38},"geometry":{"type":"Point","coordinates":[-122.89875,42.60074]}},{"type":"Feature","properties":{"observedAt":"2026-07-19T21:21:00Z","satellite":"N21","instrument":"VIIRS","confidence":"n","frpMw":4.35,"brightnessI4K":341.13,"brightnessI5K":295.34,"dayNight":"D","scanKm":0.44,"trackKm":0.38},"geometry":{"type":"Point","coordinates":[-122.89329,42.60141]}},{"type":"Feature","properties":{"observedAt":"2026-07-19T21:21:00Z","satellite":"N21","instrument":"VIIRS","confidence":"n","frpMw":11.49,"brightnessI4K":346.79,"brightnessI5K":296.41,"dayNight":"D","scanKm":0.44,"trackKm":0.38},"geometry":{"type":"Point","coordinates":[-122.91499,42.60233]}},{"type":"Feature","properties":{"observedAt":"2026-07-19T21:21:00Z","satellite":"N21","instrument":"VIIRS","confidence":"n","frpMw":11.49,"brightnessI4K":340.21,"brightnessI5K":296.55,"dayNight":"D","scanKm":0.44,"trackKm":0.38},"geometry":{"type":"Point","coordinates":[-122.91009,42.60293]}},{"type":"Feature","properties":{"observedAt":"2026-07-19T21:21:00Z","satellite":"N21","instrument":"VIIRS","confidence":"n","frpMw":5.53,"brightnessI4K":328.41,"brightnessI5K":294.96,"dayNight":"D","scanKm":0.44,"trackKm":0.38},"geometry":{"type":"Point","coordinates":[-122.90596,42.60703]}},{"type":"Feature","properties":{"observedAt":"2026-07-19T21:21:00Z","satellite":"N21","instrument":"VIIRS","confidence":"n","frpMw":5.53,"brightnessI4K":332.94,"brightnessI5K":292.15,"dayNight":"D","scanKm":0.44,"trackKm":0.38},"geometry":{"type":"Point","coordinates":[-122.90057,42.60769]}},{"type":"Feature","properties":{"observedAt":"2026-07-19T21:21:00Z","satellite":"N21","instrument":"VIIRS","confidence":"n","frpMw":6.61,"brightnessI4K":339.06,"brightnessI5K":292.84,"dayNight":"D","scanKm":0.44,"trackKm":0.38},"geometry":{"type":"Point","coordinates":[-122.90229,42.60817]}},{"type":"Feature","properties":{"observedAt":"2026-07-19T21:21:00Z","satellite":"N21","instrument":"VIIRS","confidence":"n","frpMw":3.75,"brightnessI4K":336.86,"brightnessI5K":291.28,"dayNight":"D","scanKm":0.44,"trackKm":0.38},"geometry":{"type":"Point","coordinates":[-122.91925,42.61331]}},{"type":"Feature","properties":{"observedAt":"2026-07-19T21:21:00Z","satellite":"N21","instrument":"VIIRS","confidence":"n","frpMw":3.64,"brightnessI4K":332.14,"brightnessI5K":297.96,"dayNight":"D","scanKm":0.44,"trackKm":0.38},"geometry":{"type":"Point","coordinates":[-122.90924,42.61452]}},{"type":"Feature","properties":{"observedAt":"2026-07-19T21:55:00Z","satellite":"N","instrument":"VIIRS","confidence":"n","frpMw":10.1,"brightnessI4K":352.77,"brightnessI5K":283.36,"dayNight":"D","scanKm":0.57,"trackKm":0.52},"geometry":{"type":"Point","coordinates":[-122.90005,42.59139]}},{"type":"Feature","properties":{"observedAt":"2026-07-19T21:55:00Z","satellite":"N","instrument":"VIIRS","confidence":"n","frpMw":5.78,"brightnessI4K":334.33,"brightnessI5K":281.97,"dayNight":"D","scanKm":0.57,"trackKm":0.52},"geometry":{"type":"Point","coordinates":[-122.89285,42.59185]}},{"type":"Feature","properties":{"observedAt":"2026-07-19T21:55:00Z","satellite":"N","instrument":"VIIRS","confidence":"n","frpMw":10.1,"brightnessI4K":342.08,"brightnessI5K":282.9,"dayNight":"D","scanKm":0.57,"trackKm":0.52},"geometry":{"type":"Point","coordinates":[-122.9086,42.59572]}},{"type":"Feature","properties":{"observedAt":"2026-07-19T21:55:00Z","satellite":"N","instrument":"VIIRS","confidence":"n","frpMw":10.1,"brightnessI4K":345.92,"brightnessI5K":283.07,"dayNight":"D","scanKm":0.57,"trackKm":0.52},"geometry":{"type":"Point","coordinates":[-122.90177,42.59616]}},{"type":"Feature","properties":{"observedAt":"2026-07-19T21:55:00Z","satellite":"N","instrument":"VIIRS","confidence":"n","frpMw":5.78,"brightnessI4K":327.52,"brightnessI5K":279.8,"dayNight":"D","scanKm":0.57,"trackKm":0.52},"geometry":{"type":"Point","coordinates":[-122.89454,42.59663]}},{"type":"Feature","properties":{"observedAt":"2026-07-19T21:55:00Z","satellite":"N","instrument":"VIIRS","confidence":"n","frpMw":17.05,"brightnessI4K":355.13,"brightnessI5K":283.81,"dayNight":"D","scanKm":0.57,"trackKm":0.52},"geometry":{"type":"Point","coordinates":[-122.90987,42.60052]}}]}
