{"type":"FeatureCollection","features":[{"type":"Feature","properties":{"observedAt":"2026-07-19T09:09:00Z","satellite":"N20","instrument":"VIIRS","confidence":"n","frpMw":5.27,"brightnessI4K":330.99,"brightnessI5K":290.22,"dayNight":"N","scanKm":0.58,"trackKm":0.7},"geometry":{"type":"Point","coordinates":[-122.90383,42.59491]}},{"type":"Feature","properties":{"observedAt":"2026-07-19T09:09:00Z","satellite":"N20","instrument":"VIIRS","confidence":"n","frpMw":7.65,"brightnessI4K":312.36,"brightnessI5K":290.94,"dayNight":"N","scanKm":0.58,"trackKm":0.7},"geometry":{"type":"Point","coordinates":[-122.89472,42.60126]}},{"type":"Feature","properties":{"observedAt":"2026-07-19T09:09:00Z","satellite":"N20","instrument":"VIIRS","confidence":"n","frpMw":5.27,"brightnessI4K":338.31,"brightnessI5K":293.54,"dayNight":"N","scanKm":0.58,"trackKm":0.7},"geometry":{"type":"Point","coordinates":[-122.90074,42.60135]}},{"type":"Feature","properties":{"observedAt":"2026-07-19T09:09:00Z","satellite":"N20","instrument":"VIIRS","confidence":"n","frpMw":5.27,"brightnessI4K":314.75,"brightnessI5K":290.7,"dayNight":"N","scanKm":0.58,"trackKm":0.7},"geometry":{"type":"Point","coordinates":[-122.90894,42.60147]}},{"type":"Feature","properties":{"observedAt":"2026-07-19T09:09:00Z","satellite":"N20","instrument":"VIIRS","confidence":"n","frpMw":4.15,"brightnessI4K":307.11,"brightnessI5K":291.23,"dayNight":"N","scanKm":0.58,"trackKm":0.7},"geometry":{"type":"Point","coordinates":[-122.90677,42.60792]}},{"type":"Feature","properties":{"observedAt":"2026-07-19T09:09:00Z","satellite":"N20","instrument":"VIIRS","confidence":"n","frpMw":3.52,"brightnessI4K":301.0,"brightnessI5K":289.46,"dayNight":"N","scanKm":0.58,"trackKm":0.7},"geometry":{"type":"Point","coordinates":[-122.91772,42.6081]}},{"type":"Feature","properties":{"observedAt":"2026-07-19T09:09:00Z","satellite":"N20","instrument":"VIIRS","confidence":"n","frpMw":4.15,"brightnessI4K":329.68,"brightnessI5K":291.33,"dayNight":"N","scanKm":0.58,"trackKm":0.7},"geometry":{"type":"Point","coordinates":[-122.90611,42.6144]}},{"type":"Feature","properties":{"observedAt":"2026-07-19T09:09:00Z","satellite":"N20","instrument":"VIIRS","confidence":"n","frpMw":3.52,"brightnessI4K":321.97,"brightnessI5K":291.4,"dayNight":"N","scanKm":0.58,"trackKm":0.7},"geometry":{"type":"Point","coordinates":[-122.91441,42.61453]}},{"type":"Feature","properties":{"observedAt":"2026-07-19T09:09:00Z","satellite":"N20","instrument":"VIIRS","confidence":"n","frpMw":3.52,"brightnessI4K":321.13,"brightnessI5K":290.15,"dayNight":"N","scanKm":0.59,"trackKm":0.7},"geometry":{"type":"Point","coordinates":[-122.926,42.61471]}},{"type":"Feature","properties":{"observedAt":"2026-07-19T09:09:00Z","satellite":"N20","instrument":"VIIRS","confidence":"n","frpMw":2.84,"brightnessI4K":309.73,"brightnessI5K":289.52,"dayNight":"N","scanKm":0.58,"trackKm":0.7},"geometry":{"type":"Point","coordinates":[-122.89446,42.64657]}},{"type":"Feature","properties":{"observedAt":"2026-07-19T09:09:00Z","satellite":"N20","instrument":"VIIRS","confidence":"n","frpMw":2.94,"brightnessI4K":329.67,"brightnessI5K":290.12,"dayNight":"N","scanKm":0.58,"trackKm":0.7},"geometry":{"type":"Point","coordinates":[-122.89588,42.64662]}},{"type":"Feature","properties":{"observedAt":"2026-07-19T09:09:00Z","satellite":"N20","instrument":"VIIRS","confidence":"n","frpMw":2.84,"brightnessI4K":323.5,"brightnessI5K":289.27,"dayNight":"N","scanKm":0.58,"trackKm":0.7},"geometry":{"type":"Point","coordinates":[-122.90131,42.64666]}},{"type":"Feature","properties":{"observedAt":"2026-07-19T09:09:00Z","satellite":"N20","instrument":"VIIRS","confidence":"n","frpMw":2.94,"brightnessI4K":302.16,"brightnessI5K":288.89,"dayNight":"N","scanKm":0.58,"trackKm":0.7},"geometry":{"type":"Point","coordinates":[-122.90298,42.64675]}},{"type":"Feature","properties":{"observedAt":"2026-07-19T10:49:00Z","satellite":"N20","instrument":"VIIRS","confidence":"n","frpMw":6.5,"brightnessI4K":345.4,"brightnessI5K":292.92,"dayNight":"N","scanKm":0.5,"trackKm":0.49},"geometry":{"type":"Point","coordinates":[-122.90124,42.59369]}},{"type":"Feature","properties":{"observedAt":"2026-07-19T10:49:00Z","satellite":"N20","instrument":"VIIRS","confidence":"n","frpMw":6.5,"brightnessI4K":313.6,"brightnessI5K":289.05,"dayNight":"N","scanKm":0.5,"trackKm":0.49},"geometry":{"type":"Point","coordinates":[-122.90732,42.59517]}},{"type":"Feature","properties":{"observedAt":"2026-07-19T10:49:00Z","satellite":"N20","instrument":"VIIRS","confidence":"n","frpMw":10.96,"brightnessI4K":340.16,"brightnessI5K":292.63,"dayNight":"N","scanKm":0.5,"trackKm":0.49},"geometry":{"type":"Point","coordinates":[-122.89386,42.59666]}},{"type":"Feature","properties":{"observedAt":"2026-07-19T10:49:00Z","satellite":"N20","instrument":"VIIRS","confidence":"n","frpMw":6.5,"brightnessI4K":341.44,"brightnessI5K":295.03,"dayNight":"N","scanKm":0.5,"trackKm":0.49},"geometry":{"type":"Point","coordinates":[-122.90017,42.5982]}},{"type":"Feature","properties":{"observedAt":"2026-07-19T10:49:00Z","satellite":"N20","instrument":"VIIRS","confidence":"n","frpMw":6.5,"brightnessI4K":346.81,"brightnessI5K":295.31,"dayNight":"N","scanKm":0.5,"trackKm":0.49},"geometry":{"type":"Point","coordinates":[-122.90627,42.5997]}},{"type":"Feature","properties":{"observedAt":"2026-07-19T10:49:00Z","satellite":"N20","instrument":"VIIRS","confidence":"n","frpMw":7.09,"brightnessI4K":347.7,"brightnessI5K":294.19,"dayNight":"N","scanKm":0.5,"trackKm":0.49},"geometry":{"type":"Point","coordinates":[-122.91158,42.601]}},{"type":"Feature","properties":{"observedAt":"2026-07-19T10:49:00Z","satellite":"N20","instrument":"VIIRS","confidence":"n","frpMw":2.6,"brightnessI4K":318.49,"brightnessI5K":290.84,"dayNight":"N","scanKm":0.5,"trackKm":0.49},"geometry":{"type":"Point","coordinates":[-122.8923,42.60106]}},{"type":"Feature","properties":{"observedAt":"2026-07-19T10:49:00Z","satellite":"N20","instrument":"VIIRS","confidence":"n","frpMw":7.09,"brightnessI4K":326.49,"brightnessI5K":289.11,"dayNight":"N","scanKm":0.5,"trackKm":0.49},"geometry":{"type":"Point","coordinates":[-122.91662,42.60224]}},{"type":"Feature","properties":{"observedAt":"2026-07-19T10:49:00Z","satellite":"N20","instrument":"VIIRS","confidence":"n","frpMw":2.95,"brightnessI4K":319.01,"brightnessI5K":291.74,"dayNight":"N","scanKm":0.5,"trackKm":0.49},"geometry":{"type":"Point","coordinates":[-122.89894,42.60268]}},{"type":"Feature","properties":{"observedAt":"2026-07-19T10:49:00Z","satellite":"N20","instrument":"VIIRS","confidence":"n","frpMw":2.95,"brightnessI4K":312.59,"brightnessI5K":292.17,"dayNight":"N","scanKm":0.5,"trackKm":0.49},"geometry":{"type":"Point","coordinates":[-122.90537,42.60426]}},{"type":"Feature","properties":{"observedAt":"2026-07-19T10:49:00Z","satellite":"N20","instrument":"VIIRS","confidence":"n","frpMw":4.52,"brightnessI4K":320.31,"brightnessI5K":293.62,"dayNight":"N","scanKm":0.5,"trackKm":0.49},"geometry":{"type":"Point","coordinates":[-122.91039,42.60549]}},{"type":"Feature","properties":{"observedAt":"2026-07-19T10:49:00Z","satellite":"N20","instrument":"VIIRS","confidence":"n","frpMw":4.52,"brightnessI4K":344.47,"brightnessI5K":294.62,"dayNight":"N","scanKm":0.5,"trackKm":0.49},"geometry":{"type":"Point","coordinates":[-122.91544,42.60673]}},{"type":"Feature","properties":{"observedAt":"2026-07-19T10:49:00Z","satellite":"N20","instrument":"VIIRS","confidence":"n","frpMw":4.3,"brightnessI4K":322.3,"brightnessI5K":289.54,"dayNight":"N","scanKm":0.5,"trackKm":0.49},"geometry":{"type":"Point","coordinates":[-122.92052,42.60797]}},{"type":"Feature","properties":{"observedAt":"2026-07-19T10:49:00Z","satellite":"N20","instrument":"VIIRS","confidence":"n","frpMw":2.95,"brightnessI4K":324.09,"brightnessI5K":292.59,"dayNight":"N","scanKm":0.5,"trackKm":0.49},"geometry":{"type":"Point","coordinates":[-122.90345,42.60856]}},{"type":"Feature","properties":{"observedAt":"2026-07-19T10:49:00Z","satellite":"N20","instrument":"VIIRS","confidence":"n","frpMw":4.52,"brightnessI4K":315.44,"brightnessI5K":291.42,"dayNight":"N","scanKm":0.5,"trackKm":0.49},"geometry":{"type":"Point","coordinates":[-122.90907,42.60994]}},{"type":"Feature","properties":{"observedAt":"2026-07-19T10:49:00Z","satellite":"N20","instrument":"VIIRS","confidence":"n","frpMw":4.52,"brightnessI4K":308.87,"brightnessI5K":292.08,"dayNight":"N","scanKm":0.5,"trackKm":0.49},"geometry":{"type":"Point","coordinates":[-122.91435,42.61123]}},{"type":"Feature","properties":{"observedAt":"2026-07-19T10:49:00Z","satellite":"N20","instrument":"VIIRS","confidence":"n","frpMw":4.3,"brightnessI4K":331.64,"brightnessI5K":293.48,"dayNight":"N","scanKm":0.5,"trackKm":0.49},"geometry":{"type":"Point","coordinates":[-122.91939,42.61246]}},{"type":"Feature","properties":{"observedAt":"2026-07-19T10:49:00Z","satellite":"N20","instrument":"VIIRS","confidence":"n","frpMw":2.14,"brightnessI4K":317.72,"brightnessI5K":292.24,"dayNight":"N","scanKm":0.5,"trackKm":0.49},"geometry":{"type":"Point","coordinates":[-122.90742,42.61432]}},{"type":"Feature","properties":{"observedAt":"2026-07-19T10:49:00Z","satellite":"N20","instrument":"VIIRS","confidence":"n","frpMw":2.14,"brightnessI4K":305.02,"brightnessI5K":291.33,"dayNight":"N","scanKm":0.5,"trackKm":0.49},"geometry":{"type":"Point","coordinates":[-122.91311,42.6157]}},{"type":"Feature","properties":{"observedAt":"2026-07-19T10:49:00Z","satellite":"N20","instrument":"VIIRS","confidence":"n","frpMw":2.37,"brightnessI4K":305.43,"brightnessI5K":291.65,"dayNight":"N","scanKm":0.5,"trackKm":0.49},"geometry":{"type":"Point","coordinates":[-122.91814,42.61693]}},{"type":"Feature","properties":{"observedAt":"2026-07-19T10:49:00Z","satellite":"N20","instrument":"VIIRS","confidence":"n","frpMw":2.37,"brightnessI4K":319.09,"brightnessI5K":290.91,"dayNight":"N","scanKm":0.5,"trackKm":0.49},"geometry":{"type":"Point","coordinates":[-122.92319,42.61816]}},{"type":"Feature","properties":{"observedAt":"2026-07-19T10:49:00Z","satellite":"N20","instrument":"VIIRS","confidence":"n","frpMw":2.25,"brightnessI4K":311.57,"brightnessI5K":290.0,"dayNight":"N","scanKm":0.5,"trackKm":0.49},"geometry":{"type":"Point","coordinates":[-122.90176,42.64157]}},{"type":"Feature","properties":{"observedAt":"2026-07-19T10:49:00Z","satellite":"N20","instrument":"VIIRS","confidence":"n","frpMw":2.25,"brightnessI4K":323.51,"brightnessI5K":290.91,"dayNight":"N","scanKm":0.5,"trackKm":0.49},"geometry":{"type":"Point","coordinates":[-122.89426,42.64452]}},{"type":"Feature","properties":{"observedAt":"2026-07-19T10:49:00Z","satellite":"N20","instrument":"VIIRS","confidence":"n","frpMw":2.25,"brightnessI4K":305.37,"brightnessI5K":288.56,"dayNight":"N","scanKm":0.5,"trackKm":0.49},"geometry":{"type":"Point","coordinates":[-122.90048,42.64603]}},{"type":"Feature","properties":{"observedAt":"2026-07-19T09:56:00Z","satellite":"N21","instrument":"VIIRS","confidence":"n","frpMw":16.07,"brightnessI4K":354.14,"brightnessI5K":300.03,"dayNight":"N","scanKm":0.44,"trackKm":0.38},"geometry":{"type":"Point","coordinates":[-122.9015,42.59337]}},{"type":"Feature","properties":{"observedAt":"2026-07-19T09:56:00Z","satellite":"N21","instrument":"VIIRS","confidence":"n","frpMw":16.07,"brightnessI4K":302.18,"brightnessI5K":289.59,"dayNight":"N","scanKm":0.44,"trackKm":0.38},"geometry":{"type":"Point","coordinates":[-122.90674,42.59402]}},{"type":"Feature","properties":{"observedAt":"2026-07-19T09:56:00Z","satellite":"N21","instrument":"VIIRS","confidence":"n","frpMw":12.29,"brightnessI4K":331.04,"brightnessI5K":293.24,"dayNight":"N","scanKm":0.44,"trackKm":0.38},"geometry":{"type":"Point","coordinates":[-122.89528,42.59619]}},{"type":"Feature","properties":{"observedAt":"2026-07-19T09:56:00Z","satellite":"N21","instrument":"VIIRS","confidence":"n","frpMw":16.07,"brightnessI4K":349.98,"brightnessI5K":304.88,"dayNight":"N","scanKm":0.44,"trackKm":0.38},"geometry":{"type":"Point","coordinates":[-122.90046,42.59683]}},{"type":"Feature","properties":{"observedAt":"2026-07-19T09:56:00Z","satellite":"N21","instrument":"VIIRS","confidence":"n","frpMw":16.07,"brightnessI4K":355.98,"brightnessI5K":300.1,"dayNight":"N","scanKm":0.44,"trackKm":0.38},"geometry":{"type":"Point","coordinates":[-122.9057,42.59748]}},{"type":"Feature","properties":{"observedAt":"2026-07-19T09:56:00Z","satellite":"N21","instrument":"VIIRS","confidence":"n","frpMw":1.96,"brightnessI4K":301.18,"brightnessI5K":290.45,"dayNight":"N","scanKm":0.44,"trackKm":0.38},"geometry":{"type":"Point","coordinates":[-122.91118,42.59815]}},{"type":"Feature","properties":{"observedAt":"2026-07-19T09:56:00Z","satellite":"N21","instrument":"VIIRS","confidence":"n","frpMw":10.85,"brightnessI4K":343.67,"brightnessI5K":294.96,"dayNight":"N","scanKm":0.44,"trackKm":0.38},"geometry":{"type":"Point","coordinates":[-122.89433,42.59966]}},{"type":"Feature","properties":{"observedAt":"2026-07-19T09:56:00Z","satellite":"N21","instrument":"VIIRS","confidence":"h","frpMw":7.73,"brightnessI4K":367.0,"brightnessI5K":300.81,"dayNight":"N","scanKm":0.44,"trackKm":0.38},"geometry":{"type":"Point","coordinates":[-122.89943,42.60029]}},{"type":"Feature","properties":{"observedAt":"2026-07-19T09:56:00Z","satellite":"N21","instrument":"VIIRS","confidence":"n","frpMw":7.73,"brightnessI4K":336.68,"brightnessI5K":296.58,"dayNight":"N","scanKm":0.44,"trackKm":0.38},"geometry":{"type":"Point","coordinates":[-122.90459,42.60093]}},{"type":"Feature","properties":{"observedAt":"2026-07-19T09:56:00Z","satellite":"N21","instrument":"VIIRS","confidence":"n","frpMw":7.28,"brightnessI4K":352.05,"brightnessI5K":298.18,"dayNight":"N","scanKm":0.44,"trackKm":0.38},"geometry":{"type":"Point","coordinates":[-122.91013,42.60161]}},{"type":"Feature","properties":{"observedAt":"2026-07-19T09:56:00Z","satellite":"N21","instrument":"VIIRS","confidence":"n","frpMw":7.28,"brightnessI4K":330.94,"brightnessI5K":292.48,"dayNight":"N","scanKm":0.44,"trackKm":0.38},"geometry":{"type":"Point","coordinates":[-122.91581,42.6023]}},{"type":"Feature","properties":{"observedAt":"2026-07-19T09:56:00Z","satellite":"N21","instrument":"VIIRS","confidence":"n","frpMw":7.73,"brightnessI4K":327.58,"brightnessI5K":293.89,"dayNight":"N","scanKm":0.44,"trackKm":0.38},"geometry":{"type":"Point","coordinates":[-122.90354,42.60439]}},{"type":"Feature","properties":{"observedAt":"2026-07-19T09:56:00Z","satellite":"N21","instrument":"VIIRS","confidence":"n","frpMw":7.28,"brightnessI4K":320.57,"brightnessI5K":294.93,"dayNight":"N","scanKm":0.44,"trackKm":0.38},"geometry":{"type":"Point","coordinates":[-122.9091,42.60506]}},{"type":"Feature","properties":{"observedAt":"2026-07-19T09:56:00Z","satellite":"N21","instrument":"VIIRS","confidence":"n","frpMw":7.28,"brightnessI4K":348.18,"brightnessI5K":296.8,"dayNight":"N","scanKm":0.44,"trackKm":0.38},"geometry":{"type":"Point","coordinates":[-122.91479,42.60576]}},{"type":"Feature","properties":{"observedAt":"2026-07-19T09:56:00Z","satellite":"N21","instrument":"VIIRS","confidence":"n","frpMw":2.08,"brightnessI4K":316.57,"brightnessI5K":290.47,"dayNight":"N","scanKm":0.44,"trackKm":0.38},"geometry":{"type":"Point","coordinates":[-122.92046,42.60646]}},{"type":"Feature","properties":{"observedAt":"2026-07-19T09:56:00Z","satellite":"N21","instrument":"VIIRS","confidence":"n","frpMw":4.42,"brightnessI4K":317.35,"brightnessI5K":291.18,"dayNight":"N","scanKm":0.44,"trackKm":0.38},"geometry":{"type":"Point","coordinates":[-122.90279,42.60787]}},{"type":"Feature","properties":{"observedAt":"2026-07-19T09:56:00Z","satellite":"N21","instrument":"VIIRS","confidence":"n","frpMw":4.24,"brightnessI4K":330.71,"brightnessI5K":295.96,"dayNight":"N","scanKm":0.44,"trackKm":0.38},"geometry":{"type":"Point","coordinates":[-122.90815,42.60853]}},{"type":"Feature","properties":{"observedAt":"2026-07-19T09:56:00Z","satellite":"N21","instrument":"VIIRS","confidence":"n","frpMw":4.24,"brightnessI4K":315.43,"brightnessI5K":293.83,"dayNight":"N","scanKm":0.44,"trackKm":0.38},"geometry":{"type":"Point","coordinates":[-122.91373,42.60922]}},{"type":"Feature","properties":{"observedAt":"2026-07-19T09:56:00Z","satellite":"N21","instrument":"VIIRS","confidence":"n","frpMw":5.18,"brightnessI4K":333.97,"brightnessI5K":293.53,"dayNight":"N","scanKm":0.44,"trackKm":0.38},"geometry":{"type":"Point","coordinates":[-122.91942,42.60992]}},{"type":"Feature","properties":{"observedAt":"2026-07-19T09:56:00Z","satellite":"N21","instrument":"VIIRS","confidence":"n","frpMw":4.24,"brightnessI4K":345.13,"brightnessI5K":297.06,"dayNight":"N","scanKm":0.44,"trackKm":0.38},"geometry":{"type":"Point","coordinates":[-122.90726,42.61201]}},{"type":"Feature","properties":{"observedAt":"2026-07-19T09:56:00Z","satellite":"N21","instrument":"VIIRS","confidence":"n","frpMw":4.24,"brightnessI4K":313.51,"brightnessI5K":293.66,"dayNight":"N","scanKm":0.44,"trackKm":0.38},"geometry":{"type":"Point","coordinates":[-122.91271,42.61268]}},{"type":"Feature","properties":{"observedAt":"2026-07-19T09:56:00Z","satellite":"N21","instrument":"VIIRS","confidence":"n","frpMw":5.18,"brightnessI4K":321.06,"brightnessI5K":293.76,"dayNight":"N","scanKm":0.44,"trackKm":0.38},"geometry":{"type":"Point","coordinates":[-122.91838,42.61338]}},{"type":"Feature","properties":{"observedAt":"2026-07-19T09:56:00Z","satellite":"N21","instrument":"VIIRS","confidence":"n","frpMw":5.18,"brightnessI4K":328.44,"brightnessI5K":295.62,"dayNight":"N","scanKm":0.44,"trackKm":0.38},"geometry":{"type":"Point","coordinates":[-122.92403,42.61407]}},{"type":"Feature","properties":{"observedAt":"2026-07-19T09:56:00Z","satellite":"N21","instrument":"VIIRS","confidence":"n","frpMw":2.5,"brightnessI4K":325.84,"brightnessI5K":291.72,"dayNight":"N","scanKm":0.44,"trackKm":0.38},"geometry":{"type":"Point","coordinates":[-122.90644,42.61549]}},{"type":"Feature","properties":{"observedAt":"2026-07-19T09:56:00Z","satellite":"N21","instrument":"VIIRS","confidence":"n","frpMw":2.5,"brightnessI4K":313.08,"brightnessI5K":293.02,"dayNight":"N","scanKm":0.44,"trackKm":0.38},"geometry":{"type":"Point","coordinates":[-122.91175,42.61615]}},{"type":"Feature","properties":{"observedAt":"2026-07-19T09:56:00Z","satellite":"N21","instrument":"VIIRS","confidence":"n","frpMw":1.31,"brightnessI4K":308.17,"brightnessI5K":293.43,"dayNight":"N","scanKm":0.44,"trackKm":0.38},"geometry":{"type":"Point","coordinates":[-122.91738,42.61684]}},{"type":"Feature","properties":{"observedAt":"2026-07-19T09:56:00Z","satellite":"N21","instrument":"VIIRS","confidence":"n","frpMw":1.31,"brightnessI4K":311.77,"brightnessI5K":292.27,"dayNight":"N","scanKm":0.44,"trackKm":0.38},"geometry":{"type":"Point","coordinates":[-122.92307,42.61754]}},{"type":"Feature","properties":{"observedAt":"2026-07-19T09:56:00Z","satellite":"N21","instrument":"VIIRS","confidence":"n","frpMw":1.31,"brightnessI4K":303.65,"brightnessI5K":291.38,"dayNight":"N","scanKm":0.44,"trackKm":0.38},"geometry":{"type":"Point","coordinates":[-122.92211,42.62101]}},{"type":"Feature","properties":{"observedAt":"2026-07-19T09:56:00Z","satellite":"N21","instrument":"VIIRS","confidence":"n","frpMw":1.44,"brightnessI4K":301.52,"brightnessI5K":290.42,"dayNight":"N","scanKm":0.44,"trackKm":0.38},"geometry":{"type":"Point","coordinates":[-122.89061,42.63862]}},{"type":"Feature","properties":{"observedAt":"2026-07-19T09:56:00Z","satellite":"N21","instrument":"VIIRS","confidence":"n","frpMw":7.78,"brightnessI4K":333.96,"brightnessI5K":294.82,"dayNight":"N","scanKm":0.44,"trackKm":0.38},"geometry":{"type":"Point","coordinates":[-122.89481,42.64273]}},{"type":"Feature","properties":{"observedAt":"2026-07-19T09:56:00Z","satellite":"N21","instrument":"VIIRS","confidence":"n","frpMw":3.47,"brightnessI4K":341.56,"brightnessI5K":293.9,"dayNight":"N","scanKm":0.44,"trackKm":0.38},"geometry":{"type":"Point","coordinates":[-122.89999,42.64337]}},{"type":"Feature","properties":{"observedAt":"2026-07-19T09:56:00Z","satellite":"N21","instrument":"VIIRS","confidence":"n","frpMw":3.47,"brightnessI4K":307.34,"brightnessI5K":289.95,"dayNight":"N","scanKm":0.44,"trackKm":0.38},"geometry":{"type":"Point","coordinates":[-122.9053,42.64403]}},{"type":"Feature","properties":{"observedAt":"2026-07-19T09:56:00Z","satellite":"N21","instrument":"VIIRS","confidence":"n","frpMw":3.47,"brightnessI4K":318.21,"brightnessI5K":288.99,"dayNight":"N","scanKm":0.44,"trackKm":0.38},"geometry":{"type":"Point","coordinates":[-122.89905,42.64684]}},{"type":"Feature","properties":{"observedAt":"2026-07-19T10:32:00Z","satellite":"N","instrument":"VIIRS","confidence":"n","frpMw":13.76,"brightnessI4K":299.96,"brightnessI5K":289.51,"dayNight":"N","scanKm":0.42,"trackKm":0.38},"geometry":{"type":"Point","coordinates":[-122.90054,42.59257]}},{"type":"Feature","properties":{"observedAt":"2026-07-19T10:32:00Z","satellite":"N","instrument":"VIIRS","confidence":"n","frpMw":13.76,"brightnessI4K":353.05,"brightnessI5K":302.79,"dayNight":"N","scanKm":0.42,"trackKm":0.38},"geometry":{"type":"Point","coordinates":[-122.89958,42.596]}},{"type":"Feature","properties":{"observedAt":"2026-07-19T10:32:00Z","satellite":"N","instrument":"VIIRS","confidence":"h","frpMw":8.95,"brightnessI4K":367.0,"brightnessI5K":299.2,"dayNight":"N","scanKm":0.42,"trackKm":0.38},"geometry":{"type":"Point","coordinates":[-122.90468,42.59694]}},{"type":"Feature","properties":{"observedAt":"2026-07-19T10:32:00Z","satellite":"N","instrument":"VIIRS","confidence":"n","frpMw":8.95,"brightnessI4K":311.93,"brightnessI5K":289.76,"dayNight":"N","scanKm":0.42,"trackKm":0.38},"geometry":{"type":"Point","coordinates":[-122.90965,42.59785]}},{"type":"Feature","properties":{"observedAt":"2026-07-19T10:32:00Z","satellite":"N","instrument":"VIIRS","confidence":"n","frpMw":8.06,"brightnessI4K":331.37,"brightnessI5K":294.94,"dayNight":"N","scanKm":0.42,"trackKm":0.38},"geometry":{"type":"Point","coordinates":[-122.89345,42.59847]}},{"type":"Feature","properties":{"observedAt":"2026-07-19T10:32:00Z","satellite":"N","instrument":"VIIRS","confidence":"n","frpMw":8.06,"brightnessI4K":352.89,"brightnessI5K":300.03,"dayNight":"N","scanKm":0.42,"trackKm":0.38},"geometry":{"type":"Point","coordinates":[-122.89861,42.59942]}},{"type":"Feature","properties":{"observedAt":"2026-07-19T10:32:00Z","satellite":"N","instrument":"VIIRS","confidence":"n","frpMw":5.05,"brightnessI4K":331.1,"brightnessI5K":296.77,"dayNight":"N","scanKm":0.42,"trackKm":0.38},"geometry":{"type":"Point","coordinates":[-122.90379,42.60037]}},{"type":"Feature","properties":{"observedAt":"2026-07-19T10:32:00Z","satellite":"N","instrument":"VIIRS","confidence":"n","frpMw":5.05,"brightnessI4K":355.57,"brightnessI5K":296.92,"dayNight":"N","scanKm":0.42,"trackKm":0.38},"geometry":{"type":"Point","coordinates":[-122.90871,42.60128]}},{"type":"Feature","properties":{"observedAt":"2026-07-19T10:32:00Z","satellite":"N","instrument":"VIIRS","confidence":"n","frpMw":8.06,"brightnessI4K":310.27,"brightnessI5K":290.09,"dayNight":"N","scanKm":0.42,"trackKm":0.38},"geometry":{"type":"Point","coordinates":[-122.89236,42.60188]}},{"type":"Feature","properties":{"observedAt":"2026-07-19T10:32:00Z","satellite":"N","instrument":"VIIRS","confidence":"n","frpMw":11.93,"brightnessI4K":355.59,"brightnessI5K":294.69,"dayNight":"N","scanKm":0.42,"trackKm":0.38},"geometry":{"type":"Point","coordinates":[-122.91351,42.60216]}},{"type":"Feature","properties":{"observedAt":"2026-07-19T10:32:00Z","satellite":"N","instrument":"VIIRS","confidence":"n","frpMw":8.06,"brightnessI4K":348.4,"brightnessI5K":295.34,"dayNight":"N","scanKm":0.42,"trackKm":0.38},"geometry":{"type":"Point","coordinates":[-122.89759,42.60283]}},{"type":"Feature","properties":{"observedAt":"2026-07-19T10:32:00Z","satellite":"N","instrument":"VIIRS","confidence":"n","frpMw":5.05,"brightnessI4K":333.16,"brightnessI5K":294.63,"dayNight":"N","scanKm":0.42,"trackKm":0.38},"geometry":{"type":"Point","coordinates":[-122.90283,42.6038]}},{"type":"Feature","properties":{"observedAt":"2026-07-19T10:32:00Z","satellite":"N","instrument":"VIIRS","confidence":"n","frpMw":5.05,"brightnessI4K":320.98,"brightnessI5K":294.76,"dayNight":"N","scanKm":0.42,"trackKm":0.38},"geometry":{"type":"Point","coordinates":[-122.90777,42.6047]}},{"type":"Feature","properties":{"observedAt":"2026-07-19T10:32:00Z","satellite":"N","instrument":"VIIRS","confidence":"n","frpMw":11.93,"brightnessI4K":341.63,"brightnessI5K":300.59,"dayNight":"N","scanKm":0.42,"trackKm":0.38},"geometry":{"type":"Point","coordinates":[-122.91253,42.60558]}},{"type":"Feature","properties":{"observedAt":"2026-07-19T10:32:00Z","satellite":"N","instrument":"VIIRS","confidence":"n","frpMw":11.93,"brightnessI4K":343.08,"brightnessI5K":293.85,"dayNight":"N","scanKm":0.42,"trackKm":0.38},"geometry":{"type":"Point","coordinates":[-122.9173,42.60646]}},{"type":"Feature","properties":{"observedAt":"2026-07-19T10:32:00Z","satellite":"N","instrument":"VIIRS","confidence":"n","frpMw":3.43,"brightnessI4K":314.77,"brightnessI5K":291.38,"dayNight":"N","scanKm":0.42,"trackKm":0.38},"geometry":{"type":"Point","coordinates":[-122.90167,42.60719]}},{"type":"Feature","properties":{"observedAt":"2026-07-19T10:32:00Z","satellite":"N","instrument":"VIIRS","confidence":"n","frpMw":3.43,"brightnessI4K":334.43,"brightnessI5K":295.4,"dayNight":"N","scanKm":0.42,"trackKm":0.38},"geometry":{"type":"Point","coordinates":[-122.90668,42.6081]}},{"type":"Feature","properties":{"observedAt":"2026-07-19T10:32:00Z","satellite":"N","instrument":"VIIRS","confidence":"n","frpMw":2.42,"brightnessI4K":313.42,"brightnessI5K":293.15,"dayNight":"N","scanKm":0.42,"trackKm":0.38},"geometry":{"type":"Point","coordinates":[-122.91156,42.609]}},{"type":"Feature","properties":{"observedAt":"2026-07-19T10:32:00Z","satellite":"N","instrument":"VIIRS","confidence":"n","frpMw":2.94,"brightnessI4K":335.52,"brightnessI5K":293.39,"dayNight":"N","scanKm":0.42,"trackKm":0.38},"geometry":{"type":"Point","coordinates":[-122.9044,42.60974]}},{"type":"Feature","properties":{"observedAt":"2026-07-19T10:32:00Z","satellite":"N","instrument":"VIIRS","confidence":"n","frpMw":2.42,"brightnessI4K":337.47,"brightnessI5K":296.08,"dayNight":"N","scanKm":0.42,"trackKm":0.38},"geometry":{"type":"Point","coordinates":[-122.91637,42.60989]}},{"type":"Feature","properties":{"observedAt":"2026-07-19T10:32:00Z","satellite":"N","instrument":"VIIRS","confidence":"n","frpMw":2.94,"brightnessI4K":319.67,"brightnessI5K":292.89,"dayNight":"N","scanKm":0.42,"trackKm":0.38},"geometry":{"type":"Point","coordinates":[-122.90933,42.61065]}},{"type":"Feature","properties":{"observedAt":"2026-07-19T10:32:00Z","satellite":"N","instrument":"VIIRS","confidence":"n","frpMw":4.08,"brightnessI4K":329.39,"brightnessI5K":291.06,"dayNight":"N","scanKm":0.42,"trackKm":0.38},"geometry":{"type":"Point","coordinates":[-122.92115,42.61077]}},{"type":"Feature","properties":{"observedAt":"2026-07-19T10:32:00Z","satellite":"N","instrument":"VIIRS","confidence":"n","frpMw":3.43,"brightnessI4K":337.23,"brightnessI5K":294.29,"dayNight":"N","scanKm":0.42,"trackKm":0.38},"geometry":{"type":"Point","coordinates":[-122.90559,42.6115]}},{"type":"Feature","properties":{"observedAt":"2026-07-19T10:32:00Z","satellite":"N","instrument":"VIIRS","confidence":"n","frpMw":2.18,"brightnessI4K":311.45,"brightnessI5K":292.53,"dayNight":"N","scanKm":0.42,"trackKm":0.38},"geometry":{"type":"Point","coordinates":[-122.9142,42.61156]}},{"type":"Feature","properties":{"observedAt":"2026-07-19T10:32:00Z","satellite":"N","instrument":"VIIRS","confidence":"n","frpMw":2.42,"brightnessI4K":319.3,"brightnessI5K":293.23,"dayNight":"N","scanKm":0.42,"trackKm":0.38},"geometry":{"type":"Point","coordinates":[-122.91055,42.61241]}},{"type":"Feature","properties":{"observedAt":"2026-07-19T10:32:00Z","satellite":"N","instrument":"VIIRS","confidence":"n","frpMw":2.18,"brightnessI4K":336.17,"brightnessI5K":294.64,"dayNight":"N","scanKm":0.42,"trackKm":0.38},"geometry":{"type":"Point","coordinates":[-122.91898,42.61245]}},{"type":"Feature","properties":{"observedAt":"2026-07-19T10:32:00Z","satellite":"N","instrument":"VIIRS","confidence":"n","frpMw":2.94,"brightnessI4K":311.9,"brightnessI5K":290.25,"dayNight":"N","scanKm":0.42,"trackKm":0.38},"geometry":{"type":"Point","coordinates":[-122.90316,42.61311]}},{"type":"Feature","properties":{"observedAt":"2026-07-19T10:32:00Z","satellite":"N","instrument":"VIIRS","confidence":"n","frpMw":2.42,"brightnessI4K":311.07,"brightnessI5K":292.73,"dayNight":"N","scanKm":0.42,"trackKm":0.38},"geometry":{"type":"Point","coordinates":[-122.91541,42.61331]}},{"type":"Feature","properties":{"observedAt":"2026-07-19T10:32:00Z","satellite":"N","instrument":"VIIRS","confidence":"n","frpMw":4.21,"brightnessI4K":330.78,"brightnessI5K":292.07,"dayNight":"N","scanKm":0.42,"trackKm":0.38},"geometry":{"type":"Point","coordinates":[-122.92377,42.61334]}},{"type":"Feature","properties":{"observedAt":"2026-07-19T10:32:00Z","satellite":"N","instrument":"VIIRS","confidence":"n","frpMw":2.94,"brightnessI4K":338.19,"brightnessI5K":295.77,"dayNight":"N","scanKm":0.42,"trackKm":0.38},"geometry":{"type":"Point","coordinates":[-122.90827,42.61406]}},{"type":"Feature","properties":{"observedAt":"2026-07-19T10:32:00Z","satellite":"N","instrument":"VIIRS","confidence":"n","frpMw":4.08,"brightnessI4K":338.06,"brightnessI5K":296.58,"dayNight":"N","scanKm":0.42,"trackKm":0.38},"geometry":{"type":"Point","coordinates":[-122.92018,42.61419]}},{"type":"Feature","properties":{"observedAt":"2026-07-19T10:32:00Z","satellite":"N","instrument":"VIIRS","confidence":"n","frpMw":2.18,"brightnessI4K":309.95,"brightnessI5K":292.31,"dayNight":"N","scanKm":0.42,"trackKm":0.38},"geometry":{"type":"Point","coordinates":[-122.91322,42.61499]}},{"type":"Feature","properties":{"observedAt":"2026-07-19T10:32:00Z","satellite":"N","instrument":"VIIRS","confidence":"n","frpMw":4.08,"brightnessI4K":300.21,"brightnessI5K":290.15,"dayNight":"N","scanKm":0.42,"trackKm":0.38},"geometry":{"type":"Point","coordinates":[-122.92499,42.61507]}},{"type":"Feature","properties":{"observedAt":"2026-07-19T10:32:00Z","satellite":"N","instrument":"VIIRS","confidence":"n","frpMw":2.18,"brightnessI4K":312.55,"brightnessI5K":292.73,"dayNight":"N","scanKm":0.42,"trackKm":0.38},"geometry":{"type":"Point","coordinates":[-122.918,42.61587]}},{"type":"Feature","properties":{"observedAt":"2026-07-19T10:32:00Z","satellite":"N","instrument":"VIIRS","confidence":"n","frpMw":4.21,"brightnessI4K":340.21,"brightnessI5K":294.23,"dayNight":"N","scanKm":0.42,"trackKm":0.38},"geometry":{"type":"Point","coordinates":[-122.92277,42.61676]}},{"type":"Feature","properties":{"observedAt":"2026-07-19T10:32:00Z","satellite":"N","instrument":"VIIRS","confidence":"n","frpMw":1.01,"brightnessI4K":300.6,"brightnessI5K":290.02,"dayNight":"N","scanKm":0.42,"trackKm":0.38},"geometry":{"type":"Point","coordinates":[-122.90718,42.61746]}},{"type":"Feature","properties":{"observedAt":"2026-07-19T10:32:00Z","satellite":"N","instrument":"VIIRS","confidence":"n","frpMw":0.84,"brightnessI4K":301.82,"brightnessI5K":291.26,"dayNight":"N","scanKm":0.42,"trackKm":0.38},"geometry":{"type":"Point","coordinates":[-122.91219,42.6184]}},{"type":"Feature","properties":{"observedAt":"2026-07-19T10:32:00Z","satellite":"N","instrument":"VIIRS","confidence":"n","frpMw":0.84,"brightnessI4K":304.75,"brightnessI5K":291.7,"dayNight":"N","scanKm":0.42,"trackKm":0.38},"geometry":{"type":"Point","coordinates":[-122.917,42.61929]}},{"type":"Feature","properties":{"observedAt":"2026-07-19T10:32:00Z","satellite":"N","instrument":"VIIRS","confidence":"n","frpMw":1.98,"brightnessI4K":308.64,"brightnessI5K":291.68,"dayNight":"N","scanKm":0.42,"trackKm":0.38},"geometry":{"type":"Point","coordinates":[-122.92175,42.62017]}},{"type":"Feature","properties":{"observedAt":"2026-07-19T10:32:00Z","satellite":"N","instrument":"VIIRS","confidence":"n","frpMw":1.42,"brightnessI4K":311.19,"brightnessI5K":290.1,"dayNight":"N","scanKm":0.42,"trackKm":0.38},"geometry":{"type":"Point","coordinates":[-122.90413,42.64212]}},{"type":"Feature","properties":{"observedAt":"2026-07-19T10:32:00Z","satellite":"N","instrument":"VIIRS","confidence":"n","frpMw":5.3,"brightnessI4K":314.28,"brightnessI5K":291.1,"dayNight":"N","scanKm":0.42,"trackKm":0.38},"geometry":{"type":"Point","coordinates":[-122.89293,42.64364]}},{"type":"Feature","properties":{"observedAt":"2026-07-19T10:32:00Z","satellite":"N","instrument":"VIIRS","confidence":"n","frpMw":5.3,"brightnessI4K":352.91,"brightnessI5K":295.32,"dayNight":"N","scanKm":0.42,"trackKm":0.38},"geometry":{"type":"Point","coordinates":[-122.89809,42.6446]}},{"type":"Feature","properties":{"observedAt":"2026-07-19T10:32:00Z","satellite":"N","instrument":"VIIRS","confidence":"n","frpMw":2.88,"brightnessI4K":325.73,"brightnessI5K":290.91,"dayNight":"N","scanKm":0.42,"trackKm":0.38},"geometry":{"type":"Point","coordinates":[-122.90314,42.64554]}}]}
