{"type":"FeatureCollection","features":[{"type":"Feature","properties":{"observedAt":"2026-07-19T20:34:00Z","satellite":"N20","instrument":"VIIRS","confidence":"h","frpMw":10.76,"brightnessI4K":367.0,"brightnessI5K":309.14,"dayNight":"D","scanKm":0.48,"trackKm":0.48},"geometry":{"type":"Point","coordinates":[-122.90005,42.59167]}},{"type":"Feature","properties":{"observedAt":"2026-07-19T20:34:00Z","satellite":"N20","instrument":"VIIRS","confidence":"n","frpMw":10.76,"brightnessI4K":348.55,"brightnessI5K":305.96,"dayNight":"D","scanKm":0.48,"trackKm":0.48},"geometry":{"type":"Point","coordinates":[-122.89427,42.59303]}},{"type":"Feature","properties":{"observedAt":"2026-07-19T20:34:00Z","satellite":"N20","instrument":"VIIRS","confidence":"n","frpMw":18.38,"brightnessI4K":337.32,"brightnessI5K":307.71,"dayNight":"D","scanKm":0.48,"trackKm":0.48},"geometry":{"type":"Point","coordinates":[-122.90699,42.59472]}},{"type":"Feature","properties":{"observedAt":"2026-07-19T20:34:00Z","satellite":"N20","instrument":"VIIRS","confidence":"n","frpMw":31.61,"brightnessI4K":348.11,"brightnessI5K":308.78,"dayNight":"D","scanKm":0.48,"trackKm":0.48},"geometry":{"type":"Point","coordinates":[-122.90354,42.59544]}},{"type":"Feature","properties":{"observedAt":"2026-07-19T20:34:00Z","satellite":"N20","instrument":"VIIRS","confidence":"l","frpMw":6.61,"brightnessI4K":332.26,"brightnessI5K":304.33,"dayNight":"D","scanKm":0.48,"trackKm":0.48},"geometry":{"type":"Point","coordinates":[-122.89778,42.59683]}},{"type":"Feature","properties":{"observedAt":"2026-07-19T20:34:00Z","satellite":"N20","instrument":"VIIRS","confidence":"n","frpMw":23.65,"brightnessI4K":345.24,"brightnessI5K":305.76,"dayNight":"D","scanKm":0.48,"trackKm":0.48},"geometry":{"type":"Point","coordinates":[-122.89535,42.59745]}},{"type":"Feature","properties":{"observedAt":"2026-07-19T20:34:00Z","satellite":"N20","instrument":"VIIRS","confidence":"n","frpMw":6.61,"brightnessI4K":342.83,"brightnessI5K":303.69,"dayNight":"D","scanKm":0.48,"trackKm":0.48},"geometry":{"type":"Point","coordinates":[-122.89214,42.59819]}}]}
