{"type":"FeatureCollection","features":[{"type":"Feature","properties":{"observedAt":"2026-07-16T21:29:00Z","satellite":"N20","instrument":"VIIRS","confidence":"n","frpMw":11.12,"brightnessI4K":343.17,"brightnessI5K":307.91,"dayNight":"D","scanKm":0.5,"trackKm":0.41},"geometry":{"type":"Point","coordinates":[-123.00397,42.59412]}},{"type":"Feature","properties":{"observedAt":"2026-07-16T21:29:00Z","satellite":"N20","instrument":"VIIRS","confidence":"l","frpMw":7.26,"brightnessI4K":330.87,"brightnessI5K":303.7,"dayNight":"D","scanKm":0.5,"trackKm":0.41},"geometry":{"type":"Point","coordinates":[-123.03083,42.60275]}},{"type":"Feature","properties":{"observedAt":"2026-07-16T21:29:00Z","satellite":"N20","instrument":"VIIRS","confidence":"n","frpMw":7.26,"brightnessI4K":347.5,"brightnessI5K":310.7,"dayNight":"D","scanKm":0.5,"trackKm":0.41},"geometry":{"type":"Point","coordinates":[-123.03156,42.6065]}},{"type":"Feature","properties":{"observedAt":"2026-07-16T21:29:00Z","satellite":"N20","instrument":"VIIRS","confidence":"n","frpMw":15.79,"brightnessI4K":340.13,"brightnessI5K":310.05,"dayNight":"D","scanKm":0.5,"trackKm":0.41},"geometry":{"type":"Point","coordinates":[-123.03254,42.61022]}},{"type":"Feature","properties":{"observedAt":"2026-07-16T21:29:00Z","satellite":"N20","instrument":"VIIRS","confidence":"l","frpMw":15.79,"brightnessI4K":336.28,"brightnessI5K":306.79,"dayNight":"D","scanKm":0.5,"trackKm":0.41},"geometry":{"type":"Point","coordinates":[-123.03342,42.61396]}},{"type":"Feature","properties":{"observedAt":"2026-07-16T21:29:00Z","satellite":"N20","instrument":"VIIRS","confidence":"n","frpMw":14.17,"brightnessI4K":330.47,"brightnessI5K":300.31,"dayNight":"D","scanKm":0.5,"trackKm":0.41},"geometry":{"type":"Point","coordinates":[-123.02789,42.61454]}},{"type":"Feature","properties":{"observedAt":"2026-07-16T21:29:00Z","satellite":"N20","instrument":"VIIRS","confidence":"n","frpMw":30.59,"brightnessI4K":336.56,"brightnessI5K":300.96,"dayNight":"D","scanKm":0.51,"trackKm":0.41},"geometry":{"type":"Point","coordinates":[-122.89652,42.61697]}},{"type":"Feature","properties":{"observedAt":"2026-07-16T21:29:00Z","satellite":"N20","instrument":"VIIRS","confidence":"n","frpMw":16.63,"brightnessI4K":342.94,"brightnessI5K":306.62,"dayNight":"D","scanKm":0.5,"trackKm":0.41},"geometry":{"type":"Point","coordinates":[-123.03419,42.6177]}},{"type":"Feature","properties":{"observedAt":"2026-07-16T21:29:00Z","satellite":"N20","instrument":"VIIRS","confidence":"n","frpMw":3.84,"brightnessI4K":331.92,"brightnessI5K":301.44,"dayNight":"D","scanKm":0.5,"trackKm":0.41},"geometry":{"type":"Point","coordinates":[-123.02879,42.61828]}},{"type":"Feature","properties":{"observedAt":"2026-07-16T21:29:00Z","satellite":"N20","instrument":"VIIRS","confidence":"n","frpMw":17.99,"brightnessI4K":342.15,"brightnessI5K":305.21,"dayNight":"D","scanKm":0.51,"trackKm":0.41},"geometry":{"type":"Point","coordinates":[-122.91078,42.61932]}},{"type":"Feature","properties":{"observedAt":"2026-07-16T21:29:00Z","satellite":"N20","instrument":"VIIRS","confidence":"n","frpMw":30.59,"brightnessI4K":348.94,"brightnessI5K":299.54,"dayNight":"D","scanKm":0.51,"trackKm":0.41},"geometry":{"type":"Point","coordinates":[-122.90438,42.61999]}},{"type":"Feature","properties":{"observedAt":"2026-07-16T21:29:00Z","satellite":"N20","instrument":"VIIRS","confidence":"n","frpMw":3.84,"brightnessI4K":336.52,"brightnessI5K":300.3,"dayNight":"D","scanKm":0.5,"trackKm":0.41},"geometry":{"type":"Point","coordinates":[-123.02948,42.62203]}},{"type":"Feature","properties":{"observedAt":"2026-07-16T21:29:00Z","satellite":"N20","instrument":"VIIRS","confidence":"l","frpMw":64.38,"brightnessI4K":367.0,"brightnessI5K":328.0,"dayNight":"D","scanKm":0.51,"trackKm":0.41},"geometry":{"type":"Point","coordinates":[-122.91137,42.6231]}},{"type":"Feature","properties":{"observedAt":"2026-07-16T21:29:00Z","satellite":"N20","instrument":"VIIRS","confidence":"n","frpMw":6.67,"brightnessI4K":334.02,"brightnessI5K":300.06,"dayNight":"D","scanKm":0.5,"trackKm":0.41},"geometry":{"type":"Point","coordinates":[-123.0299,42.62581]}},{"type":"Feature","properties":{"observedAt":"2026-07-16T21:29:00Z","satellite":"N20","instrument":"VIIRS","confidence":"n","frpMw":64.38,"brightnessI4K":347.55,"brightnessI5K":308.91,"dayNight":"D","scanKm":0.51,"trackKm":0.41},"geometry":{"type":"Point","coordinates":[-122.91775,42.62627]}},{"type":"Feature","properties":{"observedAt":"2026-07-16T21:29:00Z","satellite":"N20","instrument":"VIIRS","confidence":"l","frpMw":64.38,"brightnessI4K":367.0,"brightnessI5K":332.92,"dayNight":"D","scanKm":0.51,"trackKm":0.41},"geometry":{"type":"Point","coordinates":[-122.9118,42.6269]}},{"type":"Feature","properties":{"observedAt":"2026-07-16T21:29:00Z","satellite":"N20","instrument":"VIIRS","confidence":"n","frpMw":22.55,"brightnessI4K":336.67,"brightnessI5K":300.02,"dayNight":"D","scanKm":0.51,"trackKm":0.41},"geometry":{"type":"Point","coordinates":[-122.90527,42.62759]}},{"type":"Feature","properties":{"observedAt":"2026-07-16T21:29:00Z","satellite":"N20","instrument":"VIIRS","confidence":"n","frpMw":6.67,"brightnessI4K":338.72,"brightnessI5K":300.97,"dayNight":"D","scanKm":0.5,"trackKm":0.41},"geometry":{"type":"Point","coordinates":[-123.03041,42.62959]}},{"type":"Feature","properties":{"observedAt":"2026-07-16T21:29:00Z","satellite":"N20","instrument":"VIIRS","confidence":"n","frpMw":20.68,"brightnessI4K":348.54,"brightnessI5K":303.56,"dayNight":"D","scanKm":0.51,"trackKm":0.41},"geometry":{"type":"Point","coordinates":[-122.89949,42.63205]}},{"type":"Feature","properties":{"observedAt":"2026-07-16T21:29:00Z","satellite":"N20","instrument":"VIIRS","confidence":"l","frpMw":63.62,"brightnessI4K":334.94,"brightnessI5K":308.13,"dayNight":"D","scanKm":0.51,"trackKm":0.41},"geometry":{"type":"Point","coordinates":[-122.91905,42.63382]}},{"type":"Feature","properties":{"observedAt":"2026-07-16T21:29:00Z","satellite":"N20","instrument":"VIIRS","confidence":"n","frpMw":21.29,"brightnessI4K":352.9,"brightnessI5K":301.77,"dayNight":"D","scanKm":0.5,"trackKm":0.41},"geometry":{"type":"Point","coordinates":[-123.01994,42.63454]}},{"type":"Feature","properties":{"observedAt":"2026-07-16T21:29:00Z","satellite":"N20","instrument":"VIIRS","confidence":"n","frpMw":21.29,"brightnessI4K":353.16,"brightnessI5K":308.39,"dayNight":"D","scanKm":0.5,"trackKm":0.41},"geometry":{"type":"Point","coordinates":[-123.01447,42.63513]}},{"type":"Feature","properties":{"observedAt":"2026-07-16T21:29:00Z","satellite":"N20","instrument":"VIIRS","confidence":"n","frpMw":9.25,"brightnessI4K":346.14,"brightnessI5K":300.23,"dayNight":"D","scanKm":0.5,"trackKm":0.41},"geometry":{"type":"Point","coordinates":[-123.00885,42.63573]}},{"type":"Feature","properties":{"observedAt":"2026-07-16T21:29:00Z","satellite":"N20","instrument":"VIIRS","confidence":"n","frpMw":6.37,"brightnessI4K":331.7,"brightnessI5K":300.11,"dayNight":"D","scanKm":0.51,"trackKm":0.41},"geometry":{"type":"Point","coordinates":[-122.93105,42.63639]}},{"type":"Feature","properties":{"observedAt":"2026-07-16T21:29:00Z","satellite":"N20","instrument":"VIIRS","confidence":"n","frpMw":6.37,"brightnessI4K":334.71,"brightnessI5K":303.91,"dayNight":"D","scanKm":0.51,"trackKm":0.41},"geometry":{"type":"Point","coordinates":[-122.92535,42.63699]}},{"type":"Feature","properties":{"observedAt":"2026-07-16T21:29:00Z","satellite":"N20","instrument":"VIIRS","confidence":"n","frpMw":21.29,"brightnessI4K":348.99,"brightnessI5K":305.46,"dayNight":"D","scanKm":0.5,"trackKm":0.41},"geometry":{"type":"Point","coordinates":[-123.01501,42.6389]}},{"type":"Feature","properties":{"observedAt":"2026-07-16T21:29:00Z","satellite":"N20","instrument":"VIIRS","confidence":"n","frpMw":9.25,"brightnessI4K":334.11,"brightnessI5K":299.94,"dayNight":"D","scanKm":0.5,"trackKm":0.41},"geometry":{"type":"Point","coordinates":[-123.00941,42.6395]}},{"type":"Feature","properties":{"observedAt":"2026-07-16T21:29:00Z","satellite":"N20","instrument":"VIIRS","confidence":"n","frpMw":9.25,"brightnessI4K":332.52,"brightnessI5K":297.85,"dayNight":"D","scanKm":0.51,"trackKm":0.41},"geometry":{"type":"Point","coordinates":[-123.00361,42.64013]}},{"type":"Feature","properties":{"observedAt":"2026-07-16T21:29:00Z","satellite":"N20","instrument":"VIIRS","confidence":"n","frpMw":6.37,"brightnessI4K":348.4,"brightnessI5K":302.09,"dayNight":"D","scanKm":0.51,"trackKm":0.41},"geometry":{"type":"Point","coordinates":[-122.93181,42.64016]}},{"type":"Feature","properties":{"observedAt":"2026-07-16T21:29:00Z","satellite":"N20","instrument":"VIIRS","confidence":"n","frpMw":14.22,"brightnessI4K":347.63,"brightnessI5K":299.91,"dayNight":"D","scanKm":0.51,"trackKm":0.41},"geometry":{"type":"Point","coordinates":[-122.84982,42.64116]}},{"type":"Feature","properties":{"observedAt":"2026-07-16T21:29:00Z","satellite":"N20","instrument":"VIIRS","confidence":"l","frpMw":7.32,"brightnessI4K":331.44,"brightnessI5K":305.89,"dayNight":"D","scanKm":0.51,"trackKm":0.41},"geometry":{"type":"Point","coordinates":[-122.91462,42.64198]}},{"type":"Feature","properties":{"observedAt":"2026-07-16T21:29:00Z","satellite":"N20","instrument":"VIIRS","confidence":"n","frpMw":6.18,"brightnessI4K":337.71,"brightnessI5K":300.45,"dayNight":"D","scanKm":0.51,"trackKm":0.41},"geometry":{"type":"Point","coordinates":[-122.93266,42.64391]}},{"type":"Feature","properties":{"observedAt":"2026-07-16T21:29:00Z","satellite":"N20","instrument":"VIIRS","confidence":"n","frpMw":11.51,"brightnessI4K":347.36,"brightnessI5K":301.9,"dayNight":"D","scanKm":0.51,"trackKm":0.41},"geometry":{"type":"Point","coordinates":[-122.85062,42.64494]}},{"type":"Feature","properties":{"observedAt":"2026-07-16T21:29:00Z","satellite":"N20","instrument":"VIIRS","confidence":"l","frpMw":2.94,"brightnessI4K":330.46,"brightnessI5K":304.59,"dayNight":"D","scanKm":0.51,"trackKm":0.41},"geometry":{"type":"Point","coordinates":[-122.994,42.65266]}},{"type":"Feature","properties":{"observedAt":"2026-07-16T21:29:00Z","satellite":"N20","instrument":"VIIRS","confidence":"l","frpMw":2.66,"brightnessI4K":330.56,"brightnessI5K":302.14,"dayNight":"D","scanKm":0.51,"trackKm":0.41},"geometry":{"type":"Point","coordinates":[-122.98772,42.65334]}},{"type":"Feature","properties":{"observedAt":"2026-07-16T21:29:00Z","satellite":"N20","instrument":"VIIRS","confidence":"n","frpMw":12.27,"brightnessI4K":347.68,"brightnessI5K":304.0,"dayNight":"D","scanKm":0.51,"trackKm":0.41},"geometry":{"type":"Point","coordinates":[-122.93596,42.66278]}},{"type":"Feature","properties":{"observedAt":"2026-07-16T21:29:00Z","satellite":"N20","instrument":"VIIRS","confidence":"n","frpMw":6.06,"brightnessI4K":336.85,"brightnessI5K":301.12,"dayNight":"D","scanKm":0.51,"trackKm":0.41},"geometry":{"type":"Point","coordinates":[-122.90701,42.66588]}},{"type":"Feature","properties":{"observedAt":"2026-07-16T21:29:00Z","satellite":"N20","instrument":"VIIRS","confidence":"n","frpMw":11.18,"brightnessI4K":345.72,"brightnessI5K":306.06,"dayNight":"D","scanKm":0.51,"trackKm":0.41},"geometry":{"type":"Point","coordinates":[-122.92604,42.67154]}},{"type":"Feature","properties":{"observedAt":"2026-07-16T21:29:00Z","satellite":"N20","instrument":"VIIRS","confidence":"n","frpMw":95.8,"brightnessI4K":345.86,"brightnessI5K":308.32,"dayNight":"D","scanKm":0.51,"trackKm":0.41},"geometry":{"type":"Point","coordinates":[-122.92674,42.6753]}},{"type":"Feature","properties":{"observedAt":"2026-07-16T21:29:00Z","satellite":"N20","instrument":"VIIRS","confidence":"n","frpMw":4.85,"brightnessI4K":331.36,"brightnessI5K":298.69,"dayNight":"D","scanKm":0.51,"trackKm":0.41},"geometry":{"type":"Point","coordinates":[-122.95198,42.67642]}},{"type":"Feature","properties":{"observedAt":"2026-07-16T22:16:00Z","satellite":"N21","instrument":"VIIRS","confidence":"n","frpMw":8.74,"brightnessI4K":342.21,"brightnessI5K":299.14,"dayNight":"D","scanKm":0.72,"trackKm":0.76},"geometry":{"type":"Point","coordinates":[-123.0004,42.59481]}},{"type":"Feature","properties":{"observedAt":"2026-07-16T22:16:00Z","satellite":"N21","instrument":"VIIRS","confidence":"n","frpMw":9.09,"brightnessI4K":342.71,"brightnessI5K":299.2,"dayNight":"D","scanKm":0.72,"trackKm":0.75},"geometry":{"type":"Point","coordinates":[-123.00112,42.5959]}},{"type":"Feature","properties":{"observedAt":"2026-07-16T22:16:00Z","satellite":"N21","instrument":"VIIRS","confidence":"n","frpMw":20.9,"brightnessI4K":347.54,"brightnessI5K":304.0,"dayNight":"D","scanKm":0.72,"trackKm":0.75},"geometry":{"type":"Point","coordinates":[-123.02763,42.60881]}},{"type":"Feature","properties":{"observedAt":"2026-07-16T22:16:00Z","satellite":"N21","instrument":"VIIRS","confidence":"h","frpMw":20.9,"brightnessI4K":367.0,"brightnessI5K":299.72,"dayNight":"D","scanKm":0.72,"trackKm":0.75},"geometry":{"type":"Point","coordinates":[-123.03497,42.60884]}},{"type":"Feature","properties":{"observedAt":"2026-07-16T22:16:00Z","satellite":"N21","instrument":"VIIRS","confidence":"n","frpMw":36.49,"brightnessI4K":339.62,"brightnessI5K":297.77,"dayNight":"D","scanKm":0.72,"trackKm":0.75},"geometry":{"type":"Point","coordinates":[-123.036,42.60975]}},{"type":"Feature","properties":{"observedAt":"2026-07-16T22:16:00Z","satellite":"N21","instrument":"VIIRS","confidence":"h","frpMw":27.54,"brightnessI4K":367.0,"brightnessI5K":307.13,"dayNight":"D","scanKm":0.72,"trackKm":0.75},"geometry":{"type":"Point","coordinates":[-123.0291,42.60977]}},{"type":"Feature","properties":{"observedAt":"2026-07-16T22:16:00Z","satellite":"N21","instrument":"VIIRS","confidence":"n","frpMw":26.66,"brightnessI4K":345.67,"brightnessI5K":293.58,"dayNight":"D","scanKm":0.73,"trackKm":0.76},"geometry":{"type":"Point","coordinates":[-122.90368,42.61533]}},{"type":"Feature","properties":{"observedAt":"2026-07-16T22:16:00Z","satellite":"N21","instrument":"VIIRS","confidence":"n","frpMw":11.64,"brightnessI4K":347.9,"brightnessI5K":298.88,"dayNight":"D","scanKm":0.72,"trackKm":0.75},"geometry":{"type":"Point","coordinates":[-123.02989,42.61577]}},{"type":"Feature","properties":{"observedAt":"2026-07-16T22:16:00Z","satellite":"N21","instrument":"VIIRS","confidence":"n","frpMw":11.64,"brightnessI4K":339.54,"brightnessI5K":296.95,"dayNight":"D","scanKm":0.72,"trackKm":0.75},"geometry":{"type":"Point","coordinates":[-123.03575,42.61579]}},{"type":"Feature","properties":{"observedAt":"2026-07-16T22:16:00Z","satellite":"N21","instrument":"VIIRS","confidence":"n","frpMw":27.54,"brightnessI4K":344.12,"brightnessI5K":298.55,"dayNight":"D","scanKm":0.72,"trackKm":0.75},"geometry":{"type":"Point","coordinates":[-123.03072,42.61671]}},{"type":"Feature","properties":{"observedAt":"2026-07-16T22:16:00Z","satellite":"N21","instrument":"VIIRS","confidence":"n","frpMw":13.64,"brightnessI4K":339.58,"brightnessI5K":293.39,"dayNight":"D","scanKm":0.73,"trackKm":0.76},"geometry":{"type":"Point","coordinates":[-122.90528,42.61688]}},{"type":"Feature","properties":{"observedAt":"2026-07-16T22:16:00Z","satellite":"N21","instrument":"VIIRS","confidence":"n","frpMw":14.93,"brightnessI4K":338.47,"brightnessI5K":293.95,"dayNight":"D","scanKm":0.73,"trackKm":0.76},"geometry":{"type":"Point","coordinates":[-122.88935,42.61689]}},{"type":"Feature","properties":{"observedAt":"2026-07-16T22:16:00Z","satellite":"N21","instrument":"VIIRS","confidence":"n","frpMw":26.66,"brightnessI4K":351.81,"brightnessI5K":295.47,"dayNight":"D","scanKm":0.73,"trackKm":0.76},"geometry":{"type":"Point","coordinates":[-122.90311,42.62231]}},{"type":"Feature","properties":{"observedAt":"2026-07-16T22:16:00Z","satellite":"N21","instrument":"VIIRS","confidence":"n","frpMw":33.43,"brightnessI4K":355.1,"brightnessI5K":298.99,"dayNight":"D","scanKm":0.73,"trackKm":0.76},"geometry":{"type":"Point","coordinates":[-122.91319,42.62235]}},{"type":"Feature","properties":{"observedAt":"2026-07-16T22:16:00Z","satellite":"N21","instrument":"VIIRS","confidence":"n","frpMw":11.64,"brightnessI4K":325.16,"brightnessI5K":296.03,"dayNight":"D","scanKm":0.72,"trackKm":0.75},"geometry":{"type":"Point","coordinates":[-123.0303,42.62272]}},{"type":"Feature","properties":{"observedAt":"2026-07-16T22:16:00Z","satellite":"N21","instrument":"VIIRS","confidence":"n","frpMw":43.86,"brightnessI4K":351.75,"brightnessI5K":301.66,"dayNight":"D","scanKm":0.73,"trackKm":0.76},"geometry":{"type":"Point","coordinates":[-122.91375,42.62385]}},{"type":"Feature","properties":{"observedAt":"2026-07-16T22:16:00Z","satellite":"N21","instrument":"VIIRS","confidence":"h","frpMw":43.86,"brightnessI4K":367.0,"brightnessI5K":298.35,"dayNight":"D","scanKm":0.73,"trackKm":0.76},"geometry":{"type":"Point","coordinates":[-122.90386,42.62386]}},{"type":"Feature","properties":{"observedAt":"2026-07-16T22:16:00Z","satellite":"N21","instrument":"VIIRS","confidence":"h","frpMw":55.65,"brightnessI4K":367.0,"brightnessI5K":305.77,"dayNight":"D","scanKm":0.73,"trackKm":0.76},"geometry":{"type":"Point","coordinates":[-122.91159,42.62933]}},{"type":"Feature","properties":{"observedAt":"2026-07-16T22:16:00Z","satellite":"N21","instrument":"VIIRS","confidence":"h","frpMw":55.65,"brightnessI4K":367.0,"brightnessI5K":305.7,"dayNight":"D","scanKm":0.73,"trackKm":0.76},"geometry":{"type":"Point","coordinates":[-122.91921,42.62935]}},{"type":"Feature","properties":{"observedAt":"2026-07-16T22:16:00Z","satellite":"N21","instrument":"VIIRS","confidence":"n","frpMw":10.6,"brightnessI4K":342.93,"brightnessI5K":297.66,"dayNight":"D","scanKm":0.72,"trackKm":0.75},"geometry":{"type":"Point","coordinates":[-123.02914,42.62966]}},{"type":"Feature","properties":{"observedAt":"2026-07-16T22:16:00Z","satellite":"N21","instrument":"VIIRS","confidence":"n","frpMw":13.4,"brightnessI4K":337.97,"brightnessI5K":297.55,"dayNight":"D","scanKm":0.72,"trackKm":0.75},"geometry":{"type":"Point","coordinates":[-123.02976,42.6306]}},{"type":"Feature","properties":{"observedAt":"2026-07-16T22:16:00Z","satellite":"N21","instrument":"VIIRS","confidence":"h","frpMw":71.37,"brightnessI4K":367.0,"brightnessI5K":306.52,"dayNight":"D","scanKm":0.73,"trackKm":0.76},"geometry":{"type":"Point","coordinates":[-122.91994,42.63082]}},{"type":"Feature","properties":{"observedAt":"2026-07-16T22:16:00Z","satellite":"N21","instrument":"VIIRS","confidence":"h","frpMw":43.86,"brightnessI4K":367.0,"brightnessI5K":301.33,"dayNight":"D","scanKm":0.73,"trackKm":0.76},"geometry":{"type":"Point","coordinates":[-122.91267,42.63083]}},{"type":"Feature","properties":{"observedAt":"2026-07-16T22:16:00Z","satellite":"N21","instrument":"VIIRS","confidence":"n","frpMw":31.0,"brightnessI4K":326.66,"brightnessI5K":295.46,"dayNight":"D","scanKm":0.73,"trackKm":0.76},"geometry":{"type":"Point","coordinates":[-122.93188,42.63636]}},{"type":"Feature","properties":{"observedAt":"2026-07-16T22:16:00Z","satellite":"N21","instrument":"VIIRS","confidence":"n","frpMw":23.58,"brightnessI4K":343.34,"brightnessI5K":296.13,"dayNight":"D","scanKm":0.72,"trackKm":0.76},"geometry":{"type":"Point","coordinates":[-123.01106,42.63657]}},{"type":"Feature","properties":{"observedAt":"2026-07-16T22:16:00Z","satellite":"N21","instrument":"VIIRS","confidence":"h","frpMw":28.98,"brightnessI4K":367.0,"brightnessI5K":297.82,"dayNight":"D","scanKm":0.72,"trackKm":0.75},"geometry":{"type":"Point","coordinates":[-123.01706,42.63659]}},{"type":"Feature","properties":{"observedAt":"2026-07-16T22:16:00Z","satellite":"N21","instrument":"VIIRS","confidence":"n","frpMw":15.11,"brightnessI4K":346.26,"brightnessI5K":296.42,"dayNight":"D","scanKm":0.72,"trackKm":0.75},"geometry":{"type":"Point","coordinates":[-123.01759,42.63757]}},{"type":"Feature","properties":{"observedAt":"2026-07-16T22:16:00Z","satellite":"N21","instrument":"VIIRS","confidence":"n","frpMw":15.11,"brightnessI4K":352.85,"brightnessI5K":297.54,"dayNight":"D","scanKm":0.72,"trackKm":0.75},"geometry":{"type":"Point","coordinates":[-123.01168,42.63759]}},{"type":"Feature","properties":{"observedAt":"2026-07-16T22:16:00Z","satellite":"N21","instrument":"VIIRS","confidence":"l","frpMw":8.26,"brightnessI4K":327.85,"brightnessI5K":298.08,"dayNight":"D","scanKm":0.72,"trackKm":0.76},"geometry":{"type":"Point","coordinates":[-122.94035,42.66428]}},{"type":"Feature","properties":{"observedAt":"2026-07-16T22:16:00Z","satellite":"N21","instrument":"VIIRS","confidence":"h","frpMw":25.95,"brightnessI4K":367.0,"brightnessI5K":299.79,"dayNight":"D","scanKm":0.73,"trackKm":0.76},"geometry":{"type":"Point","coordinates":[-122.92678,42.67124]}},{"type":"Feature","properties":{"observedAt":"2026-07-16T22:16:00Z","satellite":"N21","instrument":"VIIRS","confidence":"n","frpMw":34.27,"brightnessI4K":355.3,"brightnessI5K":297.72,"dayNight":"D","scanKm":0.73,"trackKm":0.76},"geometry":{"type":"Point","coordinates":[-122.91972,42.67821]}},{"type":"Feature","properties":{"observedAt":"2026-07-16T22:16:00Z","satellite":"N21","instrument":"VIIRS","confidence":"h","frpMw":25.95,"brightnessI4K":367.0,"brightnessI5K":300.01,"dayNight":"D","scanKm":0.73,"trackKm":0.76},"geometry":{"type":"Point","coordinates":[-122.92693,42.67822]}},{"type":"Feature","properties":{"observedAt":"2026-07-16T21:10:00Z","satellite":"N","instrument":"VIIRS","confidence":"n","frpMw":8.89,"brightnessI4K":353.23,"brightnessI5K":312.54,"dayNight":"D","scanKm":0.39,"trackKm":0.36},"geometry":{"type":"Point","coordinates":[-123.00223,42.59372]}},{"type":"Feature","properties":{"observedAt":"2026-07-16T21:10:00Z","satellite":"N","instrument":"VIIRS","confidence":"n","frpMw":5.23,"brightnessI4K":340.79,"brightnessI5K":306.59,"dayNight":"D","scanKm":0.39,"trackKm":0.36},"geometry":{"type":"Point","coordinates":[-123.02493,42.60382]}},{"type":"Feature","properties":{"observedAt":"2026-07-16T21:10:00Z","satellite":"N","instrument":"VIIRS","confidence":"n","frpMw":9.28,"brightnessI4K":347.69,"brightnessI5K":309.97,"dayNight":"D","scanKm":0.39,"trackKm":0.36},"geometry":{"type":"Point","coordinates":[-123.0306,42.60635]}},{"type":"Feature","properties":{"observedAt":"2026-07-16T21:10:00Z","satellite":"N","instrument":"VIIRS","confidence":"n","frpMw":9.28,"brightnessI4K":339.67,"brightnessI5K":311.87,"dayNight":"D","scanKm":0.39,"trackKm":0.36},"geometry":{"type":"Point","coordinates":[-123.02586,42.60713]}},{"type":"Feature","properties":{"observedAt":"2026-07-16T21:10:00Z","satellite":"N","instrument":"VIIRS","confidence":"n","frpMw":9.28,"brightnessI4K":346.08,"brightnessI5K":314.88,"dayNight":"D","scanKm":0.39,"trackKm":0.36},"geometry":{"type":"Point","coordinates":[-123.03152,42.60965]}},{"type":"Feature","properties":{"observedAt":"2026-07-16T21:10:00Z","satellite":"N","instrument":"VIIRS","confidence":"n","frpMw":9.28,"brightnessI4K":336.95,"brightnessI5K":311.87,"dayNight":"D","scanKm":0.39,"trackKm":0.36},"geometry":{"type":"Point","coordinates":[-123.02677,42.61044]}},{"type":"Feature","properties":{"observedAt":"2026-07-16T21:10:00Z","satellite":"N","instrument":"VIIRS","confidence":"n","frpMw":7.57,"brightnessI4K":332.33,"brightnessI5K":302.27,"dayNight":"D","scanKm":0.39,"trackKm":0.36},"geometry":{"type":"Point","coordinates":[-123.03249,42.61296]}},{"type":"Feature","properties":{"observedAt":"2026-07-16T21:10:00Z","satellite":"N","instrument":"VIIRS","confidence":"n","frpMw":7.57,"brightnessI4K":334.19,"brightnessI5K":304.12,"dayNight":"D","scanKm":0.39,"trackKm":0.36},"geometry":{"type":"Point","coordinates":[-123.0277,42.61374]}},{"type":"Feature","properties":{"observedAt":"2026-07-16T21:10:00Z","satellite":"N","instrument":"VIIRS","confidence":"n","frpMw":7.57,"brightnessI4K":339.81,"brightnessI5K":306.5,"dayNight":"D","scanKm":0.39,"trackKm":0.36},"geometry":{"type":"Point","coordinates":[-123.03347,42.61625]}},{"type":"Feature","properties":{"observedAt":"2026-07-16T21:10:00Z","satellite":"N","instrument":"VIIRS","confidence":"n","frpMw":7.88,"brightnessI4K":332.5,"brightnessI5K":300.3,"dayNight":"D","scanKm":0.39,"trackKm":0.36},"geometry":{"type":"Point","coordinates":[-123.03445,42.61954]}},{"type":"Feature","properties":{"observedAt":"2026-07-16T21:10:00Z","satellite":"N","instrument":"VIIRS","confidence":"n","frpMw":7.88,"brightnessI4K":346.48,"brightnessI5K":304.54,"dayNight":"D","scanKm":0.39,"trackKm":0.36},"geometry":{"type":"Point","coordinates":[-123.02963,42.62033]}},{"type":"Feature","properties":{"observedAt":"2026-07-16T21:10:00Z","satellite":"N","instrument":"VIIRS","confidence":"l","frpMw":32.47,"brightnessI4K":315.43,"brightnessI5K":318.27,"dayNight":"D","scanKm":0.39,"trackKm":0.36},"geometry":{"type":"Point","coordinates":[-122.91215,42.62222]}},{"type":"Feature","properties":{"observedAt":"2026-07-16T21:10:00Z","satellite":"N","instrument":"VIIRS","confidence":"n","frpMw":2.63,"brightnessI4K":337.47,"brightnessI5K":299.74,"dayNight":"D","scanKm":0.39,"trackKm":0.36},"geometry":{"type":"Point","coordinates":[-123.02587,42.6244]}},{"type":"Feature","properties":{"observedAt":"2026-07-16T21:10:00Z","satellite":"N","instrument":"VIIRS","confidence":"h","frpMw":131.44,"brightnessI4K":367.0,"brightnessI5K":336.44,"dayNight":"D","scanKm":0.39,"trackKm":0.36},"geometry":{"type":"Point","coordinates":[-122.91318,42.6255]}},{"type":"Feature","properties":{"observedAt":"2026-07-16T21:10:00Z","satellite":"N","instrument":"VIIRS","confidence":"n","frpMw":5.38,"brightnessI4K":348.68,"brightnessI5K":304.54,"dayNight":"D","scanKm":0.39,"trackKm":0.36},"geometry":{"type":"Point","coordinates":[-123.02694,42.62768]}},{"type":"Feature","properties":{"observedAt":"2026-07-16T21:10:00Z","satellite":"N","instrument":"VIIRS","confidence":"h","frpMw":44.14,"brightnessI4K":367.0,"brightnessI5K":304.86,"dayNight":"D","scanKm":0.39,"trackKm":0.36},"geometry":{"type":"Point","coordinates":[-122.89929,42.62775]}},{"type":"Feature","properties":{"observedAt":"2026-07-16T21:10:00Z","satellite":"N","instrument":"VIIRS","confidence":"n","frpMw":12.32,"brightnessI4K":329.88,"brightnessI5K":295.92,"dayNight":"D","scanKm":0.39,"trackKm":0.36},"geometry":{"type":"Point","coordinates":[-123.00781,42.6308]}},{"type":"Feature","properties":{"observedAt":"2026-07-16T21:10:00Z","satellite":"N","instrument":"VIIRS","confidence":"n","frpMw":5.38,"brightnessI4K":349.33,"brightnessI5K":299.71,"dayNight":"D","scanKm":0.39,"trackKm":0.36},"geometry":{"type":"Point","coordinates":[-123.02798,42.63096]}},{"type":"Feature","properties":{"observedAt":"2026-07-16T21:10:00Z","satellite":"N","instrument":"VIIRS","confidence":"n","frpMw":5.38,"brightnessI4K":337.85,"brightnessI5K":300.19,"dayNight":"D","scanKm":0.39,"trackKm":0.36},"geometry":{"type":"Point","coordinates":[-123.02317,42.63174]}},{"type":"Feature","properties":{"observedAt":"2026-07-16T21:10:00Z","satellite":"N","instrument":"VIIRS","confidence":"l","frpMw":59.61,"brightnessI4K":337.4,"brightnessI5K":309.33,"dayNight":"D","scanKm":0.39,"trackKm":0.36},"geometry":{"type":"Point","coordinates":[-122.91518,42.63207]}},{"type":"Feature","properties":{"observedAt":"2026-07-16T21:10:00Z","satellite":"N","instrument":"VIIRS","confidence":"n","frpMw":9.22,"brightnessI4K":356.15,"brightnessI5K":303.85,"dayNight":"D","scanKm":0.39,"trackKm":0.36},"geometry":{"type":"Point","coordinates":[-123.01837,42.63253]}},{"type":"Feature","properties":{"observedAt":"2026-07-16T21:10:00Z","satellite":"N","instrument":"VIIRS","confidence":"h","frpMw":9.22,"brightnessI4K":367.0,"brightnessI5K":304.42,"dayNight":"D","scanKm":0.39,"trackKm":0.36},"geometry":{"type":"Point","coordinates":[-123.01358,42.63331]}},{"type":"Feature","properties":{"observedAt":"2026-07-16T21:10:00Z","satellite":"N","instrument":"VIIRS","confidence":"h","frpMw":12.32,"brightnessI4K":367.0,"brightnessI5K":306.27,"dayNight":"D","scanKm":0.39,"trackKm":0.36},"geometry":{"type":"Point","coordinates":[-123.00885,42.63408]}},{"type":"Feature","properties":{"observedAt":"2026-07-16T21:10:00Z","satellite":"N","instrument":"VIIRS","confidence":"n","frpMw":10.15,"brightnessI4K":332.43,"brightnessI5K":297.41,"dayNight":"D","scanKm":0.39,"trackKm":0.36},"geometry":{"type":"Point","coordinates":[-123.01942,42.63581]}},{"type":"Feature","properties":{"observedAt":"2026-07-16T21:10:00Z","satellite":"N","instrument":"VIIRS","confidence":"n","frpMw":10.15,"brightnessI4K":356.11,"brightnessI5K":308.33,"dayNight":"D","scanKm":0.39,"trackKm":0.36},"geometry":{"type":"Point","coordinates":[-123.01464,42.63659]}},{"type":"Feature","properties":{"observedAt":"2026-07-16T21:10:00Z","satellite":"N","instrument":"VIIRS","confidence":"n","frpMw":6.29,"brightnessI4K":350.39,"brightnessI5K":305.56,"dayNight":"D","scanKm":0.39,"trackKm":0.36},"geometry":{"type":"Point","coordinates":[-122.92666,42.63711]}},{"type":"Feature","properties":{"observedAt":"2026-07-16T21:10:00Z","satellite":"N","instrument":"VIIRS","confidence":"n","frpMw":15.0,"brightnessI4K":340.64,"brightnessI5K":301.78,"dayNight":"D","scanKm":0.39,"trackKm":0.36},"geometry":{"type":"Point","coordinates":[-123.00988,42.63737]}},{"type":"Feature","properties":{"observedAt":"2026-07-16T21:10:00Z","satellite":"N","instrument":"VIIRS","confidence":"n","frpMw":18.17,"brightnessI4K":340.96,"brightnessI5K":299.38,"dayNight":"D","scanKm":0.39,"trackKm":0.36},"geometry":{"type":"Point","coordinates":[-122.89744,42.6384]}},{"type":"Feature","properties":{"observedAt":"2026-07-16T21:10:00Z","satellite":"N","instrument":"VIIRS","confidence":"n","frpMw":10.15,"brightnessI4K":346.89,"brightnessI5K":300.56,"dayNight":"D","scanKm":0.39,"trackKm":0.36},"geometry":{"type":"Point","coordinates":[-123.01564,42.63988]}},{"type":"Feature","properties":{"observedAt":"2026-07-16T21:10:00Z","satellite":"N","instrument":"VIIRS","confidence":"n","frpMw":6.29,"brightnessI4K":336.96,"brightnessI5K":302.75,"dayNight":"D","scanKm":0.39,"trackKm":0.36},"geometry":{"type":"Point","coordinates":[-122.92764,42.6404]}},{"type":"Feature","properties":{"observedAt":"2026-07-16T21:10:00Z","satellite":"N","instrument":"VIIRS","confidence":"n","frpMw":15.0,"brightnessI4K":350.24,"brightnessI5K":301.48,"dayNight":"D","scanKm":0.39,"trackKm":0.36},"geometry":{"type":"Point","coordinates":[-123.00612,42.64143]}},{"type":"Feature","properties":{"observedAt":"2026-07-16T21:10:00Z","satellite":"N","instrument":"VIIRS","confidence":"n","frpMw":13.17,"brightnessI4K":349.06,"brightnessI5K":305.53,"dayNight":"D","scanKm":0.39,"trackKm":0.36},"geometry":{"type":"Point","coordinates":[-122.84988,42.64265]}},{"type":"Feature","properties":{"observedAt":"2026-07-16T21:10:00Z","satellite":"N","instrument":"VIIRS","confidence":"l","frpMw":6.16,"brightnessI4K":332.47,"brightnessI5K":306.79,"dayNight":"D","scanKm":0.39,"trackKm":0.36},"geometry":{"type":"Point","coordinates":[-122.91341,42.6427]}},{"type":"Feature","properties":{"observedAt":"2026-07-16T21:10:00Z","satellite":"N","instrument":"VIIRS","confidence":"n","frpMw":14.51,"brightnessI4K":347.17,"brightnessI5K":303.39,"dayNight":"D","scanKm":0.39,"trackKm":0.36},"geometry":{"type":"Point","coordinates":[-122.93333,42.64292]}},{"type":"Feature","properties":{"observedAt":"2026-07-16T21:10:00Z","satellite":"N","instrument":"VIIRS","confidence":"n","frpMw":13.17,"brightnessI4K":350.03,"brightnessI5K":305.54,"dayNight":"D","scanKm":0.39,"trackKm":0.36},"geometry":{"type":"Point","coordinates":[-122.85085,42.64594]}},{"type":"Feature","properties":{"observedAt":"2026-07-16T21:10:00Z","satellite":"N","instrument":"VIIRS","confidence":"n","frpMw":2.83,"brightnessI4K":330.61,"brightnessI5K":297.63,"dayNight":"D","scanKm":0.39,"trackKm":0.36},"geometry":{"type":"Point","coordinates":[-122.98365,42.64854]}},{"type":"Feature","properties":{"observedAt":"2026-07-16T21:10:00Z","satellite":"N","instrument":"VIIRS","confidence":"n","frpMw":6.8,"brightnessI4K":350.35,"brightnessI5K":309.9,"dayNight":"D","scanKm":0.39,"trackKm":0.36},"geometry":{"type":"Point","coordinates":[-122.98927,42.65107]}},{"type":"Feature","properties":{"observedAt":"2026-07-16T21:10:00Z","satellite":"N","instrument":"VIIRS","confidence":"n","frpMw":2.83,"brightnessI4K":334.19,"brightnessI5K":301.31,"dayNight":"D","scanKm":0.39,"trackKm":0.36},"geometry":{"type":"Point","coordinates":[-122.98463,42.65182]}},{"type":"Feature","properties":{"observedAt":"2026-07-16T21:10:00Z","satellite":"N","instrument":"VIIRS","confidence":"n","frpMw":2.83,"brightnessI4K":337.77,"brightnessI5K":297.42,"dayNight":"D","scanKm":0.39,"trackKm":0.36},"geometry":{"type":"Point","coordinates":[-122.98004,42.65258]}},{"type":"Feature","properties":{"observedAt":"2026-07-16T21:10:00Z","satellite":"N","instrument":"VIIRS","confidence":"l","frpMw":4.58,"brightnessI4K":332.21,"brightnessI5K":304.61,"dayNight":"D","scanKm":0.39,"trackKm":0.36},"geometry":{"type":"Point","coordinates":[-122.93359,42.66013]}},{"type":"Feature","properties":{"observedAt":"2026-07-16T21:10:00Z","satellite":"N","instrument":"VIIRS","confidence":"n","frpMw":13.35,"brightnessI4K":349.99,"brightnessI5K":304.55,"dayNight":"D","scanKm":0.39,"trackKm":0.36},"geometry":{"type":"Point","coordinates":[-122.93458,42.66342]}},{"type":"Feature","properties":{"observedAt":"2026-07-16T21:10:00Z","satellite":"N","instrument":"VIIRS","confidence":"n","frpMw":3.57,"brightnessI4K":333.6,"brightnessI5K":301.59,"dayNight":"D","scanKm":0.39,"trackKm":0.36},"geometry":{"type":"Point","coordinates":[-122.90517,42.66473]}},{"type":"Feature","properties":{"observedAt":"2026-07-16T21:10:00Z","satellite":"N","instrument":"VIIRS","confidence":"n","frpMw":3.22,"brightnessI4K":338.17,"brightnessI5K":301.89,"dayNight":"D","scanKm":0.39,"trackKm":0.36},"geometry":{"type":"Point","coordinates":[-122.9109,42.66724]}},{"type":"Feature","properties":{"observedAt":"2026-07-16T21:10:00Z","satellite":"N","instrument":"VIIRS","confidence":"n","frpMw":3.22,"brightnessI4K":335.52,"brightnessI5K":299.25,"dayNight":"D","scanKm":0.39,"trackKm":0.36},"geometry":{"type":"Point","coordinates":[-122.9062,42.66801]}},{"type":"Feature","properties":{"observedAt":"2026-07-16T21:10:00Z","satellite":"N","instrument":"VIIRS","confidence":"n","frpMw":17.87,"brightnessI4K":338.98,"brightnessI5K":303.6,"dayNight":"D","scanKm":0.39,"trackKm":0.36},"geometry":{"type":"Point","coordinates":[-122.92704,42.67154]}},{"type":"Feature","properties":{"observedAt":"2026-07-16T21:10:00Z","satellite":"N","instrument":"VIIRS","confidence":"n","frpMw":21.86,"brightnessI4K":333.83,"brightnessI5K":302.28,"dayNight":"D","scanKm":0.39,"trackKm":0.36},"geometry":{"type":"Point","coordinates":[-122.9176,42.67306]}},{"type":"Feature","properties":{"observedAt":"2026-07-16T21:10:00Z","satellite":"N","instrument":"VIIRS","confidence":"n","frpMw":5.79,"brightnessI4K":347.79,"brightnessI5K":303.23,"dayNight":"D","scanKm":0.39,"trackKm":0.36},"geometry":{"type":"Point","coordinates":[-122.95246,42.67432]}},{"type":"Feature","properties":{"observedAt":"2026-07-16T21:10:00Z","satellite":"N","instrument":"VIIRS","confidence":"n","frpMw":21.86,"brightnessI4K":356.22,"brightnessI5K":311.47,"dayNight":"D","scanKm":0.39,"trackKm":0.36},"geometry":{"type":"Point","coordinates":[-122.92329,42.67559]}},{"type":"Feature","properties":{"observedAt":"2026-07-16T21:10:00Z","satellite":"N","instrument":"VIIRS","confidence":"n","frpMw":5.79,"brightnessI4K":340.46,"brightnessI5K":298.73,"dayNight":"D","scanKm":0.39,"trackKm":0.36},"geometry":{"type":"Point","coordinates":[-122.95343,42.67761]}}]}
