{"type":"FeatureCollection","features":[{"type":"Feature","properties":{"promptIndex":0,"model":"facebook/sam2.1-hiera-tiny","sentinelComposite":"B12/B8A/B04","hotspotObservedAt":"2026-07-19T21:00:00Z","sentinelObservedAt":"2026-07-15T19:12:40.131000Z"},"geometry":{"type":"Polygon","coordinates":[[[-122.9361880125,42.626313875],[-122.9361880125,42.62436075],[-122.9350161375,42.62436075],[-122.9350161375,42.626313875],[-122.9361880125,42.626313875]]]}},{"type":"Feature","properties":{"promptIndex":0,"model":"facebook/sam2.1-hiera-tiny","sentinelComposite":"B12/B8A/B04","hotspotObservedAt":"2026-07-19T21:00:00Z","sentinelObservedAt":"2026-07-15T19:12:40.131000Z"},"geometry":{"type":"Polygon","coordinates":[[[-122.94028957500001,42.622017],[-122.94028957500001,42.621626375],[-122.9408755125,42.621626375],[-122.9408755125,42.62123575],[-122.94028957500001,42.62123575],[-122.94028957500001,42.620845125],[-122.9391177,42.620845125],[-122.9391177,42.62123575],[-122.9397036375,42.62123575],[-122.9397036375,42.622017],[-122.94028957500001,42.622017]]]}},{"type":"Feature","properties":{"promptIndex":0,"model":"facebook/sam2.1-hiera-tiny","sentinelComposite":"B12/B8A/B04","hotspotObservedAt":"2026-07-19T21:00:00Z","sentinelObservedAt":"2026-07-15T19:12:40.131000Z"},"geometry":{"type":"Polygon","coordinates":[[[-122.9033755125,42.62904825],[-122.9033755125,42.628657625],[-122.90396145,42.628657625],[-122.90396145,42.628267],[-122.907477075,42.628267],[-122.907477075,42.627876375],[-122.90864895,42.627876375],[-122.90864895,42.627095125],[-122.9080630125,42.627095125],[-122.9080630125,42.62436075],[-122.90864895,42.62436075],[-122.90864895,42.623970125],[-122.9092348875,42.623970125],[-122.9092348875,42.6235795],[-122.909820825,42.6235795],[-122.909820825,42.623188875],[-122.9104067625,42.623188875],[-122.9104067625,42.6235795],[-122.91099270000001,42.6235795],[-122.91099270000001,42.623970125],[-122.9115786375,42.623970125],[-122.9115786375,42.625532625],[-122.91099270000001,42.625532625],[-122.91099270000001,42.6267045],[-122.9104067625,42.6267045],[-122.9104067625,42.627095125],[-122.909820825,42.627095125],[-122.909820825,42.62748575],[-122.9104067625,42.62748575],[-122.9104067625,42.627876375],[-122.91099270000001,42.627876375],[-122.91099270000001,42.628267],[-122.91392238750001,42.628267],[-122.91392238750001,42.627876375],[-122.9156802,42.627876375],[-122.9156802,42.62592325],[-122.91685207500001,42.62592325],[-122.91685207500001,42.625532625],[-122.9203677,42.625532625],[-122.9203677,42.62592325],[-122.9221255125,42.62592325],[-122.9221255125,42.625532625],[-122.92271145000001,42.625532625],[-122.92271145000001,42.625142],[-122.9232973875,42.625142],[-122.9232973875,42.624751375],[-122.923883325,42.624751375],[-122.923883325,42.62436075],[-122.9250552,42.62436075],[-122.9250552,42.623970125],[-122.92564113750001,42.623970125],[-122.92564113750001,42.62279825],[-122.926227075,42.62279825],[-122.926227075,42.622017],[-122.9268130125,42.622017],[-122.9268130125,42.621626375],[-122.9279848875,42.621626375],[-122.9279848875,42.62123575],[-122.9291567625,42.62123575],[-122.9291567625,42.620845125],[-122.9297427,42.620845125],[-122.9297427,42.6204545],[-122.9303286375,42.6204545],[-122.9303286375,42.61967325],[-122.930914575,42.61967325],[-122.930914575,42.618892],[-122.93150051250001,42.618892],[-122.93150051250001,42.618501375],[-122.93208645,42.618501375],[-122.93208645,42.61654825],[-122.9326723875,42.61654825],[-122.9326723875,42.616157625],[-122.93443020000001,42.616157625],[-122.93443020000001,42.616938875],[-122.9350161375,42.616938875],[-122.9350161375,42.6204545],[-122.935602075,42.6204545],[-122.935602075,42.620845125],[-122.9361880125,42.620845125],[-122.9361880125,42.6204545],[-122.93735988750001,42.6204545],[-122.93735988750001,42.618892],[-122.937945825,42.618892],[-122.937945825,42.618501375],[-122.9385317625,42.618501375],[-122.9385317625,42.617720125],[-122.93677395,42.617720125],[-122.93677395,42.616938875],[-122.9361880125,42.616938875],[-122.9361880125,42.615767],[-122.9350161375,42.615767],[-122.9350161375,42.61498575],[-122.93677395,42.61498575],[-122.93677395,42.615376375],[-122.93735988750001,42.615376375],[-122.93735988750001,42.615767],[-122.9385317625,42.615767],[-122.9385317625,42.61654825],[-122.9391177,42.61654825],[-122.9391177,42.617720125],[-122.9408755125,42.617720125],[-122.9408755125,42.616938875],[-122.94146145,42.616938875],[-122.94146145,42.615767],[-122.9420473875,42.615767],[-122.9420473875,42.615376375],[-122.942633325,42.615376375],[-122.942633325,42.6142045],[-122.9420473875,42.6142045],[-122.9420473875,42.613813875],[-122.94146145,42.613813875],[-122.94146145,42.61342325],[-122.9420473875,42.61342325],[-122.9420473875,42.613032625],[-122.942633325,42.613032625],[-122.942633325,42.612642],[-122.94321926250001,42.612642],[-122.94321926250001,42.612251375],[-122.9438052,42.612251375],[-122.9438052,42.61186075],[-122.9443911375,42.61186075],[-122.9443911375,42.6110795],[-122.944977075,42.6110795],[-122.944977075,42.61029825],[-122.9455630125,42.61029825],[-122.9455630125,42.609907625],[-122.944977075,42.609907625],[-122.944977075,42.608345125],[-122.9443911375,42.608345125],[-122.9443911375,42.6079545],[-122.9438052,42.6079545],[-122.9438052,42.607563875],[-122.942633325,42.607563875],[-122.942633325,42.605220125],[-122.9420473875,42.605220125],[-122.9420473875,42.6048295],[-122.94146145,42.6048295],[-122.94146145,42.60404825],[-122.9408755125,42.60404825],[-122.9408755125,42.603267],[-122.9397036375,42.603267],[-122.9397036375,42.602876375],[-122.9391177,42.602876375],[-122.9391177,42.601313875],[-122.9385317625,42.601313875],[-122.9385317625,42.600532625],[-122.937945825,42.600532625],[-122.937945825,42.600142],[-122.93677395,42.600142],[-122.93677395,42.599751375],[-122.9361880125,42.599751375],[-122.9361880125,42.59936075],[-122.935602075,42.59936075],[-122.935602075,42.598970125],[-122.9350161375,42.598970125],[-122.9350161375,42.5985795],[-122.93443020000001,42.5985795],[-122.93443020000001,42.598188875],[-122.9338442625,42.598188875],[-122.9338442625,42.59779825],[-122.933258325,42.59779825],[-122.933258325,42.597017],[-122.9326723875,42.597017],[-122.9326723875,42.59623575],[-122.93208645,42.59623575],[-122.93208645,42.595845125],[-122.93150051250001,42.595845125],[-122.93150051250001,42.5954545],[-122.930914575,42.5954545],[-122.930914575,42.59467325],[-122.9303286375,42.59467325],[-122.9303286375,42.593501375],[-122.9297427,42.593501375],[-122.9297427,42.592720125],[-122.9291567625,42.592720125],[-122.9291567625,42.5923295],[-122.92857082500001,42.5923295],[-122.92857082500001,42.591938875],[-122.9279848875,42.591938875],[-122.9279848875,42.591548249999995],[-122.92739895,42.591548249999995],[-122.92739895,42.590767],[-122.9268130125,42.590767],[-122.9268130125,42.590376375],[-122.92564113750001,42.590376375],[-122.92564113750001,42.589595124999995],[-122.9250552,42.589595124999995],[-122.9250552,42.5892045],[-122.9244692625,42.5892045],[-122.9244692625,42.588813875],[-122.923883325,42.588813875],[-122.923883325,42.58842325],[-122.92271145000001,42.58842325],[-122.92271145000001,42.588032625],[-122.9221255125,42.588032625],[-122.9221255125,42.587641999999995],[-122.9209536375,42.587641999999995],[-122.9209536375,42.58686075],[-122.9203677,42.58686075],[-122.9203677,42.586470125],[-122.91978176250001,42.586470125],[-122.91978176250001,42.5860795],[-122.9186098875,42.5860795],[-122.9186098875,42.585688874999995],[-122.9174380125,42.585688874999995],[-122.9174380125,42.58529825],[-122.9162661375,42.58529825],[-122.9162661375,42.585688874999995],[-122.9150942625,42.585688874999995],[-122.9150942625,42.5860795],[-122.91333645,42.5860795],[-122.91333645,42.586470125],[-122.912164575,42.586470125],[-122.912164575,42.58686075],[-122.9115786375,42.58686075],[-122.9115786375,42.587251375],[-122.91099270000001,42.587251375],[-122.91099270000001,42.587641999999995],[-122.9104067625,42.587641999999995],[-122.9104067625,42.588032625],[-122.9092348875,42.588032625],[-122.9092348875,42.58842325],[-122.905133325,42.58842325],[-122.905133325,42.588032625],[-122.9033755125,42.588032625],[-122.9033755125,42.587641999999995],[-122.902789575,42.587641999999995],[-122.902789575,42.587251375],[-122.9022036375,42.587251375],[-122.9022036375,42.587641999999995],[-122.9010317625,42.587641999999995],[-122.9010317625,42.588032625],[-122.8998598875,42.588032625],[-122.8998598875,42.587641999999995],[-122.898102075,42.587641999999995],[-122.898102075,42.587251375],[-122.8969302,42.587251375],[-122.8969302,42.58686075],[-122.895758325,42.58686075],[-122.895758325,42.586470125],[-122.88989895,42.586470125],[-122.88989895,42.5860795],[-122.8875552,42.5860795],[-122.8875552,42.586470125],[-122.886383325,42.586470125],[-122.886383325,42.58686075],[-122.8857973875,42.58686075],[-122.8857973875,42.587251375],[-122.8846255125,42.587251375],[-122.8846255125,42.587641999999995],[-122.8834536375,42.587641999999995],[-122.8834536375,42.58842325],[-122.8828677,42.58842325],[-122.8828677,42.5923295],[-122.8822817625,42.5923295],[-122.8822817625,42.593892],[-122.8828677,42.593892],[-122.8828677,42.595063875],[-122.8834536375,42.595063875],[-122.8834536375,42.59779825],[-122.8828677,42.59779825],[-122.8828677,42.5985795],[-122.8822817625,42.5985795],[-122.8822817625,42.598970125],[-122.881695825,42.598970125],[-122.881695825,42.600142],[-122.8811098875,42.600142],[-122.8811098875,42.602095125],[-122.88052395,42.602095125],[-122.88052395,42.60248575],[-122.8811098875,42.60248575],[-122.8811098875,42.603267],[-122.881695825,42.603267],[-122.881695825,42.60561075],[-122.8811098875,42.60561075],[-122.8811098875,42.606392],[-122.88052395,42.606392],[-122.88052395,42.606782625],[-122.8799380125,42.606782625],[-122.8799380125,42.6079545],[-122.88052395,42.6079545],[-122.88052395,42.609517],[-122.8811098875,42.609517],[-122.8811098875,42.609907625],[-122.881695825,42.609907625],[-122.881695825,42.61342325],[-122.8811098875,42.61342325],[-122.8811098875,42.615376375],[-122.881695825,42.615376375],[-122.881695825,42.616157625],[-122.8822817625,42.616157625],[-122.8822817625,42.6173295],[-122.881695825,42.6173295],[-122.881695825,42.620845125],[-122.8822817625,42.620845125],[-122.8822817625,42.621626375],[-122.8828677,42.621626375],[-122.8828677,42.622407625],[-122.8834536375,42.622407625],[-122.8834536375,42.623188875],[-122.884039575,42.623188875],[-122.884039575,42.624751375],[-122.8834536375,42.624751375],[-122.8834536375,42.62592325],[-122.886383325,42.62592325],[-122.886383325,42.626313875],[-122.8881411375,42.626313875],[-122.8881411375,42.6267045],[-122.8893130125,42.6267045],[-122.8893130125,42.626313875],[-122.8916567625,42.626313875],[-122.8916567625,42.6267045],[-122.8922427,42.6267045],[-122.8922427,42.62748575],[-122.8928286375,42.62748575],[-122.8928286375,42.627876375],[-122.8969302,42.627876375],[-122.8969302,42.62748575],[-122.8975161375,42.62748575],[-122.8975161375,42.627095125],[-122.89927395,42.627095125],[-122.89927395,42.6267045],[-122.8998598875,42.6267045],[-122.8998598875,42.626313875],[-122.9010317625,42.626313875],[-122.9010317625,42.627095125],[-122.9016177,42.627095125],[-122.9016177,42.627876375],[-122.9022036375,42.627876375],[-122.9022036375,42.628267],[-122.902789575,42.628267],[-122.902789575,42.62904825],[-122.9033755125,42.62904825]]]}}]}
