{"type":"FeatureCollection","features":[{"type":"Feature","properties":{"promptIndex":0,"model":"facebook/sam2.1-hiera-tiny","sentinelComposite":"B12/B8A/B04","hotspotObservedAt":"2026-07-16T09:00:00Z","sentinelObservedAt":"2026-07-15T19:12:40.131000Z"},"geometry":{"type":"Polygon","coordinates":[[[-122.91978176250001,42.696626375],[-122.91978176250001,42.695845125],[-122.9174380125,42.695845125],[-122.9174380125,42.69623575],[-122.9186098875,42.69623575],[-122.9186098875,42.696626375],[-122.91978176250001,42.696626375]]]}},{"type":"Feature","properties":{"promptIndex":0,"model":"facebook/sam2.1-hiera-tiny","sentinelComposite":"B12/B8A/B04","hotspotObservedAt":"2026-07-16T09:00:00Z","sentinelObservedAt":"2026-07-15T19:12:40.131000Z"},"geometry":{"type":"Polygon","coordinates":[[[-122.9244692625,42.696626375],[-122.9244692625,42.695845125],[-122.923883325,42.695845125],[-122.923883325,42.6954545],[-122.9232973875,42.6954545],[-122.9232973875,42.695845125],[-122.92271145000001,42.695845125],[-122.92271145000001,42.69623575],[-122.9232973875,42.69623575],[-122.9232973875,42.696626375],[-122.9244692625,42.696626375]]]}},{"type":"Feature","properties":{"promptIndex":0,"model":"facebook/sam2.1-hiera-tiny","sentinelComposite":"B12/B8A/B04","hotspotObservedAt":"2026-07-16T09:00:00Z","sentinelObservedAt":"2026-07-15T19:12:40.131000Z"},"geometry":{"type":"Polygon","coordinates":[[[-122.8682192625,42.649751375],[-122.8682192625,42.648970125],[-122.867633325,42.648970125],[-122.867633325,42.64936075],[-122.8670473875,42.64936075],[-122.8670473875,42.649751375],[-122.8682192625,42.649751375]]]}},{"type":"Feature","properties":{"promptIndex":0,"model":"facebook/sam2.1-hiera-tiny","sentinelComposite":"B12/B8A/B04","hotspotObservedAt":"2026-07-16T09:00:00Z","sentinelObservedAt":"2026-07-15T19:12:40.131000Z"},"geometry":{"type":"Polygon","coordinates":[[[-122.9736880125,42.648188875],[-122.9736880125,42.647017],[-122.97251613750001,42.647017],[-122.97251613750001,42.648188875],[-122.9736880125,42.648188875]]]}},{"type":"Feature","properties":{"promptIndex":0,"model":"facebook/sam2.1-hiera-tiny","sentinelComposite":"B12/B8A/B04","hotspotObservedAt":"2026-07-16T09:00:00Z","sentinelObservedAt":"2026-07-15T19:12:40.131000Z"},"geometry":{"type":"Polygon","coordinates":[[[-122.8688052,42.646626375],[-122.8688052,42.64623575],[-122.867633325,42.64623575],[-122.867633325,42.646626375],[-122.8688052,42.646626375]]]}},{"type":"Feature","properties":{"promptIndex":0,"model":"facebook/sam2.1-hiera-tiny","sentinelComposite":"B12/B8A/B04","hotspotObservedAt":"2026-07-16T09:00:00Z","sentinelObservedAt":"2026-07-15T19:12:40.131000Z"},"geometry":{"type":"Polygon","coordinates":[[[-122.97427395,42.6423295],[-122.97427395,42.641938875],[-122.9748598875,42.641938875],[-122.9748598875,42.640767],[-122.97427395,42.640767],[-122.97427395,42.640376375],[-122.9713442625,42.640376375],[-122.9713442625,42.64154825],[-122.9719302,42.64154825],[-122.9719302,42.6423295],[-122.97427395,42.6423295]]]}},{"type":"Feature","properties":{"promptIndex":0,"model":"facebook/sam2.1-hiera-tiny","sentinelComposite":"B12/B8A/B04","hotspotObservedAt":"2026-07-16T09:00:00Z","sentinelObservedAt":"2026-07-15T19:12:40.131000Z"},"geometry":{"type":"Polygon","coordinates":[[[-122.9713442625,42.640376375],[-122.9713442625,42.639595125],[-122.9701723875,42.639595125],[-122.9701723875,42.640376375],[-122.9713442625,42.640376375]]]}},{"type":"Feature","properties":{"promptIndex":0,"model":"facebook/sam2.1-hiera-tiny","sentinelComposite":"B12/B8A/B04","hotspotObservedAt":"2026-07-16T09:00:00Z","sentinelObservedAt":"2026-07-15T19:12:40.131000Z"},"geometry":{"type":"Polygon","coordinates":[[[-122.980133325,42.64467325],[-122.980133325,42.643892],[-122.9807192625,42.643892],[-122.9807192625,42.642720125],[-122.980133325,42.642720125],[-122.980133325,42.6423295],[-122.9795473875,42.6423295],[-122.9795473875,42.641938875],[-122.97896145,42.641938875],[-122.97896145,42.63998575],[-122.97837551250001,42.63998575],[-122.97837551250001,42.6392045],[-122.977789575,42.6392045],[-122.977789575,42.63842325],[-122.9766177,42.63842325],[-122.9766177,42.6392045],[-122.97544582500001,42.6392045],[-122.97544582500001,42.639595125],[-122.9748598875,42.639595125],[-122.9748598875,42.640376375],[-122.9760317625,42.640376375],[-122.9760317625,42.642720125],[-122.9766177,42.642720125],[-122.9766177,42.64311075],[-122.9772036375,42.64311075],[-122.9772036375,42.643892],[-122.977789575,42.643892],[-122.977789575,42.64467325],[-122.980133325,42.64467325]]]}},{"type":"Feature","properties":{"promptIndex":0,"model":"facebook/sam2.1-hiera-tiny","sentinelComposite":"B12/B8A/B04","hotspotObservedAt":"2026-07-16T09:00:00Z","sentinelObservedAt":"2026-07-15T19:12:40.131000Z"},"geometry":{"type":"Polygon","coordinates":[[[-122.97427395,42.638813875],[-122.97427395,42.63842325],[-122.9736880125,42.63842325],[-122.9736880125,42.638032625],[-122.973102075,42.638032625],[-122.973102075,42.63842325],[-122.97251613750001,42.63842325],[-122.97251613750001,42.638813875],[-122.97427395,42.638813875]]]}},{"type":"Feature","properties":{"promptIndex":0,"model":"facebook/sam2.1-hiera-tiny","sentinelComposite":"B12/B8A/B04","hotspotObservedAt":"2026-07-16T09:00:00Z","sentinelObservedAt":"2026-07-15T19:12:40.131000Z"},"geometry":{"type":"Polygon","coordinates":[[[-122.954352075,42.623188875],[-122.954352075,42.62279825],[-122.9537661375,42.62279825],[-122.9537661375,42.623188875],[-122.954352075,42.623188875]]]}},{"type":"Feature","properties":{"promptIndex":0,"model":"facebook/sam2.1-hiera-tiny","sentinelComposite":"B12/B8A/B04","hotspotObservedAt":"2026-07-16T09:00:00Z","sentinelObservedAt":"2026-07-15T19:12:40.131000Z"},"geometry":{"type":"Polygon","coordinates":[[[-122.9104067625,42.601313875],[-122.9104067625,42.60092325],[-122.9092348875,42.60092325],[-122.9092348875,42.601313875],[-122.9104067625,42.601313875]]]}},{"type":"Feature","properties":{"promptIndex":0,"model":"facebook/sam2.1-hiera-tiny","sentinelComposite":"B12/B8A/B04","hotspotObservedAt":"2026-07-16T09:00:00Z","sentinelObservedAt":"2026-07-15T19:12:40.131000Z"},"geometry":{"type":"Polygon","coordinates":[[[-122.91392238750001,42.698188875],[-122.91392238750001,42.69779825],[-122.9150942625,42.69779825],[-122.9150942625,42.697407625000004],[-122.9156802,42.697407625000004],[-122.9156802,42.697017],[-122.9162661375,42.697017],[-122.9162661375,42.69623575],[-122.91685207500001,42.69623575],[-122.91685207500001,42.6954545],[-122.9162661375,42.6954545],[-122.9162661375,42.695063875],[-122.91333645,42.695063875],[-122.91333645,42.693892],[-122.91392238750001,42.693892],[-122.91392238750001,42.693501375],[-122.9150942625,42.693501375],[-122.9150942625,42.69311075],[-122.9162661375,42.69311075],[-122.9162661375,42.692720125],[-122.9174380125,42.692720125],[-122.9174380125,42.6923295],[-122.91802395,42.6923295],[-122.91802395,42.691938875],[-122.9186098875,42.691938875],[-122.9186098875,42.69154825],[-122.92271145000001,42.69154825],[-122.92271145000001,42.6923295],[-122.9232973875,42.6923295],[-122.9232973875,42.693501375],[-122.92564113750001,42.693501375],[-122.92564113750001,42.693892],[-122.9291567625,42.693892],[-122.9291567625,42.694282625],[-122.9297427,42.694282625],[-122.9297427,42.69467325],[-122.9303286375,42.69467325],[-122.9303286375,42.695063875],[-122.93150051250001,42.695063875],[-122.93150051250001,42.69467325],[-122.933258325,42.69467325],[-122.933258325,42.694282625],[-122.9338442625,42.694282625],[-122.9338442625,42.693892],[-122.93443020000001,42.693892],[-122.93443020000001,42.693501375],[-122.9350161375,42.693501375],[-122.9350161375,42.69311075],[-122.935602075,42.69311075],[-122.935602075,42.692720125],[-122.9361880125,42.692720125],[-122.9361880125,42.69311075],[-122.9385317625,42.69311075],[-122.9385317625,42.6923295],[-122.9397036375,42.6923295],[-122.9397036375,42.691938875],[-122.94614895000001,42.691938875],[-122.94614895000001,42.69154825],[-122.947320825,42.69154825],[-122.947320825,42.6923295],[-122.9479067625,42.6923295],[-122.9479067625,42.69311075],[-122.94907863750001,42.69311075],[-122.94907863750001,42.693501375],[-122.949664575,42.693501375],[-122.949664575,42.693892],[-122.9502505125,42.693892],[-122.9502505125,42.693501375],[-122.9514223875,42.693501375],[-122.9514223875,42.69311075],[-122.95200832500001,42.69311075],[-122.95200832500001,42.693501375],[-122.9537661375,42.693501375],[-122.9537661375,42.693892],[-122.954352075,42.693892],[-122.954352075,42.693501375],[-122.95552395,42.693501375],[-122.95552395,42.69311075],[-122.956695825,42.69311075],[-122.956695825,42.692720125],[-122.9572817625,42.692720125],[-122.9572817625,42.6923295],[-122.95786770000001,42.6923295],[-122.95786770000001,42.691938875],[-122.9584536375,42.691938875],[-122.9584536375,42.69154825],[-122.959039575,42.69154825],[-122.959039575,42.691157625],[-122.96021145,42.691157625],[-122.96021145,42.690767],[-122.96079738750001,42.690767],[-122.96079738750001,42.690376375],[-122.961383325,42.690376375],[-122.961383325,42.689595125],[-122.96021145,42.689595125],[-122.96021145,42.6892045],[-122.9596255125,42.6892045],[-122.9596255125,42.688813875],[-122.959039575,42.688813875],[-122.959039575,42.688032625],[-122.9596255125,42.688032625],[-122.9596255125,42.687251375],[-122.96021145,42.687251375],[-122.96021145,42.68686075],[-122.96079738750001,42.68686075],[-122.96079738750001,42.68529825],[-122.961383325,42.68529825],[-122.961383325,42.683345125],[-122.96079738750001,42.683345125],[-122.96079738750001,42.6829545],[-122.96021145,42.6829545],[-122.96021145,42.682563875],[-122.959039575,42.682563875],[-122.959039575,42.68217325],[-122.956695825,42.68217325],[-122.956695825,42.681782625],[-122.9584536375,42.681782625],[-122.9584536375,42.681392],[-122.959039575,42.681392],[-122.959039575,42.681001375],[-122.9596255125,42.681001375],[-122.9596255125,42.68061075],[-122.96079738750001,42.68061075],[-122.96079738750001,42.680220125],[-122.961383325,42.680220125],[-122.961383325,42.6798295],[-122.9619692625,42.6798295],[-122.9619692625,42.675532625],[-122.9625552,42.675532625],[-122.9625552,42.670845125],[-122.9631411375,42.670845125],[-122.9631411375,42.6673295],[-122.96372707500001,42.6673295],[-122.96372707500001,42.666938875],[-122.9643130125,42.666938875],[-122.9643130125,42.665376375],[-122.96372707500001,42.665376375],[-122.96372707500001,42.66498575],[-122.9643130125,42.66498575],[-122.9643130125,42.6642045],[-122.96489895,42.6642045],[-122.96489895,42.663813875],[-122.9654848875,42.663813875],[-122.9654848875,42.663032625],[-122.966070825,42.663032625],[-122.966070825,42.662251375],[-122.96665676250001,42.662251375],[-122.96665676250001,42.660688875],[-122.9672427,42.660688875],[-122.9672427,42.66029825],[-122.9678286375,42.66029825],[-122.9678286375,42.658345125],[-122.96958645000001,42.658345125],[-122.96958645000001,42.6579545],[-122.9713442625,42.6579545],[-122.9713442625,42.657563875],[-122.97251613750001,42.657563875],[-122.97251613750001,42.65717325],[-122.973102075,42.65717325],[-122.973102075,42.652876375],[-122.97251613750001,42.652876375],[-122.97251613750001,42.652095125],[-122.9713442625,42.652095125],[-122.9713442625,42.6517045],[-122.9701723875,42.6517045],[-122.9701723875,42.651313875],[-122.96958645000001,42.651313875],[-122.96958645000001,42.650532625],[-122.9690005125,42.650532625],[-122.9690005125,42.649751375],[-122.968414575,42.649751375],[-122.968414575,42.648970125],[-122.9690005125,42.648970125],[-122.9690005125,42.6485795],[-122.96958645000001,42.6485795],[-122.96958645000001,42.647407625],[-122.9690005125,42.647407625],[-122.9690005125,42.647017],[-122.96665676250001,42.647017],[-122.96665676250001,42.648188875],[-122.9654848875,42.648188875],[-122.9654848875,42.647407625],[-122.96489895,42.647407625],[-122.96489895,42.647017],[-122.96372707500001,42.647017],[-122.96372707500001,42.646626375],[-122.9631411375,42.646626375],[-122.9631411375,42.645845125],[-122.96372707500001,42.645845125],[-122.96372707500001,42.6454545],[-122.96489895,42.6454545],[-122.96489895,42.645845125],[-122.9654848875,42.645845125],[-122.9654848875,42.64623575],[-122.966070825,42.64623575],[-122.966070825,42.645845125],[-122.96665676250001,42.645845125],[-122.96665676250001,42.645063875],[-122.9672427,42.645063875],[-122.9672427,42.643892],[-122.96665676250001,42.643892],[-122.96665676250001,42.642720125],[-122.9672427,42.642720125],[-122.9672427,42.6423295],[-122.968414575,42.6423295],[-122.968414575,42.641938875],[-122.96958645000001,42.641938875],[-122.96958645000001,42.640767],[-122.968414575,42.640767],[-122.968414575,42.640376375],[-122.9678286375,42.640376375],[-122.9678286375,42.638813875],[-122.968414575,42.638813875],[-122.968414575,42.63842325],[-122.96665676250001,42.63842325],[-122.96665676250001,42.638032625],[-122.96489895,42.638032625],[-122.96489895,42.637642],[-122.96372707500001,42.637642],[-122.96372707500001,42.637251375],[-122.9631411375,42.637251375],[-122.9631411375,42.63686075],[-122.9625552,42.63686075],[-122.9625552,42.636470125],[-122.9619692625,42.636470125],[-122.9619692625,42.6360795],[-122.961383325,42.6360795],[-122.961383325,42.635688875],[-122.96021145,42.635688875],[-122.96021145,42.63529825],[-122.9596255125,42.63529825],[-122.9596255125,42.634517],[-122.959039575,42.634517],[-122.959039575,42.63373575],[-122.9584536375,42.63373575],[-122.9584536375,42.6329545],[-122.95786770000001,42.6329545],[-122.95786770000001,42.632563875],[-122.9572817625,42.632563875],[-122.9572817625,42.631782625],[-122.956695825,42.631782625],[-122.956695825,42.631392],[-122.9561098875,42.631392],[-122.9561098875,42.631001375],[-122.95552395,42.631001375],[-122.95552395,42.629438875],[-122.95493801250001,42.629438875],[-122.95493801250001,42.628267],[-122.9537661375,42.628267],[-122.9537661375,42.627876375],[-122.9525942625,42.627876375],[-122.9525942625,42.6267045],[-122.9531802,42.6267045],[-122.9531802,42.62436075],[-122.9525942625,42.62436075],[-122.9525942625,42.6235795],[-122.9514223875,42.6235795],[-122.9514223875,42.623188875],[-122.95083645,42.623188875],[-122.95083645,42.62279825],[-122.9502505125,42.62279825],[-122.9502505125,42.622407625],[-122.95083645,42.622407625],[-122.95083645,42.622017],[-122.9525942625,42.622017],[-122.9525942625,42.620845125],[-122.9531802,42.620845125],[-122.9531802,42.620063875],[-122.9537661375,42.620063875],[-122.9537661375,42.618892],[-122.9531802,42.618892],[-122.9531802,42.617720125],[-122.9537661375,42.617720125],[-122.9537661375,42.6173295],[-122.95493801250001,42.6173295],[-122.95493801250001,42.615767],[-122.954352075,42.615767],[-122.954352075,42.615376375],[-122.9537661375,42.615376375],[-122.9537661375,42.61498575],[-122.9531802,42.61498575],[-122.9531802,42.614595125],[-122.9525942625,42.614595125],[-122.9525942625,42.6142045],[-122.95200832500001,42.6142045],[-122.95200832500001,42.613813875],[-122.949664575,42.613813875],[-122.949664575,42.61342325],[-122.94907863750001,42.61342325],[-122.94907863750001,42.610688875],[-122.949664575,42.610688875],[-122.949664575,42.61029825],[-122.94907863750001,42.61029825],[-122.94907863750001,42.609907625],[-122.9484927,42.609907625],[-122.9484927,42.609517],[-122.9479067625,42.609517],[-122.9479067625,42.60873575],[-122.947320825,42.60873575],[-122.947320825,42.608345125],[-122.9479067625,42.608345125],[-122.9479067625,42.60717325],[-122.944977075,42.60717325],[-122.944977075,42.606782625],[-122.9443911375,42.606782625],[-122.9443911375,42.606392],[-122.9438052,42.606392],[-122.9438052,42.606001375],[-122.94321926250001,42.606001375],[-122.94321926250001,42.60561075],[-122.9397036375,42.60561075],[-122.9397036375,42.605220125],[-122.9391177,42.605220125],[-122.9391177,42.6048295],[-122.93735988750001,42.6048295],[-122.93735988750001,42.604438875],[-122.93677395,42.604438875],[-122.93677395,42.60404825],[-122.9361880125,42.60404825],[-122.9361880125,42.603657625],[-122.9350161375,42.603657625],[-122.9350161375,42.60404825],[-122.93443020000001,42.60404825],[-122.93443020000001,42.604438875],[-122.9338442625,42.604438875],[-122.9338442625,42.6048295],[-122.93208645,42.6048295],[-122.93208645,42.603657625],[-122.93150051250001,42.603657625],[-122.93150051250001,42.603267],[-122.930914575,42.603267],[-122.930914575,42.602876375],[-122.9297427,42.602876375],[-122.9297427,42.602095125],[-122.9303286375,42.602095125],[-122.9303286375,42.6017045],[-122.930914575,42.6017045],[-122.930914575,42.601313875],[-122.93150051250001,42.601313875],[-122.93150051250001,42.60092325],[-122.930914575,42.60092325],[-122.930914575,42.600532625],[-122.9297427,42.600532625],[-122.9297427,42.600142],[-122.9291567625,42.600142],[-122.9291567625,42.599751375],[-122.92857082500001,42.599751375],[-122.92857082500001,42.59936075],[-122.9250552,42.59936075],[-122.9250552,42.599751375],[-122.923883325,42.599751375],[-122.923883325,42.600142],[-122.9209536375,42.600142],[-122.9209536375,42.600532625],[-122.9203677,42.600532625],[-122.9203677,42.601313875],[-122.9209536375,42.601313875],[-122.9209536375,42.602095125],[-122.921539575,42.602095125],[-122.921539575,42.602876375],[-122.9209536375,42.602876375],[-122.9209536375,42.603267],[-122.9203677,42.603267],[-122.9203677,42.6048295],[-122.91978176250001,42.6048295],[-122.91978176250001,42.605220125],[-122.919195825,42.605220125],[-122.919195825,42.60561075],[-122.9186098875,42.60561075],[-122.9186098875,42.606001375],[-122.9174380125,42.606001375],[-122.9174380125,42.606392],[-122.9150942625,42.606392],[-122.9150942625,42.606782625],[-122.914508325,42.606782625],[-122.914508325,42.606392],[-122.91392238750001,42.606392],[-122.91392238750001,42.606001375],[-122.91333645,42.606001375],[-122.91333645,42.60561075],[-122.9127505125,42.60561075],[-122.9127505125,42.605220125],[-122.912164575,42.605220125],[-122.912164575,42.6048295],[-122.9115786375,42.6048295],[-122.9115786375,42.60404825],[-122.91099270000001,42.60404825],[-122.91099270000001,42.603657625],[-122.9104067625,42.603657625],[-122.9104067625,42.603267],[-122.909820825,42.603267],[-122.909820825,42.602876375],[-122.90864895,42.602876375],[-122.90864895,42.60248575],[-122.9068911375,42.60248575],[-122.9068911375,42.601313875],[-122.9063052,42.601313875],[-122.9063052,42.60092325],[-122.900445825,42.60092325],[-122.900445825,42.600532625],[-122.8963442625,42.600532625],[-122.8963442625,42.60092325],[-122.895758325,42.60092325],[-122.895758325,42.601313875],[-122.8963442625,42.601313875],[-122.8963442625,42.603267],[-122.895758325,42.603267],[-122.895758325,42.60404825],[-122.8951723875,42.60404825],[-122.8951723875,42.603657625],[-122.8922427,42.603657625],[-122.8922427,42.60404825],[-122.88989895,42.60404825],[-122.88989895,42.603657625],[-122.888727075,42.603657625],[-122.888727075,42.60404825],[-122.8881411375,42.60404825],[-122.8881411375,42.604438875],[-122.8875552,42.604438875],[-122.8875552,42.6048295],[-122.8869692625,42.6048295],[-122.8869692625,42.605220125],[-122.8846255125,42.605220125],[-122.8846255125,42.60561075],[-122.884039575,42.60561075],[-122.884039575,42.606001375],[-122.8834536375,42.606001375],[-122.8834536375,42.606392],[-122.8828677,42.606392],[-122.8828677,42.606782625],[-122.8811098875,42.606782625],[-122.8811098875,42.60717325],[-122.88052395,42.60717325],[-122.88052395,42.607563875],[-122.8811098875,42.607563875],[-122.8811098875,42.609907625],[-122.88052395,42.609907625],[-122.88052395,42.61029825],[-122.877008325,42.61029825],[-122.877008325,42.610688875],[-122.8740786375,42.610688875],[-122.8740786375,42.6110795],[-122.8729067625,42.6110795],[-122.8729067625,42.611470125],[-122.872320825,42.611470125],[-122.872320825,42.614595125],[-122.8717348875,42.614595125],[-122.8717348875,42.615376375],[-122.872320825,42.615376375],[-122.872320825,42.615767],[-122.8729067625,42.615767],[-122.8729067625,42.616938875],[-122.872320825,42.616938875],[-122.872320825,42.6173295],[-122.87114895,42.6173295],[-122.87114895,42.617720125],[-122.8705630125,42.617720125],[-122.8705630125,42.61811075],[-122.87114895,42.61811075],[-122.87114895,42.618892],[-122.8717348875,42.618892],[-122.8717348875,42.619282625],[-122.872320825,42.619282625],[-122.872320825,42.620063875],[-122.8729067625,42.620063875],[-122.8729067625,42.620845125],[-122.8740786375,42.620845125],[-122.8740786375,42.624751375],[-122.874664575,42.624751375],[-122.874664575,42.626313875],[-122.8752505125,42.626313875],[-122.8752505125,42.627095125],[-122.87583645,42.627095125],[-122.87583645,42.62748575],[-122.8764223875,42.62748575],[-122.8764223875,42.627876375],[-122.8775942625,42.627876375],[-122.8775942625,42.62748575],[-122.8781802,42.62748575],[-122.8781802,42.627095125],[-122.8799380125,42.627095125],[-122.8799380125,42.628267],[-122.879352075,42.628267],[-122.879352075,42.628657625],[-122.8781802,42.628657625],[-122.8781802,42.629438875],[-122.87583645,42.629438875],[-122.87583645,42.62904825],[-122.8752505125,42.62904825],[-122.8752505125,42.628657625],[-122.874664575,42.628657625],[-122.874664575,42.62904825],[-122.8740786375,42.62904825],[-122.8740786375,42.629438875],[-122.8734927,42.629438875],[-122.8734927,42.6298295],[-122.8729067625,42.6298295],[-122.8729067625,42.630220125],[-122.872320825,42.630220125],[-122.872320825,42.633345125],[-122.8729067625,42.633345125],[-122.8729067625,42.634126375],[-122.8734927,42.634126375],[-122.8734927,42.634907625],[-122.8740786375,42.634907625],[-122.8740786375,42.6360795],[-122.874664575,42.6360795],[-122.874664575,42.640376375],[-122.8740786375,42.640376375],[-122.8740786375,42.642720125],[-122.874664575,42.642720125],[-122.874664575,42.643501375],[-122.8752505125,42.643501375],[-122.8752505125,42.644282625],[-122.87583645,42.644282625],[-122.87583645,42.645063875],[-122.8752505125,42.645063875],[-122.8752505125,42.645845125],[-122.874664575,42.645845125],[-122.874664575,42.64623575],[-122.8740786375,42.64623575],[-122.8740786375,42.645845125],[-122.8734927,42.645845125],[-122.8734927,42.6454545],[-122.8717348875,42.6454545],[-122.8717348875,42.645845125],[-122.87114895,42.645845125],[-122.87114895,42.64623575],[-122.8705630125,42.64623575],[-122.8705630125,42.646626375],[-122.8688052,42.646626375],[-122.8688052,42.6485795],[-122.8705630125,42.6485795],[-122.8705630125,42.648188875],[-122.87114895,42.648188875],[-122.87114895,42.647017],[-122.8734927,42.647017],[-122.8734927,42.648188875],[-122.874664575,42.648188875],[-122.874664575,42.6485795],[-122.8752505125,42.6485795],[-122.8752505125,42.650532625],[-122.874664575,42.650532625],[-122.874664575,42.6517045],[-122.8717348875,42.6517045],[-122.8717348875,42.652095125],[-122.87114895,42.652095125],[-122.87114895,42.652876375],[-122.8717348875,42.652876375],[-122.8717348875,42.653267],[-122.872320825,42.653267],[-122.872320825,42.653657625],[-122.8729067625,42.653657625],[-122.8729067625,42.65561075],[-122.8740786375,42.65561075],[-122.8740786375,42.656001375],[-122.874664575,42.656001375],[-122.874664575,42.656392],[-122.8752505125,42.656392],[-122.8752505125,42.656782625],[-122.87583645,42.656782625],[-122.87583645,42.657563875],[-122.8752505125,42.657563875],[-122.8752505125,42.6579545],[-122.874664575,42.6579545],[-122.874664575,42.658345125],[-122.8734927,42.658345125],[-122.8734927,42.659907625],[-122.8740786375,42.659907625],[-122.8740786375,42.661470125],[-122.874664575,42.661470125],[-122.874664575,42.66342325],[-122.8752505125,42.66342325],[-122.8752505125,42.666157625],[-122.8764223875,42.666157625],[-122.8764223875,42.666938875],[-122.87583645,42.666938875],[-122.87583645,42.6673295],[-122.8752505125,42.6673295],[-122.8752505125,42.668501375],[-122.87583645,42.668501375],[-122.87583645,42.670063875],[-122.8752505125,42.670063875],[-122.8752505125,42.670845125],[-122.874664575,42.670845125],[-122.874664575,42.67123575],[-122.8740786375,42.67123575],[-122.8740786375,42.670845125],[-122.8734927,42.670845125],[-122.8734927,42.6704545],[-122.872320825,42.6704545],[-122.872320825,42.671626375],[-122.874664575,42.671626375],[-122.874664575,42.6735795],[-122.8740786375,42.6735795],[-122.8740786375,42.675532625],[-122.874664575,42.675532625],[-122.874664575,42.67592325],[-122.8740786375,42.67592325],[-122.8740786375,42.676313875],[-122.8734927,42.676313875],[-122.8734927,42.677095125],[-122.8729067625,42.677095125],[-122.8729067625,42.67748575],[-122.8734927,42.67748575],[-122.8734927,42.678267],[-122.8740786375,42.678267],[-122.8740786375,42.678657625],[-122.874664575,42.678657625],[-122.874664575,42.67904825],[-122.8787661375,42.67904825],[-122.8787661375,42.678657625],[-122.879352075,42.678657625],[-122.879352075,42.67904825],[-122.8799380125,42.67904825],[-122.8799380125,42.6798295],[-122.8811098875,42.6798295],[-122.8811098875,42.680220125],[-122.8822817625,42.680220125],[-122.8822817625,42.68061075],[-122.8828677,42.68061075],[-122.8828677,42.683345125],[-122.8822817625,42.683345125],[-122.8822817625,42.68373575],[-122.8828677,42.68373575],[-122.8828677,42.688813875],[-122.8822817625,42.688813875],[-122.8822817625,42.68998575],[-122.881695825,42.68998575],[-122.881695825,42.690376375],[-122.8822817625,42.690376375],[-122.8822817625,42.69311075],[-122.8828677,42.69311075],[-122.8828677,42.693501375],[-122.8834536375,42.693501375],[-122.8834536375,42.693892],[-122.8846255125,42.693892],[-122.8846255125,42.693501375],[-122.8857973875,42.693501375],[-122.8857973875,42.69311075],[-122.886383325,42.69311075],[-122.886383325,42.692720125],[-122.8875552,42.692720125],[-122.8875552,42.6923295],[-122.8893130125,42.6923295],[-122.8893130125,42.691938875],[-122.88989895,42.691938875],[-122.88989895,42.69154825],[-122.8904848875,42.69154825],[-122.8904848875,42.691157625],[-122.8916567625,42.691157625],[-122.8916567625,42.69154825],[-122.8922427,42.69154825],[-122.8922427,42.694282625],[-122.8928286375,42.694282625],[-122.8928286375,42.695063875],[-122.8951723875,42.695063875],[-122.8951723875,42.69467325],[-122.898102075,42.69467325],[-122.898102075,42.694282625],[-122.9016177,42.694282625],[-122.9016177,42.695063875],[-122.9022036375,42.695063875],[-122.9022036375,42.696626375],[-122.902789575,42.696626375],[-122.902789575,42.697407625000004],[-122.9033755125,42.697407625000004],[-122.9033755125,42.697017],[-122.9063052,42.697017],[-122.9063052,42.69779825],[-122.9068911375,42.69779825],[-122.9068911375,42.698188875],[-122.9080630125,42.698188875],[-122.9080630125,42.69779825],[-122.90864895,42.69779825],[-122.90864895,42.697407625000004],[-122.9092348875,42.697407625000004],[-122.9092348875,42.697017],[-122.909820825,42.697017],[-122.909820825,42.697407625000004],[-122.91099270000001,42.697407625000004],[-122.91099270000001,42.69779825],[-122.912164575,42.69779825],[-122.912164575,42.698188875],[-122.91392238750001,42.698188875]],[[-122.9080630125,42.6954545],[-122.9063052,42.6954545],[-122.9063052,42.695063875],[-122.90396145,42.695063875],[-122.90396145,42.694282625],[-122.9033755125,42.694282625],[-122.9033755125,42.693892],[-122.902789575,42.693892],[-122.902789575,42.693501375],[-122.9022036375,42.693501375],[-122.9022036375,42.69311075],[-122.902789575,42.69311075],[-122.902789575,42.692720125],[-122.90396145,42.692720125],[-122.90396145,42.69311075],[-122.90864895,42.69311075],[-122.90864895,42.693501375],[-122.9092348875,42.693501375],[-122.9092348875,42.693892],[-122.9104067625,42.693892],[-122.9104067625,42.695063875],[-122.9080630125,42.695063875],[-122.9080630125,42.6954545]],[[-122.9057192625,42.688813875],[-122.9045473875,42.688813875],[-122.9045473875,42.688032625],[-122.9057192625,42.688032625],[-122.9057192625,42.688813875]],[[-122.905133325,42.6829545],[-122.9045473875,42.6829545],[-122.9045473875,42.682563875],[-122.9033755125,42.682563875],[-122.9033755125,42.68217325],[-122.902789575,42.68217325],[-122.902789575,42.681782625],[-122.9022036375,42.681782625],[-122.9022036375,42.681001375],[-122.9016177,42.681001375],[-122.9016177,42.68061075],[-122.9022036375,42.68061075],[-122.9022036375,42.680220125],[-122.902789575,42.680220125],[-122.902789575,42.6798295],[-122.9045473875,42.6798295],[-122.9045473875,42.680220125],[-122.90864895,42.680220125],[-122.90864895,42.68061075],[-122.9092348875,42.68061075],[-122.9092348875,42.681392],[-122.909820825,42.681392],[-122.909820825,42.68217325],[-122.9068911375,42.68217325],[-122.9068911375,42.682563875],[-122.905133325,42.682563875],[-122.905133325,42.6829545]],[[-122.8869692625,42.682563875],[-122.8857973875,42.682563875],[-122.8857973875,42.681782625],[-122.8869692625,42.681782625],[-122.8869692625,42.682563875]],[[-122.879352075,42.6767045],[-122.8787661375,42.6767045],[-122.8787661375,42.676313875],[-122.8781802,42.676313875],[-122.8781802,42.67592325],[-122.8775942625,42.67592325],[-122.8775942625,42.675532625],[-122.8781802,42.675532625],[-122.8781802,42.675142],[-122.879352075,42.675142],[-122.879352075,42.6767045]],[[-122.8799380125,42.670063875],[-122.8781802,42.670063875],[-122.8781802,42.668892],[-122.8787661375,42.668892],[-122.8787661375,42.66811075],[-122.8799380125,42.66811075],[-122.8799380125,42.669282625],[-122.88052395,42.669282625],[-122.88052395,42.66967325],[-122.8799380125,42.66967325],[-122.8799380125,42.670063875]],[[-122.879352075,42.665767],[-122.8787661375,42.665767],[-122.8787661375,42.664595125],[-122.8799380125,42.664595125],[-122.8799380125,42.665376375],[-122.879352075,42.665376375],[-122.879352075,42.665767]],[[-122.8775942625,42.660688875],[-122.8764223875,42.660688875],[-122.8764223875,42.659907625],[-122.8775942625,42.659907625],[-122.8775942625,42.660688875]],[[-122.92857082500001,42.61029825],[-122.9279848875,42.61029825],[-122.9279848875,42.609907625],[-122.92857082500001,42.609907625],[-122.92857082500001,42.61029825]],[[-122.92271145000001,42.609517],[-122.9209536375,42.609517],[-122.9209536375,42.609126375],[-122.9203677,42.609126375],[-122.9203677,42.608345125],[-122.92271145000001,42.608345125],[-122.92271145000001,42.609517]],[[-122.8846255125,42.609126375],[-122.8828677,42.609126375],[-122.8828677,42.608345125],[-122.8846255125,42.608345125],[-122.8846255125,42.609126375]],[[-122.94614895000001,42.60873575],[-122.944977075,42.60873575],[-122.944977075,42.6079545],[-122.9455630125,42.6079545],[-122.9455630125,42.608345125],[-122.94614895000001,42.608345125],[-122.94614895000001,42.60873575]],[[-122.93150051250001,42.60561075],[-122.930914575,42.60561075],[-122.930914575,42.605220125],[-122.93150051250001,42.605220125],[-122.93150051250001,42.60561075]],[[-122.9244692625,42.604438875],[-122.9232973875,42.604438875],[-122.9232973875,42.603657625],[-122.9244692625,42.603657625],[-122.9244692625,42.604438875]],[[-122.9268130125,42.602876375],[-122.926227075,42.602876375],[-122.926227075,42.60248575],[-122.9268130125,42.60248575],[-122.9268130125,42.602876375]]]}},{"type":"Feature","properties":{"promptIndex":1,"model":"facebook/sam2.1-hiera-tiny","sentinelComposite":"B12/B8A/B04","hotspotObservedAt":"2026-07-16T09:00:00Z","sentinelObservedAt":"2026-07-15T19:12:40.131000Z"},"geometry":{"type":"Polygon","coordinates":[[[-123.01177395,42.664595125],[-123.01177395,42.6642045],[-123.0123598875,42.6642045],[-123.0123598875,42.66342325],[-123.012945825,42.66342325],[-123.012945825,42.663032625],[-123.01353176250001,42.663032625],[-123.01353176250001,42.661470125],[-123.0094302,42.661470125],[-123.0094302,42.66186075],[-123.008258325,42.66186075],[-123.008258325,42.662251375],[-123.0088442625,42.662251375],[-123.0088442625,42.663813875],[-123.0094302,42.663813875],[-123.0094302,42.664595125],[-123.01177395,42.664595125]]]}},{"type":"Feature","properties":{"promptIndex":1,"model":"facebook/sam2.1-hiera-tiny","sentinelComposite":"B12/B8A/B04","hotspotObservedAt":"2026-07-16T09:00:00Z","sentinelObservedAt":"2026-07-15T19:12:40.131000Z"},"geometry":{"type":"Polygon","coordinates":[[[-122.9713442625,42.66498575],[-122.9713442625,42.6642045],[-122.97251613750001,42.6642045],[-122.97251613750001,42.663813875],[-122.9736880125,42.663813875],[-122.9736880125,42.66186075],[-122.973102075,42.66186075],[-122.973102075,42.659907625],[-122.9736880125,42.659907625],[-122.9736880125,42.65873575],[-122.973102075,42.65873575],[-122.973102075,42.658345125],[-122.970758325,42.658345125],[-122.970758325,42.6579545],[-122.9701723875,42.6579545],[-122.9701723875,42.658345125],[-122.968414575,42.658345125],[-122.968414575,42.659126375],[-122.9678286375,42.659126375],[-122.9678286375,42.661470125],[-122.968414575,42.661470125],[-122.968414575,42.663032625],[-122.9678286375,42.663032625],[-122.9678286375,42.66342325],[-122.968414575,42.66342325],[-122.968414575,42.6642045],[-122.96958645000001,42.6642045],[-122.96958645000001,42.66498575],[-122.9713442625,42.66498575]]]}},{"type":"Feature","properties":{"promptIndex":1,"model":"facebook/sam2.1-hiera-tiny","sentinelComposite":"B12/B8A/B04","hotspotObservedAt":"2026-07-16T09:00:00Z","sentinelObservedAt":"2026-07-15T19:12:40.131000Z"},"geometry":{"type":"Polygon","coordinates":[[[-123.0469302,42.652876375],[-123.0469302,42.65248575],[-123.0463442625,42.65248575],[-123.0463442625,42.652095125],[-123.0451723875,42.652095125],[-123.0451723875,42.65248575],[-123.0440005125,42.65248575],[-123.0440005125,42.652876375],[-123.0469302,42.652876375]]]}},{"type":"Feature","properties":{"promptIndex":1,"model":"facebook/sam2.1-hiera-tiny","sentinelComposite":"B12/B8A/B04","hotspotObservedAt":"2026-07-16T09:00:00Z","sentinelObservedAt":"2026-07-15T19:12:40.131000Z"},"geometry":{"type":"Polygon","coordinates":[[[-123.0299380125,42.6517045],[-123.0299380125,42.651313875],[-123.03052395,42.651313875],[-123.03052395,42.65092325],[-123.03110988750001,42.65092325],[-123.03110988750001,42.650142],[-123.0322817625,42.650142],[-123.0322817625,42.648970125],[-123.0299380125,42.648970125],[-123.0299380125,42.6485795],[-123.029352075,42.6485795],[-123.029352075,42.64936075],[-123.0287661375,42.64936075],[-123.0287661375,42.650142],[-123.02818020000001,42.650142],[-123.02818020000001,42.651313875],[-123.0287661375,42.651313875],[-123.0287661375,42.6517045],[-123.0299380125,42.6517045]]]}},{"type":"Feature","properties":{"promptIndex":1,"model":"facebook/sam2.1-hiera-tiny","sentinelComposite":"B12/B8A/B04","hotspotObservedAt":"2026-07-16T09:00:00Z","sentinelObservedAt":"2026-07-15T19:12:40.131000Z"},"geometry":{"type":"Polygon","coordinates":[[[-123.0111880125,42.64467325],[-123.0111880125,42.644282625],[-123.01060207500001,42.644282625],[-123.01060207500001,42.64467325],[-123.0111880125,42.64467325]]]}},{"type":"Feature","properties":{"promptIndex":1,"model":"facebook/sam2.1-hiera-tiny","sentinelComposite":"B12/B8A/B04","hotspotObservedAt":"2026-07-16T09:00:00Z","sentinelObservedAt":"2026-07-15T19:12:40.131000Z"},"geometry":{"type":"Polygon","coordinates":[[[-123.0627505125,42.64154825],[-123.0627505125,42.641157625],[-123.06333645000001,42.641157625],[-123.06333645000001,42.640376375],[-123.0639223875,42.640376375],[-123.0639223875,42.63998575],[-123.06333645000001,42.63998575],[-123.06333645000001,42.6392045],[-123.0615786375,42.6392045],[-123.0615786375,42.639595125],[-123.0609927,42.639595125],[-123.0609927,42.63998575],[-123.06040676250001,42.63998575],[-123.06040676250001,42.640376375],[-123.0609927,42.640376375],[-123.0609927,42.641157625],[-123.0615786375,42.641157625],[-123.0615786375,42.64154825],[-123.0627505125,42.64154825]]]}},{"type":"Feature","properties":{"promptIndex":1,"model":"facebook/sam2.1-hiera-tiny","sentinelComposite":"B12/B8A/B04","hotspotObservedAt":"2026-07-16T09:00:00Z","sentinelObservedAt":"2026-07-15T19:12:40.131000Z"},"geometry":{"type":"Polygon","coordinates":[[[-122.9525942625,42.637642],[-122.9525942625,42.636470125],[-122.9514223875,42.636470125],[-122.9514223875,42.637251375],[-122.95200832500001,42.637251375],[-122.95200832500001,42.637642],[-122.9525942625,42.637642]]]}},{"type":"Feature","properties":{"promptIndex":1,"model":"facebook/sam2.1-hiera-tiny","sentinelComposite":"B12/B8A/B04","hotspotObservedAt":"2026-07-16T09:00:00Z","sentinelObservedAt":"2026-07-15T19:12:40.131000Z"},"geometry":{"type":"Polygon","coordinates":[[[-123.0346255125,42.635688875],[-123.0346255125,42.634907625],[-123.03403957500001,42.634907625],[-123.03403957500001,42.635688875],[-123.0346255125,42.635688875]]]}},{"type":"Feature","properties":{"promptIndex":1,"model":"facebook/sam2.1-hiera-tiny","sentinelComposite":"B12/B8A/B04","hotspotObservedAt":"2026-07-16T09:00:00Z","sentinelObservedAt":"2026-07-15T19:12:40.131000Z"},"geometry":{"type":"Polygon","coordinates":[[[-123.0393130125,42.635688875],[-123.0393130125,42.63529825],[-123.03989895000001,42.63529825],[-123.03989895000001,42.634517],[-123.0393130125,42.634517],[-123.0393130125,42.634126375],[-123.038727075,42.634126375],[-123.038727075,42.63373575],[-123.0381411375,42.63373575],[-123.0381411375,42.633345125],[-123.03696926250001,42.633345125],[-123.03696926250001,42.6329545],[-123.0357973875,42.6329545],[-123.0357973875,42.633345125],[-123.03521145,42.633345125],[-123.03521145,42.634517],[-123.0357973875,42.634517],[-123.0357973875,42.634907625],[-123.03696926250001,42.634907625],[-123.03696926250001,42.63529825],[-123.0375552,42.63529825],[-123.0375552,42.635688875],[-123.0393130125,42.635688875]]]}},{"type":"Feature","properties":{"promptIndex":1,"model":"facebook/sam2.1-hiera-tiny","sentinelComposite":"B12/B8A/B04","hotspotObservedAt":"2026-07-16T09:00:00Z","sentinelObservedAt":"2026-07-15T19:12:40.131000Z"},"geometry":{"type":"Polygon","coordinates":[[[-122.9807192625,42.65561075],[-122.9807192625,42.655220125],[-122.98130520000001,42.655220125],[-122.98130520000001,42.6548295],[-122.982477075,42.6548295],[-122.982477075,42.654438875],[-122.98364895,42.654438875],[-122.98364895,42.65404825],[-122.984820825,42.65404825],[-122.984820825,42.653657625],[-122.9854067625,42.653657625],[-122.9854067625,42.65404825],[-122.9865786375,42.65404825],[-122.9865786375,42.654438875],[-122.9877505125,42.654438875],[-122.9877505125,42.65404825],[-122.98833645,42.65404825],[-122.98833645,42.653267],[-122.9889223875,42.653267],[-122.9889223875,42.652876375],[-122.989508325,42.652876375],[-122.989508325,42.653267],[-122.99009426250001,42.653267],[-122.99009426250001,42.65404825],[-122.9906802,42.65404825],[-122.9906802,42.654438875],[-122.9912661375,42.654438875],[-122.9912661375,42.6548295],[-122.9924380125,42.6548295],[-122.9924380125,42.654438875],[-122.99302395000001,42.654438875],[-122.99302395000001,42.65404825],[-122.9936098875,42.65404825],[-122.9936098875,42.65248575],[-122.991852075,42.65248575],[-122.991852075,42.652095125],[-122.9924380125,42.652095125],[-122.9924380125,42.650532625],[-122.994195825,42.650532625],[-122.994195825,42.650142],[-122.9947817625,42.650142],[-122.9947817625,42.649751375],[-122.9953677,42.649751375],[-122.9953677,42.648970125],[-122.99595363750001,42.648970125],[-122.99595363750001,42.648188875],[-122.996539575,42.648188875],[-122.996539575,42.64779825],[-122.9971255125,42.64779825],[-122.9971255125,42.64623575],[-122.99888332500001,42.64623575],[-122.99888332500001,42.645845125],[-123.0000552,42.645845125],[-123.0000552,42.6454545],[-123.0006411375,42.6454545],[-123.0006411375,42.645063875],[-123.001227075,42.645063875],[-123.001227075,42.64467325],[-123.00239895,42.64467325],[-123.00239895,42.644282625],[-123.003570825,42.644282625],[-123.003570825,42.643892],[-123.0041567625,42.643892],[-123.0041567625,42.643501375],[-123.00474270000001,42.643501375],[-123.00474270000001,42.64311075],[-123.0053286375,42.64311075],[-123.0053286375,42.6423295],[-123.0065005125,42.6423295],[-123.0065005125,42.641938875],[-123.00708645,42.641938875],[-123.00708645,42.641157625],[-123.00767238750001,42.641157625],[-123.00767238750001,42.640376375],[-123.0088442625,42.640376375],[-123.0088442625,42.640767],[-123.0094302,42.640767],[-123.0094302,42.641938875],[-123.0100161375,42.641938875],[-123.0100161375,42.642720125],[-123.01177395,42.642720125],[-123.01177395,42.6423295],[-123.012945825,42.6423295],[-123.012945825,42.641938875],[-123.0147036375,42.641938875],[-123.0147036375,42.64154825],[-123.015289575,42.64154825],[-123.015289575,42.640767],[-123.0158755125,42.640767],[-123.0158755125,42.640376375],[-123.017633325,42.640376375],[-123.017633325,42.63998575],[-123.0182192625,42.63998575],[-123.0182192625,42.638813875],[-123.01939113750001,42.638813875],[-123.01939113750001,42.63842325],[-123.0205630125,42.63842325],[-123.0205630125,42.638032625],[-123.02114895,42.638032625],[-123.02114895,42.637642],[-123.0229067625,42.637642],[-123.0229067625,42.638032625],[-123.0240786375,42.638032625],[-123.0240786375,42.63842325],[-123.02583645,42.63842325],[-123.02583645,42.638813875],[-123.03052395,42.638813875],[-123.03052395,42.63842325],[-123.031695825,42.63842325],[-123.031695825,42.638032625],[-123.0322817625,42.638032625],[-123.0322817625,42.637642],[-123.0328677,42.637642],[-123.0328677,42.637251375],[-123.0334536375,42.637251375],[-123.0334536375,42.636470125],[-123.03052395,42.636470125],[-123.03052395,42.6360795],[-123.02583645,42.6360795],[-123.02583645,42.635688875],[-123.02525051250001,42.635688875],[-123.02525051250001,42.63529825],[-123.024664575,42.63529825],[-123.024664575,42.635688875],[-123.0240786375,42.635688875],[-123.0240786375,42.6360795],[-123.0229067625,42.6360795],[-123.0229067625,42.636470125],[-123.0217348875,42.636470125],[-123.0217348875,42.6360795],[-123.0205630125,42.6360795],[-123.0205630125,42.63529825],[-123.019977075,42.63529825],[-123.019977075,42.633345125],[-123.0205630125,42.633345125],[-123.0205630125,42.6329545],[-123.02114895,42.6329545],[-123.02114895,42.632563875],[-123.0217348875,42.632563875],[-123.0217348875,42.63217325],[-123.0229067625,42.63217325],[-123.0229067625,42.632563875],[-123.0240786375,42.632563875],[-123.0240786375,42.6329545],[-123.024664575,42.6329545],[-123.024664575,42.632563875],[-123.02525051250001,42.632563875],[-123.02525051250001,42.631001375],[-123.02583645,42.631001375],[-123.02583645,42.63061075],[-123.0264223875,42.63061075],[-123.0264223875,42.630220125],[-123.027008325,42.630220125],[-123.027008325,42.6298295],[-123.0275942625,42.6298295],[-123.0275942625,42.629438875],[-123.02818020000001,42.629438875],[-123.02818020000001,42.62904825],[-123.0287661375,42.62904825],[-123.0287661375,42.627095125],[-123.02818020000001,42.627095125],[-123.02818020000001,42.6235795],[-123.0275942625,42.6235795],[-123.0275942625,42.62279825],[-123.027008325,42.62279825],[-123.027008325,42.622407625],[-123.0275942625,42.622407625],[-123.0275942625,42.62123575],[-123.02818020000001,42.62123575],[-123.02818020000001,42.620845125],[-123.0287661375,42.620845125],[-123.0287661375,42.620063875],[-123.029352075,42.620063875],[-123.029352075,42.6173295],[-123.0287661375,42.6173295],[-123.0287661375,42.613032625],[-123.029352075,42.613032625],[-123.029352075,42.612251375],[-123.0299380125,42.612251375],[-123.0299380125,42.61186075],[-123.03052395,42.61186075],[-123.03052395,42.609517],[-123.03110988750001,42.609517],[-123.03110988750001,42.60873575],[-123.03052395,42.60873575],[-123.03052395,42.608345125],[-123.0287661375,42.608345125],[-123.0287661375,42.6079545],[-123.0275942625,42.6079545],[-123.0275942625,42.607563875],[-123.027008325,42.607563875],[-123.027008325,42.60717325],[-123.02525051250001,42.60717325],[-123.02525051250001,42.606782625],[-123.024664575,42.606782625],[-123.024664575,42.606392],[-123.0240786375,42.606392],[-123.0240786375,42.606001375],[-123.0234927,42.606001375],[-123.0234927,42.60561075],[-123.0229067625,42.60561075],[-123.0229067625,42.605220125],[-123.0217348875,42.605220125],[-123.0217348875,42.6048295],[-123.02114895,42.6048295],[-123.02114895,42.604438875],[-123.019977075,42.604438875],[-123.019977075,42.60404825],[-123.01939113750001,42.60404825],[-123.01939113750001,42.603657625],[-123.0188052,42.603657625],[-123.0188052,42.602876375],[-123.0182192625,42.602876375],[-123.0182192625,42.60248575],[-123.017633325,42.60248575],[-123.017633325,42.602095125],[-123.01646145000001,42.602095125],[-123.01646145000001,42.6017045],[-123.0147036375,42.6017045],[-123.0147036375,42.601313875],[-123.01353176250001,42.601313875],[-123.01353176250001,42.60092325],[-123.0123598875,42.60092325],[-123.0123598875,42.600532625],[-123.01177395,42.600532625],[-123.01177395,42.600142],[-123.0111880125,42.600142],[-123.0111880125,42.599751375],[-123.01060207500001,42.599751375],[-123.01060207500001,42.598188875],[-123.0111880125,42.598188875],[-123.0111880125,42.597407625],[-123.01177395,42.597407625],[-123.01177395,42.597017],[-123.0123598875,42.597017],[-123.0123598875,42.596626375],[-123.012945825,42.596626375],[-123.012945825,42.59623575],[-123.01353176250001,42.59623575],[-123.01353176250001,42.591938875],[-123.0141177,42.591938875],[-123.0141177,42.591548249999995],[-123.01353176250001,42.591548249999995],[-123.01353176250001,42.58998575],[-123.012945825,42.58998575],[-123.012945825,42.589595124999995],[-123.0123598875,42.589595124999995],[-123.0123598875,42.5892045],[-123.01177395,42.5892045],[-123.01177395,42.58842325],[-123.0111880125,42.58842325],[-123.0111880125,42.586470125],[-123.0100161375,42.586470125],[-123.0100161375,42.5860795],[-123.0094302,42.5860795],[-123.0094302,42.585688874999995],[-123.00708645,42.585688874999995],[-123.00708645,42.58529825],[-123.005914575,42.58529825],[-123.005914575,42.585688874999995],[-123.0041567625,42.585688874999995],[-123.0041567625,42.5860795],[-123.00239895,42.5860795],[-123.00239895,42.586470125],[-123.001227075,42.586470125],[-123.001227075,42.58686075],[-123.0006411375,42.58686075],[-123.0006411375,42.587251375],[-122.9994692625,42.587251375],[-122.9994692625,42.587641999999995],[-122.9982973875,42.587641999999995],[-122.9982973875,42.588032625],[-122.9971255125,42.588032625],[-122.9971255125,42.58842325],[-122.9953677,42.58842325],[-122.9953677,42.588813875],[-122.9936098875,42.588813875],[-122.9936098875,42.5892045],[-122.99302395000001,42.5892045],[-122.99302395000001,42.589595124999995],[-122.991852075,42.589595124999995],[-122.991852075,42.58998575],[-122.9912661375,42.58998575],[-122.9912661375,42.590376375],[-122.9906802,42.590376375],[-122.9906802,42.591157625],[-122.99009426250001,42.591157625],[-122.99009426250001,42.591938875],[-122.989508325,42.591938875],[-122.989508325,42.592720125],[-122.9889223875,42.592720125],[-122.9889223875,42.593501375],[-122.98833645,42.593501375],[-122.98833645,42.59467325],[-122.9877505125,42.59467325],[-122.9877505125,42.595063875],[-122.98716457500001,42.595063875],[-122.98716457500001,42.5954545],[-122.982477075,42.5954545],[-122.982477075,42.595845125],[-122.9818911375,42.595845125],[-122.9818911375,42.5954545],[-122.9772036375,42.5954545],[-122.9772036375,42.595063875],[-122.97251613750001,42.595063875],[-122.97251613750001,42.59467325],[-122.9713442625,42.59467325],[-122.9713442625,42.594282625],[-122.9654848875,42.594282625],[-122.9654848875,42.59467325],[-122.96489895,42.59467325],[-122.96489895,42.595063875],[-122.9643130125,42.595063875],[-122.9643130125,42.59623575],[-122.96372707500001,42.59623575],[-122.96372707500001,42.596626375],[-122.9625552,42.596626375],[-122.9625552,42.59623575],[-122.96079738750001,42.59623575],[-122.96079738750001,42.597407625],[-122.961383325,42.597407625],[-122.961383325,42.59779825],[-122.96021145,42.59779825],[-122.96021145,42.598188875],[-122.959039575,42.598188875],[-122.959039575,42.5985795],[-122.95786770000001,42.5985795],[-122.95786770000001,42.598970125],[-122.9572817625,42.598970125],[-122.9572817625,42.59936075],[-122.956695825,42.59936075],[-122.956695825,42.600142],[-122.9561098875,42.600142],[-122.9561098875,42.603657625],[-122.956695825,42.603657625],[-122.956695825,42.60404825],[-122.9561098875,42.60404825],[-122.9561098875,42.604438875],[-122.95552395,42.604438875],[-122.95552395,42.6048295],[-122.95493801250001,42.6048295],[-122.95493801250001,42.606392],[-122.954352075,42.606392],[-122.954352075,42.607563875],[-122.95493801250001,42.607563875],[-122.95493801250001,42.609517],[-122.954352075,42.609517],[-122.954352075,42.610688875],[-122.9537661375,42.610688875],[-122.9537661375,42.611470125],[-122.9531802,42.611470125],[-122.9531802,42.613813875],[-122.9537661375,42.613813875],[-122.9537661375,42.614595125],[-122.954352075,42.614595125],[-122.954352075,42.616157625],[-122.9537661375,42.616157625],[-122.9537661375,42.616938875],[-122.9531802,42.616938875],[-122.9531802,42.6173295],[-122.9525942625,42.6173295],[-122.9525942625,42.617720125],[-122.9514223875,42.617720125],[-122.9514223875,42.61811075],[-122.95083645,42.61811075],[-122.95083645,42.618501375],[-122.9514223875,42.618501375],[-122.9514223875,42.619282625],[-122.95200832500001,42.619282625],[-122.95200832500001,42.6204545],[-122.9514223875,42.6204545],[-122.9514223875,42.621626375],[-122.9525942625,42.621626375],[-122.9525942625,42.62123575],[-122.9531802,42.62123575],[-122.9531802,42.620845125],[-122.954352075,42.620845125],[-122.954352075,42.622407625],[-122.9537661375,42.622407625],[-122.9537661375,42.623188875],[-122.9531802,42.623188875],[-122.9531802,42.6235795],[-122.95083645,42.6235795],[-122.95083645,42.623188875],[-122.949664575,42.623188875],[-122.949664575,42.6235795],[-122.94907863750001,42.6235795],[-122.94907863750001,42.623970125],[-122.9484927,42.623970125],[-122.9484927,42.62436075],[-122.947320825,42.62436075],[-122.947320825,42.626313875],[-122.9467348875,42.626313875],[-122.9467348875,42.627095125],[-122.94614895000001,42.627095125],[-122.94614895000001,42.627876375],[-122.9467348875,42.627876375],[-122.9467348875,42.628267],[-122.9479067625,42.628267],[-122.9479067625,42.627876375],[-122.95083645,42.627876375],[-122.95083645,42.628267],[-122.9525942625,42.628267],[-122.9525942625,42.627876375],[-122.9531802,42.627876375],[-122.9531802,42.6267045],[-122.9525942625,42.6267045],[-122.9525942625,42.62592325],[-122.9531802,42.62592325],[-122.9531802,42.625532625],[-122.9537661375,42.625532625],[-122.9537661375,42.62436075],[-122.954352075,42.62436075],[-122.954352075,42.626313875],[-122.95493801250001,42.626313875],[-122.95493801250001,42.628267],[-122.954352075,42.628267],[-122.954352075,42.630220125],[-122.95493801250001,42.630220125],[-122.95493801250001,42.631782625],[-122.95552395,42.631782625],[-122.95552395,42.633345125],[-122.95493801250001,42.633345125],[-122.95493801250001,42.63373575],[-122.95552395,42.63373575],[-122.95552395,42.634517],[-122.9561098875,42.634517],[-122.9561098875,42.634907625],[-122.956695825,42.634907625],[-122.956695825,42.63529825],[-122.9572817625,42.63529825],[-122.9572817625,42.635688875],[-122.95786770000001,42.635688875],[-122.95786770000001,42.636470125],[-122.9584536375,42.636470125],[-122.9584536375,42.637642],[-122.95786770000001,42.637642],[-122.95786770000001,42.638813875],[-122.9572817625,42.638813875],[-122.9572817625,42.639595125],[-122.9561098875,42.639595125],[-122.9561098875,42.640767],[-122.956695825,42.640767],[-122.956695825,42.642720125],[-122.9572817625,42.642720125],[-122.9572817625,42.643501375],[-122.9584536375,42.643501375],[-122.9584536375,42.643892],[-122.9596255125,42.643892],[-122.9596255125,42.64467325],[-122.96021145,42.64467325],[-122.96021145,42.645063875],[-122.96079738750001,42.645063875],[-122.96079738750001,42.645845125],[-122.961383325,42.645845125],[-122.961383325,42.64623575],[-122.9619692625,42.64623575],[-122.9619692625,42.647017],[-122.9625552,42.647017],[-122.9625552,42.648188875],[-122.9631411375,42.648188875],[-122.9631411375,42.648970125],[-122.9643130125,42.648970125],[-122.9643130125,42.64936075],[-122.96489895,42.64936075],[-122.96489895,42.649751375],[-122.9654848875,42.649751375],[-122.9654848875,42.650532625],[-122.966070825,42.650532625],[-122.966070825,42.6517045],[-122.9654848875,42.6517045],[-122.9654848875,42.652876375],[-122.9690005125,42.652876375],[-122.9690005125,42.653267],[-122.9701723875,42.653267],[-122.9701723875,42.653657625],[-122.9713442625,42.653657625],[-122.9713442625,42.654438875],[-122.9719302,42.654438875],[-122.9719302,42.6548295],[-122.9736880125,42.6548295],[-122.9736880125,42.655220125],[-122.97896145,42.655220125],[-122.97896145,42.65561075],[-122.9807192625,42.65561075]],[[-122.98833645,42.652876375],[-122.9865786375,42.652876375],[-122.9865786375,42.652095125],[-122.9877505125,42.652095125],[-122.9877505125,42.65248575],[-122.98833645,42.65248575],[-122.98833645,42.652876375]],[[-122.949664575,42.62592325],[-122.94907863750001,42.62592325],[-122.94907863750001,42.625532625],[-122.949664575,42.625532625],[-122.949664575,42.62592325]]]}},{"type":"Feature","properties":{"promptIndex":1,"model":"facebook/sam2.1-hiera-tiny","sentinelComposite":"B12/B8A/B04","hotspotObservedAt":"2026-07-16T09:00:00Z","sentinelObservedAt":"2026-07-15T19:12:40.131000Z"},"geometry":{"type":"Polygon","coordinates":[[[-122.9924380125,42.582563875],[-122.9924380125,42.581782624999995],[-122.99302395000001,42.581782624999995],[-122.99302395000001,42.581392],[-122.9936098875,42.581392],[-122.9936098875,42.581001375],[-122.99595363750001,42.581001375],[-122.99595363750001,42.581392],[-122.996539575,42.581392],[-122.996539575,42.58061075],[-122.9936098875,42.58061075],[-122.9936098875,42.580220125],[-122.9924380125,42.580220125],[-122.9924380125,42.579829499999995],[-122.9906802,42.579829499999995],[-122.9906802,42.580220125],[-122.99009426250001,42.580220125],[-122.99009426250001,42.581392],[-122.9906802,42.581392],[-122.9906802,42.58217325],[-122.9912661375,42.58217325],[-122.9912661375,42.582563875],[-122.9924380125,42.582563875]]]}},{"type":"Feature","properties":{"promptIndex":2,"model":"facebook/sam2.1-hiera-tiny","sentinelComposite":"B12/B8A/B04","hotspotObservedAt":"2026-07-16T09:00:00Z","sentinelObservedAt":"2026-07-15T19:12:40.131000Z"},"geometry":{"type":"Polygon","coordinates":[[[-122.879352075,42.672017],[-122.879352075,42.671626375],[-122.8799380125,42.671626375],[-122.8799380125,42.6704545],[-122.879352075,42.6704545],[-122.879352075,42.670063875],[-122.8787661375,42.670063875],[-122.8787661375,42.6704545],[-122.8781802,42.6704545],[-122.8781802,42.670845125],[-122.877008325,42.670845125],[-122.877008325,42.67123575],[-122.8775942625,42.67123575],[-122.8775942625,42.671626375],[-122.8787661375,42.671626375],[-122.8787661375,42.672017],[-122.879352075,42.672017]]]}},{"type":"Feature","properties":{"promptIndex":2,"model":"facebook/sam2.1-hiera-tiny","sentinelComposite":"B12/B8A/B04","hotspotObservedAt":"2026-07-16T09:00:00Z","sentinelObservedAt":"2026-07-15T19:12:40.131000Z"},"geometry":{"type":"Polygon","coordinates":[[[-122.8705630125,42.66967325],[-122.8705630125,42.668892],[-122.8693911375,42.668892],[-122.8693911375,42.66967325],[-122.8705630125,42.66967325]]]}},{"type":"Feature","properties":{"promptIndex":2,"model":"facebook/sam2.1-hiera-tiny","sentinelComposite":"B12/B8A/B04","hotspotObservedAt":"2026-07-16T09:00:00Z","sentinelObservedAt":"2026-07-15T19:12:40.131000Z"},"geometry":{"type":"Polygon","coordinates":[[[-122.8424380125,42.66967325],[-122.8424380125,42.668892],[-122.8412661375,42.668892],[-122.8412661375,42.66967325],[-122.8424380125,42.66967325]]]}},{"type":"Feature","properties":{"promptIndex":2,"model":"facebook/sam2.1-hiera-tiny","sentinelComposite":"B12/B8A/B04","hotspotObservedAt":"2026-07-16T09:00:00Z","sentinelObservedAt":"2026-07-15T19:12:40.131000Z"},"geometry":{"type":"Polygon","coordinates":[[[-122.8330630125,42.635688875],[-122.8330630125,42.634907625],[-122.8318911375,42.634907625],[-122.8318911375,42.635688875],[-122.8330630125,42.635688875]]]}},{"type":"Feature","properties":{"promptIndex":2,"model":"facebook/sam2.1-hiera-tiny","sentinelComposite":"B12/B8A/B04","hotspotObservedAt":"2026-07-16T09:00:00Z","sentinelObservedAt":"2026-07-15T19:12:40.131000Z"},"geometry":{"type":"Polygon","coordinates":[[[-122.8565005125,42.62904825],[-122.8565005125,42.628657625],[-122.855914575,42.628657625],[-122.855914575,42.62904825],[-122.8565005125,42.62904825]]]}},{"type":"Feature","properties":{"promptIndex":2,"model":"facebook/sam2.1-hiera-tiny","sentinelComposite":"B12/B8A/B04","hotspotObservedAt":"2026-07-16T09:00:00Z","sentinelObservedAt":"2026-07-15T19:12:40.131000Z"},"geometry":{"type":"Polygon","coordinates":[[[-122.8518130125,42.6298295],[-122.8518130125,42.629438875],[-122.85239895,42.629438875],[-122.85239895,42.628657625],[-122.8518130125,42.628657625],[-122.8518130125,42.628267],[-122.8506411375,42.628267],[-122.8506411375,42.6298295],[-122.8518130125,42.6298295]]]}},{"type":"Feature","properties":{"promptIndex":2,"model":"facebook/sam2.1-hiera-tiny","sentinelComposite":"B12/B8A/B04","hotspotObservedAt":"2026-07-16T09:00:00Z","sentinelObservedAt":"2026-07-15T19:12:40.131000Z"},"geometry":{"type":"Polygon","coordinates":[[[-122.8518130125,42.623188875],[-122.8518130125,42.622407625],[-122.8506411375,42.622407625],[-122.8506411375,42.623188875],[-122.8518130125,42.623188875]]]}},{"type":"Feature","properties":{"promptIndex":2,"model":"facebook/sam2.1-hiera-tiny","sentinelComposite":"B12/B8A/B04","hotspotObservedAt":"2026-07-16T09:00:00Z","sentinelObservedAt":"2026-07-15T19:12:40.131000Z"},"geometry":{"type":"Polygon","coordinates":[[[-122.8611880125,42.668501375],[-122.8611880125,42.66811075],[-122.862945825,42.66811075],[-122.862945825,42.667720125],[-122.8635317625,42.667720125],[-122.8635317625,42.6673295],[-122.8670473875,42.6673295],[-122.8670473875,42.667720125],[-122.87114895,42.667720125],[-122.87114895,42.66811075],[-122.872320825,42.66811075],[-122.872320825,42.666938875],[-122.8729067625,42.666938875],[-122.8729067625,42.66654825],[-122.8734927,42.66654825],[-122.8734927,42.666157625],[-122.8764223875,42.666157625],[-122.8764223875,42.66654825],[-122.877008325,42.66654825],[-122.877008325,42.666938875],[-122.8775942625,42.666938875],[-122.8775942625,42.6673295],[-122.879352075,42.6673295],[-122.879352075,42.666938875],[-122.8799380125,42.666938875],[-122.8799380125,42.666157625],[-122.88052395,42.666157625],[-122.88052395,42.665376375],[-122.8811098875,42.665376375],[-122.8811098875,42.66342325],[-122.881695825,42.66342325],[-122.881695825,42.660688875],[-122.8811098875,42.660688875],[-122.8811098875,42.652876375],[-122.881695825,42.652876375],[-122.881695825,42.652095125],[-122.8811098875,42.652095125],[-122.8811098875,42.647017],[-122.881695825,42.647017],[-122.881695825,42.645845125],[-122.8811098875,42.645845125],[-122.8811098875,42.64311075],[-122.881695825,42.64311075],[-122.881695825,42.642720125],[-122.8811098875,42.642720125],[-122.8811098875,42.634517],[-122.881695825,42.634517],[-122.881695825,42.633345125],[-122.8811098875,42.633345125],[-122.8811098875,42.631001375],[-122.88052395,42.631001375],[-122.88052395,42.625142],[-122.8799380125,42.625142],[-122.8799380125,42.6235795],[-122.88052395,42.6235795],[-122.88052395,42.622407625],[-122.8799380125,42.622407625],[-122.8799380125,42.622017],[-122.879352075,42.622017],[-122.879352075,42.621626375],[-122.8787661375,42.621626375],[-122.8787661375,42.622017],[-122.8781802,42.622017],[-122.8781802,42.622407625],[-122.8775942625,42.622407625],[-122.8775942625,42.6235795],[-122.8764223875,42.6235795],[-122.8764223875,42.62436075],[-122.87583645,42.62436075],[-122.87583645,42.624751375],[-122.8752505125,42.624751375],[-122.8752505125,42.625142],[-122.8734927,42.625142],[-122.8734927,42.624751375],[-122.8729067625,42.624751375],[-122.8729067625,42.62436075],[-122.8717348875,42.62436075],[-122.8717348875,42.624751375],[-122.8670473875,42.624751375],[-122.8670473875,42.625142],[-122.86646145,42.625142],[-122.86646145,42.625532625],[-122.8658755125,42.625532625],[-122.8658755125,42.62592325],[-122.8623598875,42.62592325],[-122.8623598875,42.625532625],[-122.8611880125,42.625532625],[-122.8611880125,42.625142],[-122.8594302,42.625142],[-122.8594302,42.624751375],[-122.8553286375,42.624751375],[-122.8553286375,42.625142],[-122.8547427,42.625142],[-122.8547427,42.626313875],[-122.8553286375,42.626313875],[-122.8553286375,42.6267045],[-122.8565005125,42.6267045],[-122.8565005125,42.627095125],[-122.8600161375,42.627095125],[-122.8600161375,42.6267045],[-122.860602075,42.6267045],[-122.860602075,42.627095125],[-122.86177395,42.627095125],[-122.86177395,42.627876375],[-122.8600161375,42.627876375],[-122.8600161375,42.628267],[-122.8594302,42.628267],[-122.8594302,42.631001375],[-122.8588442625,42.631001375],[-122.8588442625,42.631782625],[-122.858258325,42.631782625],[-122.858258325,42.632563875],[-122.8576723875,42.632563875],[-122.8576723875,42.631782625],[-122.855914575,42.631782625],[-122.855914575,42.631392],[-122.853570825,42.631392],[-122.853570825,42.631782625],[-122.851227075,42.631782625],[-122.851227075,42.632563875],[-122.8518130125,42.632563875],[-122.8518130125,42.6329545],[-122.85239895,42.6329545],[-122.85239895,42.634126375],[-122.851227075,42.634126375],[-122.851227075,42.634517],[-122.8506411375,42.634517],[-122.8506411375,42.634907625],[-122.8500552,42.634907625],[-122.8500552,42.63529825],[-122.8494692625,42.63529825],[-122.8494692625,42.635688875],[-122.848883325,42.635688875],[-122.848883325,42.6360795],[-122.8482973875,42.6360795],[-122.8482973875,42.635688875],[-122.84771145,42.635688875],[-122.84771145,42.63529825],[-122.8471255125,42.63529825],[-122.8471255125,42.634907625],[-122.8459536375,42.634907625],[-122.8459536375,42.63529825],[-122.8453677,42.63529825],[-122.8453677,42.635688875],[-122.8447817625,42.635688875],[-122.8447817625,42.6360795],[-122.8436098875,42.6360795],[-122.8436098875,42.635688875],[-122.84302395,42.635688875],[-122.84302395,42.634907625],[-122.8424380125,42.634907625],[-122.8424380125,42.634517],[-122.8406802,42.634517],[-122.8406802,42.63373575],[-122.8400942625,42.63373575],[-122.8400942625,42.633345125],[-122.8377505125,42.633345125],[-122.8377505125,42.63373575],[-122.8365786375,42.63373575],[-122.8365786375,42.634517],[-122.8359927,42.634517],[-122.8359927,42.63686075],[-122.8354067625,42.63686075],[-122.8354067625,42.637251375],[-122.834820825,42.637251375],[-122.834820825,42.637642],[-122.83364895,42.637642],[-122.83364895,42.638032625],[-122.832477075,42.638032625],[-122.832477075,42.639595125],[-122.8318911375,42.639595125],[-122.8318911375,42.640767],[-122.8313052,42.640767],[-122.8313052,42.64154825],[-122.8307192625,42.64154825],[-122.8307192625,42.642720125],[-122.830133325,42.642720125],[-122.830133325,42.643501375],[-122.8307192625,42.643501375],[-122.8307192625,42.646626375],[-122.830133325,42.646626375],[-122.830133325,42.64779825],[-122.8295473875,42.64779825],[-122.8295473875,42.648188875],[-122.827789575,42.648188875],[-122.827789575,42.6485795],[-122.8272036375,42.6485795],[-122.8272036375,42.648970125],[-122.8260317625,42.648970125],[-122.8260317625,42.64936075],[-122.825445825,42.64936075],[-122.825445825,42.65404825],[-122.8260317625,42.65404825],[-122.8260317625,42.65717325],[-122.8266177,42.65717325],[-122.8266177,42.658345125],[-122.8272036375,42.658345125],[-122.8272036375,42.659517],[-122.827789575,42.659517],[-122.827789575,42.659907625],[-122.8283755125,42.659907625],[-122.8283755125,42.66029825],[-122.827789575,42.66029825],[-122.827789575,42.660688875],[-122.8272036375,42.660688875],[-122.8272036375,42.661470125],[-122.8266177,42.661470125],[-122.8266177,42.662251375],[-122.8272036375,42.662251375],[-122.8272036375,42.662642],[-122.827789575,42.662642],[-122.827789575,42.663032625],[-122.82896145,42.663032625],[-122.82896145,42.66342325],[-122.8295473875,42.66342325],[-122.8295473875,42.663813875],[-122.8307192625,42.663813875],[-122.8307192625,42.6642045],[-122.8313052,42.6642045],[-122.8313052,42.664595125],[-122.8318911375,42.664595125],[-122.8318911375,42.665376375],[-122.8330630125,42.665376375],[-122.8330630125,42.665767],[-122.834820825,42.665767],[-122.834820825,42.666157625],[-122.8359927,42.666157625],[-122.8359927,42.66654825],[-122.837164575,42.66654825],[-122.837164575,42.666938875],[-122.8377505125,42.666938875],[-122.8377505125,42.667720125],[-122.83833645,42.667720125],[-122.83833645,42.66811075],[-122.839508325,42.66811075],[-122.839508325,42.668501375],[-122.8400942625,42.668501375],[-122.8400942625,42.66811075],[-122.8436098875,42.66811075],[-122.8436098875,42.668501375],[-122.844195825,42.668501375],[-122.844195825,42.66811075],[-122.8459536375,42.66811075],[-122.8459536375,42.667720125],[-122.84771145,42.667720125],[-122.84771145,42.6673295],[-122.853570825,42.6673295],[-122.853570825,42.667720125],[-122.855914575,42.667720125],[-122.855914575,42.66811075],[-122.8565005125,42.66811075],[-122.8565005125,42.668501375],[-122.8611880125,42.668501375]],[[-122.8588442625,42.635688875],[-122.8576723875,42.635688875],[-122.8576723875,42.634517],[-122.8588442625,42.634517],[-122.8588442625,42.635688875]],[[-122.862945825,42.629438875],[-122.8623598875,42.629438875],[-122.8623598875,42.627876375],[-122.862945825,42.627876375],[-122.862945825,42.628267],[-122.8635317625,42.628267],[-122.8635317625,42.62904825],[-122.862945825,42.62904825],[-122.862945825,42.629438875]]]}},{"type":"Feature","properties":{"promptIndex":3,"model":"facebook/sam2.1-hiera-tiny","sentinelComposite":"B12/B8A/B04","hotspotObservedAt":"2026-07-16T09:00:00Z","sentinelObservedAt":"2026-07-15T19:12:40.131000Z"},"geometry":{"type":"Polygon","coordinates":[[[-122.949664575,42.69154825],[-122.949664575,42.691157625],[-122.9502505125,42.691157625],[-122.9502505125,42.690376375],[-122.9525942625,42.690376375],[-122.9525942625,42.68998575],[-122.9537661375,42.68998575],[-122.9537661375,42.689595125],[-122.9514223875,42.689595125],[-122.9514223875,42.687642],[-122.95083645,42.687642],[-122.95083645,42.686470125],[-122.954352075,42.686470125],[-122.954352075,42.68686075],[-122.95493801250001,42.68686075],[-122.95493801250001,42.687251375],[-122.954352075,42.687251375],[-122.954352075,42.68842325],[-122.9537661375,42.68842325],[-122.9537661375,42.6892045],[-122.954352075,42.6892045],[-122.954352075,42.68998575],[-122.95493801250001,42.68998575],[-122.95493801250001,42.690376375],[-122.95552395,42.690376375],[-122.95552395,42.690767],[-122.95786770000001,42.690767],[-122.95786770000001,42.690376375],[-122.959039575,42.690376375],[-122.959039575,42.68998575],[-122.9596255125,42.68998575],[-122.9596255125,42.68842325],[-122.96021145,42.68842325],[-122.96021145,42.687642],[-122.96079738750001,42.687642],[-122.96079738750001,42.687251375],[-122.9619692625,42.687251375],[-122.9619692625,42.687642],[-122.9625552,42.687642],[-122.9625552,42.68842325],[-122.9631411375,42.68842325],[-122.9631411375,42.688813875],[-122.9643130125,42.688813875],[-122.9643130125,42.688032625],[-122.96489895,42.688032625],[-122.96489895,42.687642],[-122.9654848875,42.687642],[-122.9654848875,42.687251375],[-122.9672427,42.687251375],[-122.9672427,42.687642],[-122.9690005125,42.687642],[-122.9690005125,42.687251375],[-122.9719302,42.687251375],[-122.9719302,42.68686075],[-122.973102075,42.68686075],[-122.973102075,42.68529825],[-122.97251613750001,42.68529825],[-122.97251613750001,42.685688875],[-122.9719302,42.685688875],[-122.9719302,42.6860795],[-122.9701723875,42.6860795],[-122.9701723875,42.685688875],[-122.9690005125,42.685688875],[-122.9690005125,42.684907625],[-122.96958645000001,42.684907625],[-122.96958645000001,42.684517],[-122.9719302,42.684517],[-122.9719302,42.684126375],[-122.97251613750001,42.684126375],[-122.97251613750001,42.683345125],[-122.9713442625,42.683345125],[-122.9713442625,42.6829545],[-122.96958645000001,42.6829545],[-122.96958645000001,42.682563875],[-122.9690005125,42.682563875],[-122.9690005125,42.681782625],[-122.96958645000001,42.681782625],[-122.96958645000001,42.681392],[-122.970758325,42.681392],[-122.970758325,42.681001375],[-122.9713442625,42.681001375],[-122.9713442625,42.6798295],[-122.970758325,42.6798295],[-122.970758325,42.679438875],[-122.9701723875,42.679438875],[-122.9701723875,42.678267],[-122.970758325,42.678267],[-122.970758325,42.677095125],[-122.96958645000001,42.677095125],[-122.96958645000001,42.67748575],[-122.9678286375,42.67748575],[-122.9678286375,42.678657625],[-122.9672427,42.678657625],[-122.9672427,42.679438875],[-122.96665676250001,42.679438875],[-122.96665676250001,42.680220125],[-122.9654848875,42.680220125],[-122.9654848875,42.6798295],[-122.96489895,42.6798295],[-122.96489895,42.67904825],[-122.9643130125,42.67904825],[-122.9643130125,42.678267],[-122.96372707500001,42.678267],[-122.96372707500001,42.677876375],[-122.9631411375,42.677876375],[-122.9631411375,42.67748575],[-122.96372707500001,42.67748575],[-122.96372707500001,42.677095125],[-122.9643130125,42.677095125],[-122.9643130125,42.6767045],[-122.9654848875,42.6767045],[-122.9654848875,42.676313875],[-122.966070825,42.676313875],[-122.966070825,42.675532625],[-122.96665676250001,42.675532625],[-122.96665676250001,42.674751375],[-122.9672427,42.674751375],[-122.9672427,42.673188875],[-122.96665676250001,42.673188875],[-122.96665676250001,42.672407625],[-122.966070825,42.672407625],[-122.966070825,42.672017],[-122.9654848875,42.672017],[-122.9654848875,42.67123575],[-122.96489895,42.67123575],[-122.96489895,42.6704545],[-122.9643130125,42.6704545],[-122.9643130125,42.670063875],[-122.96372707500001,42.670063875],[-122.96372707500001,42.6673295],[-122.9643130125,42.6673295],[-122.9643130125,42.666938875],[-122.96489895,42.666938875],[-122.96489895,42.666157625],[-122.9643130125,42.666157625],[-122.9643130125,42.665767],[-122.9631411375,42.665767],[-122.9631411375,42.663813875],[-122.96372707500001,42.663813875],[-122.96372707500001,42.66342325],[-122.96079738750001,42.66342325],[-122.96079738750001,42.663032625],[-122.9561098875,42.663032625],[-122.9561098875,42.662642],[-122.9537661375,42.662642],[-122.9537661375,42.662251375],[-122.95083645,42.662251375],[-122.95083645,42.66186075],[-122.94907863750001,42.66186075],[-122.94907863750001,42.6610795],[-122.9479067625,42.6610795],[-122.9479067625,42.660688875],[-122.9467348875,42.660688875],[-122.9467348875,42.66029825],[-122.94614895000001,42.66029825],[-122.94614895000001,42.659907625],[-122.9397036375,42.659907625],[-122.9397036375,42.66029825],[-122.9391177,42.66029825],[-122.9391177,42.661470125],[-122.9385317625,42.661470125],[-122.9385317625,42.662251375],[-122.937945825,42.662251375],[-122.937945825,42.663032625],[-122.93735988750001,42.663032625],[-122.93735988750001,42.66342325],[-122.93677395,42.66342325],[-122.93677395,42.663813875],[-122.9361880125,42.663813875],[-122.9361880125,42.6642045],[-122.935602075,42.6642045],[-122.935602075,42.664595125],[-122.9350161375,42.664595125],[-122.9350161375,42.66498575],[-122.93443020000001,42.66498575],[-122.93443020000001,42.665376375],[-122.9338442625,42.665376375],[-122.9338442625,42.665767],[-122.933258325,42.665767],[-122.933258325,42.66967325],[-122.9338442625,42.66967325],[-122.9338442625,42.670845125],[-122.93443020000001,42.670845125],[-122.93443020000001,42.673188875],[-122.9338442625,42.673188875],[-122.9338442625,42.6735795],[-122.933258325,42.6735795],[-122.933258325,42.675142],[-122.9338442625,42.675142],[-122.9338442625,42.6798295],[-122.93443020000001,42.6798295],[-122.93443020000001,42.680220125],[-122.935602075,42.680220125],[-122.935602075,42.68061075],[-122.9361880125,42.68061075],[-122.9361880125,42.681392],[-122.93677395,42.681392],[-122.93677395,42.681782625],[-122.93735988750001,42.681782625],[-122.93735988750001,42.68217325],[-122.937945825,42.68217325],[-122.937945825,42.682563875],[-122.93735988750001,42.682563875],[-122.93735988750001,42.6829545],[-122.93677395,42.6829545],[-122.93677395,42.683345125],[-122.9361880125,42.683345125],[-122.9361880125,42.68373575],[-122.93677395,42.68373575],[-122.93677395,42.684126375],[-122.93735988750001,42.684126375],[-122.93735988750001,42.684517],[-122.9385317625,42.684517],[-122.9385317625,42.68529825],[-122.9391177,42.68529825],[-122.9391177,42.686470125],[-122.9397036375,42.686470125],[-122.9397036375,42.68686075],[-122.9408755125,42.68686075],[-122.9408755125,42.687251375],[-122.9420473875,42.687251375],[-122.9420473875,42.687642],[-122.94321926250001,42.687642],[-122.94321926250001,42.68842325],[-122.9438052,42.68842325],[-122.9438052,42.690376375],[-122.9443911375,42.690376375],[-122.9443911375,42.690767],[-122.9455630125,42.690767],[-122.9455630125,42.691157625],[-122.94907863750001,42.691157625],[-122.94907863750001,42.69154825],[-122.949664575,42.69154825]],[[-122.96372707500001,42.685688875],[-122.9631411375,42.685688875],[-122.9631411375,42.68529825],[-122.9625552,42.68529825],[-122.9625552,42.684907625],[-122.9631411375,42.684907625],[-122.9631411375,42.68373575],[-122.96372707500001,42.68373575],[-122.96372707500001,42.683345125],[-122.9654848875,42.683345125],[-122.9654848875,42.6829545],[-122.96665676250001,42.6829545],[-122.96665676250001,42.683345125],[-122.9672427,42.683345125],[-122.9672427,42.684126375],[-122.96665676250001,42.684126375],[-122.96665676250001,42.684517],[-122.96489895,42.684517],[-122.96489895,42.684907625],[-122.9643130125,42.684907625],[-122.9643130125,42.68529825],[-122.96372707500001,42.68529825],[-122.96372707500001,42.685688875]],[[-122.9619692625,42.666938875],[-122.96079738750001,42.666938875],[-122.96079738750001,42.666157625],[-122.9625552,42.666157625],[-122.9625552,42.66654825],[-122.9619692625,42.66654825],[-122.9619692625,42.666938875]]]}},{"type":"Feature","properties":{"promptIndex":4,"model":"facebook/sam2.1-hiera-tiny","sentinelComposite":"B12/B8A/B04","hotspotObservedAt":"2026-07-16T09:00:00Z","sentinelObservedAt":"2026-07-15T19:12:40.131000Z"},"geometry":{"type":"Polygon","coordinates":[[[-123.005914575,42.629438875],[-123.005914575,42.62904825],[-123.00708645,42.62904825],[-123.00708645,42.628657625],[-123.00767238750001,42.628657625],[-123.00767238750001,42.628267],[-123.008258325,42.628267],[-123.008258325,42.627876375],[-123.0094302,42.627876375],[-123.0094302,42.62748575],[-123.0100161375,42.62748575],[-123.0100161375,42.627095125],[-123.01060207500001,42.627095125],[-123.01060207500001,42.626313875],[-123.0111880125,42.626313875],[-123.0111880125,42.625532625],[-123.0123598875,42.625532625],[-123.0123598875,42.625142],[-123.012945825,42.625142],[-123.012945825,42.624751375],[-123.0141177,42.624751375],[-123.0141177,42.623970125],[-123.015289575,42.623970125],[-123.015289575,42.6235795],[-123.0158755125,42.6235795],[-123.0158755125,42.623188875],[-123.01646145000001,42.623188875],[-123.01646145000001,42.622407625],[-123.0170473875,42.622407625],[-123.0170473875,42.621626375],[-123.017633325,42.621626375],[-123.017633325,42.6204545],[-123.0182192625,42.6204545],[-123.0182192625,42.620063875],[-123.0188052,42.620063875],[-123.0188052,42.61967325],[-123.019977075,42.61967325],[-123.019977075,42.619282625],[-123.01939113750001,42.619282625],[-123.01939113750001,42.618501375],[-123.0188052,42.618501375],[-123.0188052,42.61811075],[-123.0182192625,42.61811075],[-123.0182192625,42.617720125],[-123.0170473875,42.617720125],[-123.0170473875,42.616938875],[-123.01646145000001,42.616938875],[-123.01646145000001,42.61654825],[-123.0158755125,42.61654825],[-123.0158755125,42.616157625],[-123.01646145000001,42.616157625],[-123.01646145000001,42.61498575],[-123.0170473875,42.61498575],[-123.0170473875,42.612642],[-123.017633325,42.612642],[-123.017633325,42.611470125],[-123.0170473875,42.611470125],[-123.0170473875,42.609517],[-123.017633325,42.609517],[-123.017633325,42.609126375],[-123.0182192625,42.609126375],[-123.0182192625,42.6079545],[-123.0188052,42.6079545],[-123.0188052,42.607563875],[-123.01939113750001,42.607563875],[-123.01939113750001,42.60717325],[-123.0188052,42.60717325],[-123.0188052,42.606392],[-123.0182192625,42.606392],[-123.0182192625,42.60561075],[-123.017633325,42.60561075],[-123.017633325,42.605220125],[-123.015289575,42.605220125],[-123.015289575,42.6048295],[-123.0147036375,42.6048295],[-123.0147036375,42.604438875],[-123.0088442625,42.604438875],[-123.0088442625,42.60404825],[-123.00767238750001,42.60404825],[-123.00767238750001,42.603657625],[-123.00708645,42.603657625],[-123.00708645,42.603267],[-123.0053286375,42.603267],[-123.0053286375,42.602876375],[-123.00474270000001,42.602876375],[-123.00474270000001,42.60248575],[-123.0041567625,42.60248575],[-123.0041567625,42.602095125],[-123.0029848875,42.602095125],[-123.0029848875,42.60248575],[-123.00181301250001,42.60248575],[-123.00181301250001,42.602876375],[-123.0006411375,42.602876375],[-123.0006411375,42.603267],[-123.0000552,42.603267],[-123.0000552,42.603657625],[-122.99888332500001,42.603657625],[-122.99888332500001,42.60404825],[-122.9971255125,42.60404825],[-122.9971255125,42.604438875],[-122.996539575,42.604438875],[-122.996539575,42.6048295],[-122.99595363750001,42.6048295],[-122.99595363750001,42.605220125],[-122.9953677,42.605220125],[-122.9953677,42.60561075],[-122.994195825,42.60561075],[-122.994195825,42.606392],[-122.9936098875,42.606392],[-122.9936098875,42.606782625],[-122.9924380125,42.606782625],[-122.9924380125,42.60717325],[-122.99302395000001,42.60717325],[-122.99302395000001,42.607563875],[-122.9936098875,42.607563875],[-122.9936098875,42.609126375],[-122.994195825,42.609126375],[-122.994195825,42.610688875],[-122.9947817625,42.610688875],[-122.9947817625,42.613032625],[-122.994195825,42.613032625],[-122.994195825,42.616938875],[-122.9936098875,42.616938875],[-122.9936098875,42.617720125],[-122.99302395000001,42.617720125],[-122.99302395000001,42.618501375],[-122.9936098875,42.618501375],[-122.9936098875,42.62436075],[-122.99302395000001,42.62436075],[-122.99302395000001,42.624751375],[-122.9936098875,42.624751375],[-122.9936098875,42.627095125],[-122.994195825,42.627095125],[-122.994195825,42.62748575],[-122.99771145,42.62748575],[-122.99771145,42.627876375],[-122.9994692625,42.627876375],[-122.9994692625,42.628267],[-123.0006411375,42.628267],[-123.0006411375,42.628657625],[-123.001227075,42.628657625],[-123.001227075,42.62904825],[-123.0053286375,42.62904825],[-123.0053286375,42.629438875],[-123.005914575,42.629438875]],[[-122.9994692625,42.6267045],[-122.9982973875,42.6267045],[-122.9982973875,42.626313875],[-122.99771145,42.626313875],[-122.99771145,42.625532625],[-123.0006411375,42.625532625],[-123.0006411375,42.62592325],[-123.0000552,42.62592325],[-123.0000552,42.626313875],[-122.9994692625,42.626313875],[-122.9994692625,42.6267045]],[[-123.0053286375,42.626313875],[-123.00239895,42.626313875],[-123.00239895,42.625532625],[-123.0029848875,42.625532625],[-123.0029848875,42.625142],[-123.0041567625,42.625142],[-123.0041567625,42.625532625],[-123.005914575,42.625532625],[-123.005914575,42.62592325],[-123.0053286375,42.62592325],[-123.0053286375,42.626313875]]]}}]}
