{"type":"FeatureCollection","features":[{"type":"Feature","properties":{"promptIndex":0,"model":"facebook/sam2.1-hiera-tiny","sentinelComposite":"B12/B8A/B04","hotspotObservedAt":"2026-07-18T21:00:00Z","sentinelObservedAt":"2026-07-15T19:12:40.131000Z"},"geometry":{"type":"Polygon","coordinates":[[[-122.9080630125,42.632563875],[-122.9080630125,42.631782625],[-122.9068911375,42.631782625],[-122.9068911375,42.632563875],[-122.9080630125,42.632563875]]]}},{"type":"Feature","properties":{"promptIndex":0,"model":"facebook/sam2.1-hiera-tiny","sentinelComposite":"B12/B8A/B04","hotspotObservedAt":"2026-07-18T21:00:00Z","sentinelObservedAt":"2026-07-15T19:12:40.131000Z"},"geometry":{"type":"Polygon","coordinates":[[[-122.898102075,42.6329545],[-122.898102075,42.632563875],[-122.9016177,42.632563875],[-122.9016177,42.63217325],[-122.902789575,42.63217325],[-122.902789575,42.631782625],[-122.9033755125,42.631782625],[-122.9033755125,42.631392],[-122.90396145,42.631392],[-122.90396145,42.63061075],[-122.905133325,42.63061075],[-122.905133325,42.630220125],[-122.9063052,42.630220125],[-122.9063052,42.6298295],[-122.9115786375,42.6298295],[-122.9115786375,42.630220125],[-122.912164575,42.630220125],[-122.912164575,42.63061075],[-122.9150942625,42.63061075],[-122.9150942625,42.630220125],[-122.9174380125,42.630220125],[-122.9174380125,42.631392],[-122.9162661375,42.631392],[-122.9162661375,42.63217325],[-122.91685207500001,42.63217325],[-122.91685207500001,42.632563875],[-122.919195825,42.632563875],[-122.919195825,42.63217325],[-122.9203677,42.63217325],[-122.9203677,42.631782625],[-122.9209536375,42.631782625],[-122.9209536375,42.631001375],[-122.92271145000001,42.631001375],[-122.92271145000001,42.63061075],[-122.9250552,42.63061075],[-122.9250552,42.630220125],[-122.92564113750001,42.630220125],[-122.92564113750001,42.62904825],[-122.9268130125,42.62904825],[-122.9268130125,42.628657625],[-122.9303286375,42.628657625],[-122.9303286375,42.628267],[-122.930914575,42.628267],[-122.930914575,42.628657625],[-122.93150051250001,42.628657625],[-122.93150051250001,42.62904825],[-122.93208645,42.62904825],[-122.93208645,42.629438875],[-122.9326723875,42.629438875],[-122.9326723875,42.6298295],[-122.9338442625,42.6298295],[-122.9338442625,42.629438875],[-122.935602075,42.629438875],[-122.935602075,42.62904825],[-122.9361880125,42.62904825],[-122.9361880125,42.62748575],[-122.93677395,42.62748575],[-122.93677395,42.627095125],[-122.937945825,42.627095125],[-122.937945825,42.6267045],[-122.9385317625,42.6267045],[-122.9385317625,42.626313875],[-122.9397036375,42.626313875],[-122.9397036375,42.625532625],[-122.9391177,42.625532625],[-122.9391177,42.624751375],[-122.9385317625,42.624751375],[-122.9385317625,42.6235795],[-122.93735988750001,42.6235795],[-122.93735988750001,42.622017],[-122.9385317625,42.622017],[-122.9385317625,42.62279825],[-122.9391177,42.62279825],[-122.9391177,42.6235795],[-122.94028957500001,42.6235795],[-122.94028957500001,42.623188875],[-122.9408755125,42.623188875],[-122.9408755125,42.621626375],[-122.94028957500001,42.621626375],[-122.94028957500001,42.618892],[-122.9397036375,42.618892],[-122.9397036375,42.618501375],[-122.9391177,42.618501375],[-122.9391177,42.61811075],[-122.94028957500001,42.61811075],[-122.94028957500001,42.617720125],[-122.9408755125,42.617720125],[-122.9408755125,42.6173295],[-122.94146145,42.6173295],[-122.94146145,42.61654825],[-122.9420473875,42.61654825],[-122.9420473875,42.615767],[-122.942633325,42.615767],[-122.942633325,42.615376375],[-122.94321926250001,42.615376375],[-122.94321926250001,42.614595125],[-122.942633325,42.614595125],[-122.942633325,42.6142045],[-122.9420473875,42.6142045],[-122.9420473875,42.612642],[-122.942633325,42.612642],[-122.942633325,42.61186075],[-122.94321926250001,42.61186075],[-122.94321926250001,42.6110795],[-122.9443911375,42.6110795],[-122.9443911375,42.610688875],[-122.944977075,42.610688875],[-122.944977075,42.609517],[-122.9443911375,42.609517],[-122.9443911375,42.609126375],[-122.9438052,42.609126375],[-122.9438052,42.608345125],[-122.94321926250001,42.608345125],[-122.94321926250001,42.6079545],[-122.9420473875,42.6079545],[-122.9420473875,42.607563875],[-122.9408755125,42.607563875],[-122.9408755125,42.606782625],[-122.9397036375,42.606782625],[-122.9397036375,42.606392],[-122.9391177,42.606392],[-122.9391177,42.606001375],[-122.9385317625,42.606001375],[-122.9385317625,42.605220125],[-122.93735988750001,42.605220125],[-122.93735988750001,42.6048295],[-122.93677395,42.6048295],[-122.93677395,42.60404825],[-122.9361880125,42.60404825],[-122.9361880125,42.603657625],[-122.933258325,42.603657625],[-122.933258325,42.603267],[-122.9326723875,42.603267],[-122.9326723875,42.602876375],[-122.93208645,42.602876375],[-122.93208645,42.60248575],[-122.930914575,42.60248575],[-122.930914575,42.602095125],[-122.9268130125,42.602095125],[-122.9268130125,42.60248575],[-122.926227075,42.60248575],[-122.926227075,42.602095125],[-122.92564113750001,42.602095125],[-122.92564113750001,42.6017045],[-122.9221255125,42.6017045],[-122.9221255125,42.602095125],[-122.9209536375,42.602095125],[-122.9209536375,42.60248575],[-122.9203677,42.60248575],[-122.9203677,42.603267],[-122.91978176250001,42.603267],[-122.91978176250001,42.604438875],[-122.9186098875,42.604438875],[-122.9186098875,42.6048295],[-122.91685207500001,42.6048295],[-122.91685207500001,42.60561075],[-122.91392238750001,42.60561075],[-122.91392238750001,42.605220125],[-122.91333645,42.605220125],[-122.91333645,42.6048295],[-122.9127505125,42.6048295],[-122.9127505125,42.604438875],[-122.912164575,42.604438875],[-122.912164575,42.60404825],[-122.9115786375,42.60404825],[-122.9115786375,42.603657625],[-122.91099270000001,42.603657625],[-122.91099270000001,42.603267],[-122.9104067625,42.603267],[-122.9104067625,42.602876375],[-122.909820825,42.602876375],[-122.909820825,42.60248575],[-122.9080630125,42.60248575],[-122.9080630125,42.602095125],[-122.9016177,42.602095125],[-122.9016177,42.6017045],[-122.898102075,42.6017045],[-122.898102075,42.602095125],[-122.8975161375,42.602095125],[-122.8975161375,42.60248575],[-122.8969302,42.60248575],[-122.8969302,42.603267],[-122.8963442625,42.603267],[-122.8963442625,42.60404825],[-122.895758325,42.60404825],[-122.895758325,42.604438875],[-122.89458645,42.604438875],[-122.89458645,42.6048295],[-122.8940005125,42.6048295],[-122.8940005125,42.605220125],[-122.8904848875,42.605220125],[-122.8904848875,42.60717325],[-122.891070825,42.60717325],[-122.891070825,42.607563875],[-122.8904848875,42.607563875],[-122.8904848875,42.609126375],[-122.88989895,42.609126375],[-122.88989895,42.609517],[-122.8893130125,42.609517],[-122.8893130125,42.609907625],[-122.8881411375,42.609907625],[-122.8881411375,42.610688875],[-122.8875552,42.610688875],[-122.8875552,42.6110795],[-122.8869692625,42.6110795],[-122.8869692625,42.611470125],[-122.886383325,42.611470125],[-122.886383325,42.61186075],[-122.8857973875,42.61186075],[-122.8857973875,42.612251375],[-122.886383325,42.612251375],[-122.886383325,42.612642],[-122.8869692625,42.612642],[-122.8869692625,42.6142045],[-122.8875552,42.6142045],[-122.8875552,42.61498575],[-122.8881411375,42.61498575],[-122.8881411375,42.6173295],[-122.888727075,42.6173295],[-122.888727075,42.617720125],[-122.8893130125,42.617720125],[-122.8893130125,42.618892],[-122.888727075,42.618892],[-122.888727075,42.620845125],[-122.8893130125,42.620845125],[-122.8893130125,42.62123575],[-122.888727075,42.62123575],[-122.888727075,42.622017],[-122.8881411375,42.622017],[-122.8881411375,42.623188875],[-122.8875552,42.623188875],[-122.8875552,42.6235795],[-122.8869692625,42.6235795],[-122.8869692625,42.623970125],[-122.886383325,42.623970125],[-122.886383325,42.624751375],[-122.8869692625,42.624751375],[-122.8869692625,42.625142],[-122.8875552,42.625142],[-122.8875552,42.625532625],[-122.8881411375,42.625532625],[-122.8881411375,42.627876375],[-122.8875552,42.627876375],[-122.8875552,42.629438875],[-122.8881411375,42.629438875],[-122.8881411375,42.6298295],[-122.888727075,42.6298295],[-122.888727075,42.630220125],[-122.8893130125,42.630220125],[-122.8893130125,42.631392],[-122.88989895,42.631392],[-122.88989895,42.63217325],[-122.8904848875,42.63217325],[-122.8904848875,42.632563875],[-122.891070825,42.632563875],[-122.891070825,42.6329545],[-122.8916567625,42.6329545],[-122.8916567625,42.632563875],[-122.8951723875,42.632563875],[-122.8951723875,42.6329545],[-122.898102075,42.6329545]],[[-122.9338442625,42.623188875],[-122.933258325,42.623188875],[-122.933258325,42.622407625],[-122.9338442625,42.622407625],[-122.9338442625,42.623188875]],[[-122.9338442625,42.6204545],[-122.9326723875,42.6204545],[-122.9326723875,42.620063875],[-122.93208645,42.620063875],[-122.93208645,42.619282625],[-122.9326723875,42.619282625],[-122.9326723875,42.618501375],[-122.933258325,42.618501375],[-122.933258325,42.61811075],[-122.9338442625,42.61811075],[-122.9338442625,42.618892],[-122.93443020000001,42.618892],[-122.93443020000001,42.620063875],[-122.9338442625,42.620063875],[-122.9338442625,42.6204545]],[[-122.9361880125,42.615376375],[-122.935602075,42.615376375],[-122.935602075,42.61498575],[-122.9361880125,42.61498575],[-122.9361880125,42.615376375]]]}},{"type":"Feature","properties":{"promptIndex":1,"model":"facebook/sam2.1-hiera-tiny","sentinelComposite":"B12/B8A/B04","hotspotObservedAt":"2026-07-18T21:00:00Z","sentinelObservedAt":"2026-07-15T19:12:40.131000Z"},"geometry":{"type":"Polygon","coordinates":[[[-122.8922427,42.649751375],[-122.8922427,42.648970125],[-122.8904848875,42.648970125],[-122.8904848875,42.649751375],[-122.8922427,42.649751375]]]}},{"type":"Feature","properties":{"promptIndex":1,"model":"facebook/sam2.1-hiera-tiny","sentinelComposite":"B12/B8A/B04","hotspotObservedAt":"2026-07-18T21:00:00Z","sentinelObservedAt":"2026-07-15T19:12:40.131000Z"},"geometry":{"type":"Polygon","coordinates":[[[-122.912164575,42.645063875],[-122.912164575,42.64467325],[-122.9127505125,42.64467325],[-122.9127505125,42.644282625],[-122.9115786375,42.644282625],[-122.9115786375,42.645063875],[-122.912164575,42.645063875]]]}},{"type":"Feature","properties":{"promptIndex":1,"model":"facebook/sam2.1-hiera-tiny","sentinelComposite":"B12/B8A/B04","hotspotObservedAt":"2026-07-18T21:00:00Z","sentinelObservedAt":"2026-07-15T19:12:40.131000Z"},"geometry":{"type":"Polygon","coordinates":[[[-122.8963442625,42.634126375],[-122.8963442625,42.633345125],[-122.8951723875,42.633345125],[-122.8951723875,42.634126375],[-122.8963442625,42.634126375]]]}},{"type":"Feature","properties":{"promptIndex":1,"model":"facebook/sam2.1-hiera-tiny","sentinelComposite":"B12/B8A/B04","hotspotObservedAt":"2026-07-18T21:00:00Z","sentinelObservedAt":"2026-07-15T19:12:40.131000Z"},"geometry":{"type":"Polygon","coordinates":[[[-122.9127505125,42.632563875],[-122.9127505125,42.63217325],[-122.91099270000001,42.63217325],[-122.91099270000001,42.632563875],[-122.9127505125,42.632563875]]]}},{"type":"Feature","properties":{"promptIndex":1,"model":"facebook/sam2.1-hiera-tiny","sentinelComposite":"B12/B8A/B04","hotspotObservedAt":"2026-07-18T21:00:00Z","sentinelObservedAt":"2026-07-15T19:12:40.131000Z"},"geometry":{"type":"Polygon","coordinates":[[[-122.8811098875,42.654438875],[-122.8811098875,42.65404825],[-122.881695825,42.65404825],[-122.881695825,42.653657625],[-122.8828677,42.653657625],[-122.8828677,42.653267],[-122.884039575,42.653267],[-122.884039575,42.652876375],[-122.8846255125,42.652876375],[-122.8846255125,42.65248575],[-122.88521145,42.65248575],[-122.88521145,42.650532625],[-122.8857973875,42.650532625],[-122.8857973875,42.650142],[-122.886383325,42.650142],[-122.886383325,42.649751375],[-122.8869692625,42.649751375],[-122.8869692625,42.64936075],[-122.8875552,42.64936075],[-122.8875552,42.6485795],[-122.888727075,42.6485795],[-122.888727075,42.648188875],[-122.8893130125,42.648188875],[-122.8893130125,42.647017],[-122.888727075,42.647017],[-122.888727075,42.646626375],[-122.8881411375,42.646626375],[-122.8881411375,42.645063875],[-122.88989895,42.645063875],[-122.88989895,42.64467325],[-122.891070825,42.64467325],[-122.891070825,42.645063875],[-122.8904848875,42.645063875],[-122.8904848875,42.646626375],[-122.8922427,42.646626375],[-122.8922427,42.648970125],[-122.8940005125,42.648970125],[-122.8940005125,42.64936075],[-122.89458645,42.64936075],[-122.89458645,42.649751375],[-122.895758325,42.649751375],[-122.895758325,42.650142],[-122.8969302,42.650142],[-122.8969302,42.650532625],[-122.8975161375,42.650532625],[-122.8975161375,42.65092325],[-122.8986880125,42.65092325],[-122.8986880125,42.651313875],[-122.9016177,42.651313875],[-122.9016177,42.6517045],[-122.9045473875,42.6517045],[-122.9045473875,42.652095125],[-122.9063052,42.652095125],[-122.9063052,42.6517045],[-122.90864895,42.6517045],[-122.90864895,42.651313875],[-122.9104067625,42.651313875],[-122.9104067625,42.65248575],[-122.91099270000001,42.65248575],[-122.91099270000001,42.652876375],[-122.9115786375,42.652876375],[-122.9115786375,42.653267],[-122.9127505125,42.653267],[-122.9127505125,42.652876375],[-122.91333645,42.652876375],[-122.91333645,42.65248575],[-122.91392238750001,42.65248575],[-122.91392238750001,42.65092325],[-122.914508325,42.65092325],[-122.914508325,42.649751375],[-122.9150942625,42.649751375],[-122.9150942625,42.648970125],[-122.914508325,42.648970125],[-122.914508325,42.6485795],[-122.91333645,42.6485795],[-122.91333645,42.648970125],[-122.9115786375,42.648970125],[-122.9115786375,42.6485795],[-122.91099270000001,42.6485795],[-122.91099270000001,42.64779825],[-122.909820825,42.64779825],[-122.909820825,42.647017],[-122.9092348875,42.647017],[-122.9092348875,42.646626375],[-122.90864895,42.646626375],[-122.90864895,42.644282625],[-122.9080630125,42.644282625],[-122.9080630125,42.643892],[-122.907477075,42.643892],[-122.907477075,42.643501375],[-122.9068911375,42.643501375],[-122.9068911375,42.642720125],[-122.907477075,42.642720125],[-122.907477075,42.6423295],[-122.9080630125,42.6423295],[-122.9080630125,42.641157625],[-122.90864895,42.641157625],[-122.90864895,42.640376375],[-122.9092348875,42.640376375],[-122.9092348875,42.639595125],[-122.909820825,42.639595125],[-122.909820825,42.63842325],[-122.9104067625,42.63842325],[-122.9104067625,42.638813875],[-122.91333645,42.638813875],[-122.91333645,42.63842325],[-122.91392238750001,42.63842325],[-122.91392238750001,42.638032625],[-122.914508325,42.638032625],[-122.914508325,42.637251375],[-122.9150942625,42.637251375],[-122.9150942625,42.63686075],[-122.914508325,42.63686075],[-122.914508325,42.6360795],[-122.91392238750001,42.6360795],[-122.91392238750001,42.635688875],[-122.91333645,42.635688875],[-122.91333645,42.634517],[-122.9127505125,42.634517],[-122.9127505125,42.634126375],[-122.9104067625,42.634126375],[-122.9104067625,42.6329545],[-122.9092348875,42.6329545],[-122.9092348875,42.634517],[-122.907477075,42.634517],[-122.907477075,42.634907625],[-122.9063052,42.634907625],[-122.9063052,42.6360795],[-122.9045473875,42.6360795],[-122.9045473875,42.635688875],[-122.90396145,42.635688875],[-122.90396145,42.634907625],[-122.9033755125,42.634907625],[-122.9033755125,42.634517],[-122.9022036375,42.634517],[-122.9022036375,42.634907625],[-122.9016177,42.634907625],[-122.9016177,42.635688875],[-122.9010317625,42.635688875],[-122.9010317625,42.638813875],[-122.8998598875,42.638813875],[-122.8998598875,42.638032625],[-122.89927395,42.638032625],[-122.89927395,42.637642],[-122.8986880125,42.637642],[-122.8986880125,42.637251375],[-122.8975161375,42.637251375],[-122.8975161375,42.6360795],[-122.8986880125,42.6360795],[-122.8986880125,42.635688875],[-122.89927395,42.635688875],[-122.89927395,42.634907625],[-122.8986880125,42.634907625],[-122.8986880125,42.634517],[-122.8975161375,42.634517],[-122.8975161375,42.634907625],[-122.8969302,42.634907625],[-122.8969302,42.635688875],[-122.8963442625,42.635688875],[-122.8963442625,42.6360795],[-122.895758325,42.6360795],[-122.895758325,42.635688875],[-122.8951723875,42.635688875],[-122.8951723875,42.63529825],[-122.89458645,42.63529825],[-122.89458645,42.634907625],[-122.8940005125,42.634907625],[-122.8940005125,42.634517],[-122.8916567625,42.634517],[-122.8916567625,42.634126375],[-122.891070825,42.634126375],[-122.891070825,42.633345125],[-122.8904848875,42.633345125],[-122.8904848875,42.6329545],[-122.88989895,42.6329545],[-122.88989895,42.632563875],[-122.8893130125,42.632563875],[-122.8893130125,42.63217325],[-122.888727075,42.63217325],[-122.888727075,42.631782625],[-122.8828677,42.631782625],[-122.8828677,42.631392],[-122.8822817625,42.631392],[-122.8822817625,42.63061075],[-122.881695825,42.63061075],[-122.881695825,42.630220125],[-122.88052395,42.630220125],[-122.88052395,42.63061075],[-122.879352075,42.63061075],[-122.879352075,42.631001375],[-122.8787661375,42.631001375],[-122.8787661375,42.631392],[-122.8781802,42.631392],[-122.8781802,42.631782625],[-122.8775942625,42.631782625],[-122.8775942625,42.63217325],[-122.87583645,42.63217325],[-122.87583645,42.634517],[-122.8752505125,42.634517],[-122.8752505125,42.636470125],[-122.87583645,42.636470125],[-122.87583645,42.648188875],[-122.8752505125,42.648188875],[-122.8752505125,42.649751375],[-122.87583645,42.649751375],[-122.87583645,42.650532625],[-122.877008325,42.650532625],[-122.877008325,42.65092325],[-122.8775942625,42.65092325],[-122.8775942625,42.651313875],[-122.8781802,42.651313875],[-122.8781802,42.6517045],[-122.879352075,42.6517045],[-122.879352075,42.652095125],[-122.8799380125,42.652095125],[-122.8799380125,42.653267],[-122.879352075,42.653267],[-122.879352075,42.653657625],[-122.8787661375,42.653657625],[-122.8787661375,42.654438875],[-122.8811098875,42.654438875]],[[-122.895758325,42.646626375],[-122.8951723875,42.646626375],[-122.8951723875,42.64623575],[-122.895758325,42.64623575],[-122.895758325,42.646626375]],[[-122.8875552,42.645063875],[-122.886383325,42.645063875],[-122.886383325,42.644282625],[-122.8869692625,42.644282625],[-122.8869692625,42.64467325],[-122.8875552,42.64467325],[-122.8875552,42.645063875]],[[-122.9127505125,42.637251375],[-122.9115786375,42.637251375],[-122.9115786375,42.636470125],[-122.9127505125,42.636470125],[-122.9127505125,42.637251375]],[[-122.9080630125,42.637251375],[-122.9068911375,42.637251375],[-122.9068911375,42.63686075],[-122.9063052,42.63686075],[-122.9063052,42.6360795],[-122.9080630125,42.6360795],[-122.9080630125,42.637251375]]]}},{"type":"Feature","properties":{"promptIndex":1,"model":"facebook/sam2.1-hiera-tiny","sentinelComposite":"B12/B8A/B04","hotspotObservedAt":"2026-07-18T21:00:00Z","sentinelObservedAt":"2026-07-15T19:12:40.131000Z"},"geometry":{"type":"Polygon","coordinates":[[[-122.9057192625,42.634126375],[-122.9057192625,42.633345125],[-122.9068911375,42.633345125],[-122.9068911375,42.6329545],[-122.9092348875,42.6329545],[-122.9092348875,42.631782625],[-122.90864895,42.631782625],[-122.90864895,42.631392],[-122.9068911375,42.631392],[-122.9068911375,42.631001375],[-122.9063052,42.631001375],[-122.9063052,42.63061075],[-122.9057192625,42.63061075],[-122.9057192625,42.630220125],[-122.9045473875,42.630220125],[-122.9045473875,42.63061075],[-122.90396145,42.63061075],[-122.90396145,42.631001375],[-122.9033755125,42.631001375],[-122.9033755125,42.631392],[-122.9022036375,42.631392],[-122.9022036375,42.631782625],[-122.9016177,42.631782625],[-122.9016177,42.63217325],[-122.9010317625,42.63217325],[-122.9010317625,42.632563875],[-122.9016177,42.632563875],[-122.9016177,42.6329545],[-122.9033755125,42.6329545],[-122.9033755125,42.633345125],[-122.90396145,42.633345125],[-122.90396145,42.63373575],[-122.9045473875,42.63373575],[-122.9045473875,42.634126375],[-122.9057192625,42.634126375]]]}},{"type":"Feature","properties":{"promptIndex":2,"model":"facebook/sam2.1-hiera-tiny","sentinelComposite":"B12/B8A/B04","hotspotObservedAt":"2026-07-18T21:00:00Z","sentinelObservedAt":"2026-07-15T19:12:40.131000Z"},"geometry":{"type":"Polygon","coordinates":[[[-122.9174380125,42.751313875],[-122.9174380125,42.750532625],[-122.91685207500001,42.750532625],[-122.91685207500001,42.751313875],[-122.9174380125,42.751313875]]]}},{"type":"Feature","properties":{"promptIndex":2,"model":"facebook/sam2.1-hiera-tiny","sentinelComposite":"B12/B8A/B04","hotspotObservedAt":"2026-07-18T21:00:00Z","sentinelObservedAt":"2026-07-15T19:12:40.131000Z"},"geometry":{"type":"Polygon","coordinates":[[[-122.9502505125,42.6892045],[-122.9502505125,42.6860795],[-122.94907863750001,42.6860795],[-122.94907863750001,42.687251375],[-122.9484927,42.687251375],[-122.9484927,42.688813875],[-122.94907863750001,42.688813875],[-122.94907863750001,42.6892045],[-122.9502505125,42.6892045]]]}},{"type":"Feature","properties":{"promptIndex":2,"model":"facebook/sam2.1-hiera-tiny","sentinelComposite":"B12/B8A/B04","hotspotObservedAt":"2026-07-18T21:00:00Z","sentinelObservedAt":"2026-07-15T19:12:40.131000Z"},"geometry":{"type":"Polygon","coordinates":[[[-122.9455630125,42.676313875],[-122.9455630125,42.675532625],[-122.9443911375,42.675532625],[-122.9443911375,42.676313875],[-122.9455630125,42.676313875]]]}},{"type":"Feature","properties":{"promptIndex":2,"model":"facebook/sam2.1-hiera-tiny","sentinelComposite":"B12/B8A/B04","hotspotObservedAt":"2026-07-18T21:00:00Z","sentinelObservedAt":"2026-07-15T19:12:40.131000Z"},"geometry":{"type":"Polygon","coordinates":[[[-122.9455630125,42.673188875],[-122.9455630125,42.67279825],[-122.94614895000001,42.67279825],[-122.94614895000001,42.672407625],[-122.9455630125,42.672407625],[-122.9455630125,42.672017],[-122.9443911375,42.672017],[-122.9443911375,42.672407625],[-122.9438052,42.672407625],[-122.9438052,42.673188875],[-122.9455630125,42.673188875]]]}},{"type":"Feature","properties":{"promptIndex":2,"model":"facebook/sam2.1-hiera-tiny","sentinelComposite":"B12/B8A/B04","hotspotObservedAt":"2026-07-18T21:00:00Z","sentinelObservedAt":"2026-07-15T19:12:40.131000Z"},"geometry":{"type":"Polygon","coordinates":[[[-122.93150051250001,42.695063875],[-122.93150051250001,42.69467325],[-122.93443020000001,42.69467325],[-122.93443020000001,42.694282625],[-122.9350161375,42.694282625],[-122.9350161375,42.693892],[-122.935602075,42.693892],[-122.935602075,42.693501375],[-122.9361880125,42.693501375],[-122.9361880125,42.692720125],[-122.93677395,42.692720125],[-122.93677395,42.69154825],[-122.93735988750001,42.69154825],[-122.93735988750001,42.687642],[-122.9385317625,42.687642],[-122.9385317625,42.687251375],[-122.9397036375,42.687251375],[-122.9397036375,42.686470125],[-122.94028957500001,42.686470125],[-122.94028957500001,42.6860795],[-122.9408755125,42.6860795],[-122.9408755125,42.685688875],[-122.94321926250001,42.685688875],[-122.94321926250001,42.68529825],[-122.9438052,42.68529825],[-122.9438052,42.684907625],[-122.9420473875,42.684907625],[-122.9420473875,42.684517],[-122.9408755125,42.684517],[-122.9408755125,42.684126375],[-122.9397036375,42.684126375],[-122.9397036375,42.684517],[-122.9385317625,42.684517],[-122.9385317625,42.684907625],[-122.937945825,42.684907625],[-122.937945825,42.684517],[-122.93735988750001,42.684517],[-122.93735988750001,42.683345125],[-122.9397036375,42.683345125],[-122.9397036375,42.68373575],[-122.9408755125,42.68373575],[-122.9408755125,42.683345125],[-122.94146145,42.683345125],[-122.94146145,42.6829545],[-122.942633325,42.6829545],[-122.942633325,42.682563875],[-122.9438052,42.682563875],[-122.9438052,42.681782625],[-122.94321926250001,42.681782625],[-122.94321926250001,42.681392],[-122.942633325,42.681392],[-122.942633325,42.68061075],[-122.9420473875,42.68061075],[-122.9420473875,42.675532625],[-122.94146145,42.675532625],[-122.94146145,42.67279825],[-122.9408755125,42.67279825],[-122.9408755125,42.672017],[-122.9391177,42.672017],[-122.9391177,42.671626375],[-122.937945825,42.671626375],[-122.937945825,42.67123575],[-122.93735988750001,42.67123575],[-122.93735988750001,42.670845125],[-122.9361880125,42.670845125],[-122.9361880125,42.6704545],[-122.935602075,42.6704545],[-122.935602075,42.670063875],[-122.9350161375,42.670063875],[-122.9350161375,42.66967325],[-122.93443020000001,42.66967325],[-122.93443020000001,42.669282625],[-122.9338442625,42.669282625],[-122.9338442625,42.668892],[-122.9326723875,42.668892],[-122.9326723875,42.668501375],[-122.930914575,42.668501375],[-122.930914575,42.667720125],[-122.93208645,42.667720125],[-122.93208645,42.6673295],[-122.9326723875,42.6673295],[-122.9326723875,42.666938875],[-122.933258325,42.666938875],[-122.933258325,42.66654825],[-122.9326723875,42.66654825],[-122.9326723875,42.666157625],[-122.93150051250001,42.666157625],[-122.93150051250001,42.665767],[-122.9303286375,42.665767],[-122.9303286375,42.666157625],[-122.9291567625,42.666157625],[-122.9291567625,42.66654825],[-122.92857082500001,42.66654825],[-122.92857082500001,42.666938875],[-122.9279848875,42.666938875],[-122.9279848875,42.66654825],[-122.92739895,42.66654825],[-122.92739895,42.666157625],[-122.9268130125,42.666157625],[-122.9268130125,42.665767],[-122.923883325,42.665767],[-122.923883325,42.665376375],[-122.9162661375,42.665376375],[-122.9162661375,42.665767],[-122.9156802,42.665767],[-122.9156802,42.66654825],[-122.9150942625,42.66654825],[-122.9150942625,42.6673295],[-122.914508325,42.6673295],[-122.914508325,42.667720125],[-122.91392238750001,42.667720125],[-122.91392238750001,42.66811075],[-122.91333645,42.66811075],[-122.91333645,42.668501375],[-122.9127505125,42.668501375],[-122.9127505125,42.668892],[-122.9115786375,42.668892],[-122.9115786375,42.669282625],[-122.91099270000001,42.669282625],[-122.91099270000001,42.66967325],[-122.9104067625,42.66967325],[-122.9104067625,42.670063875],[-122.909820825,42.670063875],[-122.909820825,42.6704545],[-122.9092348875,42.6704545],[-122.9092348875,42.670063875],[-122.9063052,42.670063875],[-122.9063052,42.6704545],[-122.9057192625,42.6704545],[-122.9057192625,42.67123575],[-122.905133325,42.67123575],[-122.905133325,42.671626375],[-122.9045473875,42.671626375],[-122.9045473875,42.672017],[-122.90396145,42.672017],[-122.90396145,42.672407625],[-122.9033755125,42.672407625],[-122.9033755125,42.674751375],[-122.902789575,42.674751375],[-122.902789575,42.675142],[-122.9022036375,42.675142],[-122.9022036375,42.675532625],[-122.9016177,42.675532625],[-122.9016177,42.676313875],[-122.9010317625,42.676313875],[-122.9010317625,42.677876375],[-122.9016177,42.677876375],[-122.9016177,42.6798295],[-122.9022036375,42.6798295],[-122.9022036375,42.682563875],[-122.9033755125,42.682563875],[-122.9033755125,42.6829545],[-122.905133325,42.6829545],[-122.905133325,42.683345125],[-122.9057192625,42.683345125],[-122.9057192625,42.68373575],[-122.9063052,42.68373575],[-122.9063052,42.684126375],[-122.907477075,42.684126375],[-122.907477075,42.684517],[-122.90864895,42.684517],[-122.90864895,42.684907625],[-122.909820825,42.684907625],[-122.909820825,42.685688875],[-122.90864895,42.685688875],[-122.90864895,42.6860795],[-122.9045473875,42.6860795],[-122.9045473875,42.68686075],[-122.90396145,42.68686075],[-122.90396145,42.687642],[-122.9045473875,42.687642],[-122.9045473875,42.68842325],[-122.905133325,42.68842325],[-122.905133325,42.6892045],[-122.9080630125,42.6892045],[-122.9080630125,42.689595125],[-122.909820825,42.689595125],[-122.909820825,42.68998575],[-122.9104067625,42.68998575],[-122.9104067625,42.690376375],[-122.91099270000001,42.690376375],[-122.91099270000001,42.690767],[-122.9150942625,42.690767],[-122.9150942625,42.691157625],[-122.9156802,42.691157625],[-122.9156802,42.69154825],[-122.9162661375,42.69154825],[-122.9162661375,42.6923295],[-122.91685207500001,42.6923295],[-122.91685207500001,42.692720125],[-122.9174380125,42.692720125],[-122.9174380125,42.6923295],[-122.91802395,42.6923295],[-122.91802395,42.691938875],[-122.9186098875,42.691938875],[-122.9186098875,42.69154825],[-122.9221255125,42.69154825],[-122.9221255125,42.691157625],[-122.9244692625,42.691157625],[-122.9244692625,42.69154825],[-122.9250552,42.69154825],[-122.9250552,42.691938875],[-122.9244692625,42.691938875],[-122.9244692625,42.6923295],[-122.923883325,42.6923295],[-122.923883325,42.692720125],[-122.9232973875,42.692720125],[-122.9232973875,42.693501375],[-122.9244692625,42.693501375],[-122.9244692625,42.693892],[-122.92564113750001,42.693892],[-122.92564113750001,42.694282625],[-122.92857082500001,42.694282625],[-122.92857082500001,42.69467325],[-122.930914575,42.69467325],[-122.930914575,42.695063875],[-122.93150051250001,42.695063875]],[[-122.9127505125,42.6892045],[-122.912164575,42.6892045],[-122.912164575,42.688813875],[-122.91099270000001,42.688813875],[-122.91099270000001,42.688032625],[-122.9115786375,42.688032625],[-122.9115786375,42.687642],[-122.914508325,42.687642],[-122.914508325,42.688813875],[-122.9127505125,42.688813875],[-122.9127505125,42.6892045]],[[-122.91333645,42.685688875],[-122.9104067625,42.685688875],[-122.9104067625,42.684907625],[-122.91099270000001,42.684907625],[-122.91099270000001,42.684517],[-122.9115786375,42.684517],[-122.9115786375,42.684126375],[-122.9127505125,42.684126375],[-122.9127505125,42.684517],[-122.91333645,42.684517],[-122.91333645,42.685688875]]]}}]}
