{"type":"FeatureCollection","features":[{"type":"Feature","properties":{"promptIndex":0,"model":"facebook/sam2.1-hiera-tiny","sentinelComposite":"B12/B8A/B04","hotspotObservedAt":"2026-07-19T09:00:00Z","sentinelObservedAt":"2026-07-15T19:12:40.131000Z"},"geometry":{"type":"Polygon","coordinates":[[[-122.8828677,42.63998575],[-122.8828677,42.639595125],[-122.881695825,42.639595125],[-122.881695825,42.63998575],[-122.8828677,42.63998575]]]}},{"type":"Feature","properties":{"promptIndex":0,"model":"facebook/sam2.1-hiera-tiny","sentinelComposite":"B12/B8A/B04","hotspotObservedAt":"2026-07-19T09:00:00Z","sentinelObservedAt":"2026-07-15T19:12:40.131000Z"},"geometry":{"type":"Polygon","coordinates":[[[-122.954352075,42.623188875],[-122.954352075,42.622407625],[-122.9537661375,42.622407625],[-122.9537661375,42.623188875],[-122.954352075,42.623188875]]]}},{"type":"Feature","properties":{"promptIndex":0,"model":"facebook/sam2.1-hiera-tiny","sentinelComposite":"B12/B8A/B04","hotspotObservedAt":"2026-07-19T09:00:00Z","sentinelObservedAt":"2026-07-15T19:12:40.131000Z"},"geometry":{"type":"Polygon","coordinates":[[[-122.8682192625,42.619282625],[-122.8682192625,42.618892],[-122.8688052,42.618892],[-122.8688052,42.618501375],[-122.8693911375,42.618501375],[-122.8693911375,42.617720125],[-122.8670473875,42.617720125],[-122.8670473875,42.618501375],[-122.867633325,42.618501375],[-122.867633325,42.619282625],[-122.8682192625,42.619282625]]]}},{"type":"Feature","properties":{"promptIndex":0,"model":"facebook/sam2.1-hiera-tiny","sentinelComposite":"B12/B8A/B04","hotspotObservedAt":"2026-07-19T09:00:00Z","sentinelObservedAt":"2026-07-15T19:12:40.131000Z"},"geometry":{"type":"Polygon","coordinates":[[[-122.9502505125,42.591938875],[-122.9502505125,42.591157625],[-122.949664575,42.591157625],[-122.949664575,42.591938875],[-122.9502505125,42.591938875]]]}},{"type":"Feature","properties":{"promptIndex":0,"model":"facebook/sam2.1-hiera-tiny","sentinelComposite":"B12/B8A/B04","hotspotObservedAt":"2026-07-19T09:00:00Z","sentinelObservedAt":"2026-07-15T19:12:40.131000Z"},"geometry":{"type":"Polygon","coordinates":[[[-122.9057192625,42.6423295],[-122.9057192625,42.641938875],[-122.9068911375,42.641938875],[-122.9068911375,42.64154825],[-122.907477075,42.64154825],[-122.907477075,42.641157625],[-122.9080630125,42.641157625],[-122.9080630125,42.640767],[-122.90864895,42.640767],[-122.90864895,42.640376375],[-122.909820825,42.640376375],[-122.909820825,42.63998575],[-122.9104067625,42.63998575],[-122.9104067625,42.6392045],[-122.909820825,42.6392045],[-122.909820825,42.638032625],[-122.9104067625,42.638032625],[-122.9104067625,42.637642],[-122.91099270000001,42.637642],[-122.91099270000001,42.637251375],[-122.9115786375,42.637251375],[-122.9115786375,42.6360795],[-122.91333645,42.6360795],[-122.91333645,42.636470125],[-122.91392238750001,42.636470125],[-122.91392238750001,42.63686075],[-122.914508325,42.63686075],[-122.914508325,42.636470125],[-122.9150942625,42.636470125],[-122.9150942625,42.6360795],[-122.91685207500001,42.6360795],[-122.91685207500001,42.635688875],[-122.91978176250001,42.635688875],[-122.91978176250001,42.636470125],[-122.9203677,42.636470125],[-122.9203677,42.63686075],[-122.921539575,42.63686075],[-122.921539575,42.637251375],[-122.9244692625,42.637251375],[-122.9244692625,42.63686075],[-122.9250552,42.63686075],[-122.9250552,42.636470125],[-122.9268130125,42.636470125],[-122.9268130125,42.6360795],[-122.9279848875,42.6360795],[-122.9279848875,42.635688875],[-122.92857082500001,42.635688875],[-122.92857082500001,42.634907625],[-122.9291567625,42.634907625],[-122.9291567625,42.634517],[-122.9297427,42.634517],[-122.9297427,42.634126375],[-122.9303286375,42.634126375],[-122.9303286375,42.63373575],[-122.930914575,42.63373575],[-122.930914575,42.633345125],[-122.9326723875,42.633345125],[-122.9326723875,42.63373575],[-122.933258325,42.63373575],[-122.933258325,42.632563875],[-122.9338442625,42.632563875],[-122.9338442625,42.63217325],[-122.935602075,42.63217325],[-122.935602075,42.631782625],[-122.93677395,42.631782625],[-122.93677395,42.631392],[-122.9385317625,42.631392],[-122.9385317625,42.631001375],[-122.9397036375,42.631001375],[-122.9397036375,42.630220125],[-122.94028957500001,42.630220125],[-122.94028957500001,42.629438875],[-122.9408755125,42.629438875],[-122.9408755125,42.62904825],[-122.94146145,42.62904825],[-122.94146145,42.628657625],[-122.9420473875,42.628657625],[-122.9420473875,42.628267],[-122.94321926250001,42.628267],[-122.94321926250001,42.627876375],[-122.9438052,42.627876375],[-122.9438052,42.627095125],[-122.9443911375,42.627095125],[-122.9443911375,42.6267045],[-122.944977075,42.6267045],[-122.944977075,42.626313875],[-122.9455630125,42.626313875],[-122.9455630125,42.62592325],[-122.94614895000001,42.62592325],[-122.94614895000001,42.625142],[-122.9467348875,42.625142],[-122.9467348875,42.62436075],[-122.947320825,42.62436075],[-122.947320825,42.623970125],[-122.9484927,42.623970125],[-122.9484927,42.6235795],[-122.94907863750001,42.6235795],[-122.94907863750001,42.623188875],[-122.949664575,42.623188875],[-122.949664575,42.622407625],[-122.9502505125,42.622407625],[-122.9502505125,42.622017],[-122.9525942625,42.622017],[-122.9525942625,42.621626375],[-122.9531802,42.621626375],[-122.9531802,42.620845125],[-122.9525942625,42.620845125],[-122.9525942625,42.6204545],[-122.9502505125,42.6204545],[-122.9502505125,42.620063875],[-122.949664575,42.620063875],[-122.949664575,42.618501375],[-122.9502505125,42.618501375],[-122.9502505125,42.61654825],[-122.95083645,42.61654825],[-122.95083645,42.615376375],[-122.9514223875,42.615376375],[-122.9514223875,42.613032625],[-122.95200832500001,42.613032625],[-122.95200832500001,42.612642],[-122.9525942625,42.612642],[-122.9525942625,42.61186075],[-122.9531802,42.61186075],[-122.9531802,42.6110795],[-122.9537661375,42.6110795],[-122.9537661375,42.607563875],[-122.954352075,42.607563875],[-122.954352075,42.605220125],[-122.95493801250001,42.605220125],[-122.95493801250001,42.6017045],[-122.95552395,42.6017045],[-122.95552395,42.59936075],[-122.9561098875,42.59936075],[-122.9561098875,42.595845125],[-122.956695825,42.595845125],[-122.956695825,42.595063875],[-122.9572817625,42.595063875],[-122.9572817625,42.593501375],[-122.956695825,42.593501375],[-122.956695825,42.59311075],[-122.95552395,42.59311075],[-122.95552395,42.592720125],[-122.9531802,42.592720125],[-122.9531802,42.595063875],[-122.9525942625,42.595063875],[-122.9525942625,42.595845125],[-122.95083645,42.595845125],[-122.95083645,42.5954545],[-122.949664575,42.5954545],[-122.949664575,42.595845125],[-122.94907863750001,42.595845125],[-122.94907863750001,42.59779825],[-122.9484927,42.59779825],[-122.9484927,42.598970125],[-122.9479067625,42.598970125],[-122.9479067625,42.599751375],[-122.947320825,42.599751375],[-122.947320825,42.600142],[-122.9467348875,42.600142],[-122.9467348875,42.599751375],[-122.944977075,42.599751375],[-122.944977075,42.59936075],[-122.9443911375,42.59936075],[-122.9443911375,42.5985795],[-122.94146145,42.5985795],[-122.94146145,42.598188875],[-122.9408755125,42.598188875],[-122.9408755125,42.597407625],[-122.9391177,42.597407625],[-122.9391177,42.59779825],[-122.9385317625,42.59779825],[-122.9385317625,42.598188875],[-122.93735988750001,42.598188875],[-122.93735988750001,42.597407625],[-122.93677395,42.597407625],[-122.93677395,42.597017],[-122.935602075,42.597017],[-122.935602075,42.596626375],[-122.9350161375,42.596626375],[-122.9350161375,42.59623575],[-122.93443020000001,42.59623575],[-122.93443020000001,42.595845125],[-122.9338442625,42.595845125],[-122.9338442625,42.5954545],[-122.933258325,42.5954545],[-122.933258325,42.595063875],[-122.93208645,42.595063875],[-122.93208645,42.59467325],[-122.93150051250001,42.59467325],[-122.93150051250001,42.594282625],[-122.930914575,42.594282625],[-122.930914575,42.593892],[-122.9303286375,42.593892],[-122.9303286375,42.592720125],[-122.9297427,42.592720125],[-122.9297427,42.591938875],[-122.9291567625,42.591938875],[-122.9291567625,42.589595124999995],[-122.92857082500001,42.589595124999995],[-122.92857082500001,42.5892045],[-122.926227075,42.5892045],[-122.926227075,42.588813875],[-122.92564113750001,42.588813875],[-122.92564113750001,42.58842325],[-122.9244692625,42.58842325],[-122.9244692625,42.588032625],[-122.923883325,42.588032625],[-122.923883325,42.587641999999995],[-122.9232973875,42.587641999999995],[-122.9232973875,42.587251375],[-122.921539575,42.587251375],[-122.921539575,42.58686075],[-122.9209536375,42.58686075],[-122.9209536375,42.586470125],[-122.9203677,42.586470125],[-122.9203677,42.5860795],[-122.91978176250001,42.5860795],[-122.91978176250001,42.585688874999995],[-122.91802395,42.585688874999995],[-122.91802395,42.58529825],[-122.9174380125,42.58529825],[-122.9174380125,42.584907625],[-122.9162661375,42.584907625],[-122.9162661375,42.58529825],[-122.9156802,42.58529825],[-122.9156802,42.585688874999995],[-122.914508325,42.585688874999995],[-122.914508325,42.5860795],[-122.912164575,42.5860795],[-122.912164575,42.586470125],[-122.9115786375,42.586470125],[-122.9115786375,42.58686075],[-122.91099270000001,42.58686075],[-122.91099270000001,42.587251375],[-122.9104067625,42.587251375],[-122.9104067625,42.587641999999995],[-122.9092348875,42.587641999999995],[-122.9092348875,42.588032625],[-122.9080630125,42.588032625],[-122.9080630125,42.58842325],[-122.9068911375,42.58842325],[-122.9068911375,42.588032625],[-122.9057192625,42.588032625],[-122.9057192625,42.587641999999995],[-122.9045473875,42.587641999999995],[-122.9045473875,42.587251375],[-122.90396145,42.587251375],[-122.90396145,42.58686075],[-122.9033755125,42.58686075],[-122.9033755125,42.586470125],[-122.9010317625,42.586470125],[-122.9010317625,42.58686075],[-122.898102075,42.58686075],[-122.898102075,42.586470125],[-122.895758325,42.586470125],[-122.895758325,42.5860795],[-122.88989895,42.5860795],[-122.88989895,42.585688874999995],[-122.8869692625,42.585688874999995],[-122.8869692625,42.5860795],[-122.8828677,42.5860795],[-122.8828677,42.586470125],[-122.881695825,42.586470125],[-122.881695825,42.58686075],[-122.8811098875,42.58686075],[-122.8811098875,42.587641999999995],[-122.88052395,42.587641999999995],[-122.88052395,42.588813875],[-122.8811098875,42.588813875],[-122.8811098875,42.591157625],[-122.8799380125,42.591157625],[-122.8799380125,42.591548249999995],[-122.879352075,42.591548249999995],[-122.879352075,42.595845125],[-122.8799380125,42.595845125],[-122.8799380125,42.59623575],[-122.879352075,42.59623575],[-122.879352075,42.596626375],[-122.8787661375,42.596626375],[-122.8787661375,42.597017],[-122.8781802,42.597017],[-122.8781802,42.598188875],[-122.8775942625,42.598188875],[-122.8775942625,42.5985795],[-122.877008325,42.5985795],[-122.877008325,42.598970125],[-122.8764223875,42.598970125],[-122.8764223875,42.599751375],[-122.877008325,42.599751375],[-122.877008325,42.600532625],[-122.8775942625,42.600532625],[-122.8775942625,42.604438875],[-122.877008325,42.604438875],[-122.877008325,42.6048295],[-122.8752505125,42.6048295],[-122.8752505125,42.605220125],[-122.874664575,42.605220125],[-122.874664575,42.60561075],[-122.8740786375,42.60561075],[-122.8740786375,42.606001375],[-122.8734927,42.606001375],[-122.8734927,42.606392],[-122.8729067625,42.606392],[-122.8729067625,42.606782625],[-122.872320825,42.606782625],[-122.872320825,42.60717325],[-122.8717348875,42.60717325],[-122.8717348875,42.6079545],[-122.87114895,42.6079545],[-122.87114895,42.609517],[-122.8717348875,42.609517],[-122.8717348875,42.613813875],[-122.87114895,42.613813875],[-122.87114895,42.6142045],[-122.8705630125,42.6142045],[-122.8705630125,42.614595125],[-122.869977075,42.614595125],[-122.869977075,42.61498575],[-122.8693911375,42.61498575],[-122.8693911375,42.617720125],[-122.869977075,42.617720125],[-122.869977075,42.61811075],[-122.8705630125,42.61811075],[-122.8705630125,42.618501375],[-122.87114895,42.618501375],[-122.87114895,42.619282625],[-122.8717348875,42.619282625],[-122.8717348875,42.620063875],[-122.87114895,42.620063875],[-122.87114895,42.620845125],[-122.8705630125,42.620845125],[-122.8705630125,42.621626375],[-122.87114895,42.621626375],[-122.87114895,42.622017],[-122.8717348875,42.622017],[-122.8717348875,42.622407625],[-122.872320825,42.622407625],[-122.872320825,42.62279825],[-122.8729067625,42.62279825],[-122.8729067625,42.623970125],[-122.8734927,42.623970125],[-122.8734927,42.631782625],[-122.8740786375,42.631782625],[-122.8740786375,42.632563875],[-122.874664575,42.632563875],[-122.874664575,42.6329545],[-122.8752505125,42.6329545],[-122.8752505125,42.633345125],[-122.87583645,42.633345125],[-122.87583645,42.634517],[-122.8764223875,42.634517],[-122.8764223875,42.634907625],[-122.877008325,42.634907625],[-122.877008325,42.635688875],[-122.8764223875,42.635688875],[-122.8764223875,42.637251375],[-122.877008325,42.637251375],[-122.877008325,42.637642],[-122.8781802,42.637642],[-122.8781802,42.638032625],[-122.8787661375,42.638032625],[-122.8787661375,42.638813875],[-122.88052395,42.638813875],[-122.88052395,42.638032625],[-122.8811098875,42.638032625],[-122.8811098875,42.637642],[-122.881695825,42.637642],[-122.881695825,42.637251375],[-122.884039575,42.637251375],[-122.884039575,42.637642],[-122.8846255125,42.637642],[-122.8846255125,42.638032625],[-122.8857973875,42.638032625],[-122.8857973875,42.63842325],[-122.886383325,42.63842325],[-122.886383325,42.638813875],[-122.88521145,42.638813875],[-122.88521145,42.639595125],[-122.8846255125,42.639595125],[-122.8846255125,42.640376375],[-122.8857973875,42.640376375],[-122.8857973875,42.640767],[-122.8875552,42.640767],[-122.8875552,42.640376375],[-122.8893130125,42.640376375],[-122.8893130125,42.640767],[-122.8904848875,42.640767],[-122.8904848875,42.641157625],[-122.8916567625,42.641157625],[-122.8916567625,42.640767],[-122.8940005125,42.640767],[-122.8940005125,42.641157625],[-122.8969302,42.641157625],[-122.8969302,42.64154825],[-122.8975161375,42.64154825],[-122.8975161375,42.641938875],[-122.8986880125,42.641938875],[-122.8986880125,42.64154825],[-122.89927395,42.64154825],[-122.89927395,42.641157625],[-122.9016177,42.641157625],[-122.9016177,42.64154825],[-122.9022036375,42.64154825],[-122.9022036375,42.641938875],[-122.90396145,42.641938875],[-122.90396145,42.6423295],[-122.9057192625,42.6423295]],[[-122.881695825,42.635688875],[-122.8811098875,42.635688875],[-122.8811098875,42.63373575],[-122.881695825,42.63373575],[-122.881695825,42.635688875]],[[-122.9104067625,42.63217325],[-122.9092348875,42.63217325],[-122.9092348875,42.631392],[-122.90864895,42.631392],[-122.90864895,42.631001375],[-122.9063052,42.631001375],[-122.9063052,42.63061075],[-122.9068911375,42.63061075],[-122.9068911375,42.630220125],[-122.9092348875,42.630220125],[-122.9092348875,42.63061075],[-122.909820825,42.63061075],[-122.909820825,42.631782625],[-122.9104067625,42.631782625],[-122.9104067625,42.63217325]]]}},{"type":"Feature","properties":{"promptIndex":1,"model":"facebook/sam2.1-hiera-tiny","sentinelComposite":"B12/B8A/B04","hotspotObservedAt":"2026-07-19T09:00:00Z","sentinelObservedAt":"2026-07-15T19:12:40.131000Z"},"geometry":{"type":"Polygon","coordinates":[[[-122.9033755125,42.71654825],[-122.9033755125,42.716157625],[-122.902789575,42.716157625],[-122.902789575,42.71654825],[-122.9033755125,42.71654825]]]}},{"type":"Feature","properties":{"promptIndex":1,"model":"facebook/sam2.1-hiera-tiny","sentinelComposite":"B12/B8A/B04","hotspotObservedAt":"2026-07-19T09:00:00Z","sentinelObservedAt":"2026-07-15T19:12:40.131000Z"},"geometry":{"type":"Polygon","coordinates":[[[-122.8775942625,42.659126375],[-122.8775942625,42.65873575],[-122.8781802,42.65873575],[-122.8781802,42.658345125],[-122.8775942625,42.658345125],[-122.8775942625,42.6579545],[-122.8764223875,42.6579545],[-122.8764223875,42.658345125],[-122.87583645,42.658345125],[-122.87583645,42.65873575],[-122.8764223875,42.65873575],[-122.8764223875,42.659126375],[-122.8775942625,42.659126375]]]}},{"type":"Feature","properties":{"promptIndex":1,"model":"facebook/sam2.1-hiera-tiny","sentinelComposite":"B12/B8A/B04","hotspotObservedAt":"2026-07-19T09:00:00Z","sentinelObservedAt":"2026-07-15T19:12:40.131000Z"},"geometry":{"type":"Polygon","coordinates":[[[-122.8682192625,42.64936075],[-122.8682192625,42.648970125],[-122.867633325,42.648970125],[-122.867633325,42.64936075],[-122.8682192625,42.64936075]]]}},{"type":"Feature","properties":{"promptIndex":1,"model":"facebook/sam2.1-hiera-tiny","sentinelComposite":"B12/B8A/B04","hotspotObservedAt":"2026-07-19T09:00:00Z","sentinelObservedAt":"2026-07-15T19:12:40.131000Z"},"geometry":{"type":"Polygon","coordinates":[[[-122.9268130125,42.64467325],[-122.9268130125,42.644282625],[-122.92564113750001,42.644282625],[-122.92564113750001,42.64467325],[-122.9268130125,42.64467325]]]}},{"type":"Feature","properties":{"promptIndex":1,"model":"facebook/sam2.1-hiera-tiny","sentinelComposite":"B12/B8A/B04","hotspotObservedAt":"2026-07-19T09:00:00Z","sentinelObservedAt":"2026-07-15T19:12:40.131000Z"},"geometry":{"type":"Polygon","coordinates":[[[-122.88052395,42.623188875],[-122.88052395,42.622407625],[-122.879352075,42.622407625],[-122.879352075,42.623188875],[-122.88052395,42.623188875]]]}},{"type":"Feature","properties":{"promptIndex":1,"model":"facebook/sam2.1-hiera-tiny","sentinelComposite":"B12/B8A/B04","hotspotObservedAt":"2026-07-19T09:00:00Z","sentinelObservedAt":"2026-07-15T19:12:40.131000Z"},"geometry":{"type":"Polygon","coordinates":[[[-122.9092348875,42.666157625],[-122.9092348875,42.665767],[-122.91099270000001,42.665767],[-122.91099270000001,42.665376375],[-122.912164575,42.665376375],[-122.912164575,42.66498575],[-122.9127505125,42.66498575],[-122.9127505125,42.6642045],[-122.91333645,42.6642045],[-122.91333645,42.66342325],[-122.91392238750001,42.66342325],[-122.91392238750001,42.663032625],[-122.9174380125,42.663032625],[-122.9174380125,42.662642],[-122.9186098875,42.662642],[-122.9186098875,42.662251375],[-122.9209536375,42.662251375],[-122.9209536375,42.66186075],[-122.9221255125,42.66186075],[-122.9221255125,42.662251375],[-122.9244692625,42.662251375],[-122.9244692625,42.656001375],[-122.923883325,42.656001375],[-122.923883325,42.65561075],[-122.9244692625,42.65561075],[-122.9244692625,42.655220125],[-122.9250552,42.655220125],[-122.9250552,42.6548295],[-122.92564113750001,42.6548295],[-122.92564113750001,42.654438875],[-122.926227075,42.654438875],[-122.926227075,42.652876375],[-122.92564113750001,42.652876375],[-122.92564113750001,42.65248575],[-122.9250552,42.65248575],[-122.9250552,42.652095125],[-122.923883325,42.652095125],[-122.923883325,42.6517045],[-122.9232973875,42.6517045],[-122.9232973875,42.650532625],[-122.92271145000001,42.650532625],[-122.92271145000001,42.649751375],[-122.9221255125,42.649751375],[-122.9221255125,42.648970125],[-122.921539575,42.648970125],[-122.921539575,42.64623575],[-122.9221255125,42.64623575],[-122.9221255125,42.6454545],[-122.92271145000001,42.6454545],[-122.92271145000001,42.642720125],[-122.9232973875,42.642720125],[-122.9232973875,42.641938875],[-122.923883325,42.641938875],[-122.923883325,42.64154825],[-122.9244692625,42.64154825],[-122.9244692625,42.641938875],[-122.9250552,42.641938875],[-122.9250552,42.6423295],[-122.92564113750001,42.6423295],[-122.92564113750001,42.642720125],[-122.9268130125,42.642720125],[-122.9268130125,42.641938875],[-122.92739895,42.641938875],[-122.92739895,42.640767],[-122.9268130125,42.640767],[-122.9268130125,42.638032625],[-122.92739895,42.638032625],[-122.92739895,42.636470125],[-122.9279848875,42.636470125],[-122.9279848875,42.63217325],[-122.92739895,42.63217325],[-122.92739895,42.631392],[-122.9268130125,42.631392],[-122.9268130125,42.63061075],[-122.926227075,42.63061075],[-122.926227075,42.628657625],[-122.9250552,42.628657625],[-122.9250552,42.628267],[-122.9244692625,42.628267],[-122.9244692625,42.627876375],[-122.923883325,42.627876375],[-122.923883325,42.62748575],[-122.9232973875,42.62748575],[-122.9232973875,42.627095125],[-122.9221255125,42.627095125],[-122.9221255125,42.6267045],[-122.9209536375,42.6267045],[-122.9209536375,42.626313875],[-122.9203677,42.626313875],[-122.9203677,42.62592325],[-122.919195825,42.62592325],[-122.919195825,42.625532625],[-122.91685207500001,42.625532625],[-122.91685207500001,42.625142],[-122.9156802,42.625142],[-122.9156802,42.624751375],[-122.9150942625,42.624751375],[-122.9150942625,42.623970125],[-122.914508325,42.623970125],[-122.914508325,42.6235795],[-122.91392238750001,42.6235795],[-122.91392238750001,42.62279825],[-122.91333645,42.62279825],[-122.91333645,42.622407625],[-122.9127505125,42.622407625],[-122.9127505125,42.622017],[-122.91099270000001,42.622017],[-122.91099270000001,42.622407625],[-122.909820825,42.622407625],[-122.909820825,42.62279825],[-122.9092348875,42.62279825],[-122.9092348875,42.622407625],[-122.9068911375,42.622407625],[-122.9068911375,42.623188875],[-122.9063052,42.623188875],[-122.9063052,42.6235795],[-122.90396145,42.6235795],[-122.90396145,42.623970125],[-122.9033755125,42.623970125],[-122.9033755125,42.62436075],[-122.9022036375,42.62436075],[-122.9022036375,42.6235795],[-122.9016177,42.6235795],[-122.9016177,42.62279825],[-122.900445825,42.62279825],[-122.900445825,42.622407625],[-122.89927395,42.622407625],[-122.89927395,42.622017],[-122.8963442625,42.622017],[-122.8963442625,42.622407625],[-122.8951723875,42.622407625],[-122.8951723875,42.622017],[-122.8928286375,42.622017],[-122.8928286375,42.622407625],[-122.8916567625,42.622407625],[-122.8916567625,42.62436075],[-122.891070825,42.62436075],[-122.891070825,42.624751375],[-122.886383325,42.624751375],[-122.886383325,42.625142],[-122.8857973875,42.625142],[-122.8857973875,42.625532625],[-122.88521145,42.625532625],[-122.88521145,42.62592325],[-122.8834536375,42.62592325],[-122.8834536375,42.625532625],[-122.8828677,42.625532625],[-122.8828677,42.625142],[-122.8822817625,42.625142],[-122.8822817625,42.624751375],[-122.8811098875,42.624751375],[-122.8811098875,42.625142],[-122.8799380125,42.625142],[-122.8799380125,42.625532625],[-122.8787661375,42.625532625],[-122.8787661375,42.62592325],[-122.8781802,42.62592325],[-122.8781802,42.627095125],[-122.8775942625,42.627095125],[-122.8775942625,42.62748575],[-122.877008325,42.62748575],[-122.877008325,42.627876375],[-122.8740786375,42.627876375],[-122.8740786375,42.62748575],[-122.8729067625,42.62748575],[-122.8729067625,42.627095125],[-122.8717348875,42.627095125],[-122.8717348875,42.628267],[-122.87114895,42.628267],[-122.87114895,42.628657625],[-122.8705630125,42.628657625],[-122.8705630125,42.63217325],[-122.8717348875,42.63217325],[-122.8717348875,42.632563875],[-122.872320825,42.632563875],[-122.872320825,42.6329545],[-122.8734927,42.6329545],[-122.8734927,42.633345125],[-122.8740786375,42.633345125],[-122.8740786375,42.635688875],[-122.874664575,42.635688875],[-122.874664575,42.63998575],[-122.8740786375,42.63998575],[-122.8740786375,42.6423295],[-122.874664575,42.6423295],[-122.874664575,42.643501375],[-122.8740786375,42.643501375],[-122.8740786375,42.643892],[-122.8734927,42.643892],[-122.8734927,42.64467325],[-122.8729067625,42.64467325],[-122.8729067625,42.64779825],[-122.872320825,42.64779825],[-122.872320825,42.648188875],[-122.8717348875,42.648188875],[-122.8717348875,42.64779825],[-122.87114895,42.64779825],[-122.87114895,42.647407625],[-122.8688052,42.647407625],[-122.8688052,42.648188875],[-122.8705630125,42.648188875],[-122.8705630125,42.6485795],[-122.87114895,42.6485795],[-122.87114895,42.649751375],[-122.8717348875,42.649751375],[-122.8717348875,42.650142],[-122.8740786375,42.650142],[-122.8740786375,42.650532625],[-122.874664575,42.650532625],[-122.874664575,42.6517045],[-122.8740786375,42.6517045],[-122.8740786375,42.653267],[-122.8734927,42.653267],[-122.8734927,42.655220125],[-122.8740786375,42.655220125],[-122.8740786375,42.65561075],[-122.8752505125,42.65561075],[-122.8752505125,42.656001375],[-122.87583645,42.656001375],[-122.87583645,42.656392],[-122.877008325,42.656392],[-122.877008325,42.656782625],[-122.8787661375,42.656782625],[-122.8787661375,42.65717325],[-122.8811098875,42.65717325],[-122.8811098875,42.656782625],[-122.881695825,42.656782625],[-122.881695825,42.65717325],[-122.8822817625,42.65717325],[-122.8822817625,42.6579545],[-122.8828677,42.6579545],[-122.8828677,42.658345125],[-122.8846255125,42.658345125],[-122.8846255125,42.659126375],[-122.88521145,42.659126375],[-122.88521145,42.659517],[-122.886383325,42.659517],[-122.886383325,42.659907625],[-122.8916567625,42.659907625],[-122.8916567625,42.659517],[-122.8922427,42.659517],[-122.8922427,42.659126375],[-122.8928286375,42.659126375],[-122.8928286375,42.657563875],[-122.8940005125,42.657563875],[-122.8940005125,42.65873575],[-122.89458645,42.65873575],[-122.89458645,42.659126375],[-122.8951723875,42.659126375],[-122.8951723875,42.659517],[-122.895758325,42.659517],[-122.895758325,42.659907625],[-122.8963442625,42.659907625],[-122.8963442625,42.660688875],[-122.8969302,42.660688875],[-122.8969302,42.6610795],[-122.898102075,42.6610795],[-122.898102075,42.661470125],[-122.8986880125,42.661470125],[-122.8986880125,42.66186075],[-122.89927395,42.66186075],[-122.89927395,42.662251375],[-122.8998598875,42.662251375],[-122.8998598875,42.662642],[-122.900445825,42.662642],[-122.900445825,42.663032625],[-122.9010317625,42.663032625],[-122.9010317625,42.663813875],[-122.9016177,42.663813875],[-122.9016177,42.6642045],[-122.9022036375,42.6642045],[-122.9022036375,42.664595125],[-122.902789575,42.664595125],[-122.902789575,42.665376375],[-122.90396145,42.665376375],[-122.90396145,42.665767],[-122.9057192625,42.665767],[-122.9057192625,42.666157625],[-122.9092348875,42.666157625]],[[-122.886383325,42.655220125],[-122.8857973875,42.655220125],[-122.8857973875,42.6548295],[-122.88521145,42.6548295],[-122.88521145,42.654438875],[-122.8846255125,42.654438875],[-122.8846255125,42.65404825],[-122.88521145,42.65404825],[-122.88521145,42.653657625],[-122.8857973875,42.653657625],[-122.8857973875,42.653267],[-122.8869692625,42.653267],[-122.8869692625,42.653657625],[-122.8875552,42.653657625],[-122.8875552,42.6548295],[-122.886383325,42.6548295],[-122.886383325,42.655220125]]]}}]}
