{"type":"FeatureCollection","features":[{"type":"Feature","properties":{"promptIndex":0,"model":"facebook/sam2.1-hiera-tiny","sentinelComposite":"B12/B8A/B04","hotspotObservedAt":"2026-07-17T18:00:00Z","sentinelObservedAt":"2026-07-15T19:12:40.131000Z"},"geometry":{"type":"Polygon","coordinates":[[[-123.01060207500001,42.660688875],[-123.01060207500001,42.66029825],[-123.0100161375,42.66029825],[-123.0100161375,42.660688875],[-123.01060207500001,42.660688875]]]}},{"type":"Feature","properties":{"promptIndex":0,"model":"facebook/sam2.1-hiera-tiny","sentinelComposite":"B12/B8A/B04","hotspotObservedAt":"2026-07-17T18:00:00Z","sentinelObservedAt":"2026-07-15T19:12:40.131000Z"},"geometry":{"type":"Polygon","coordinates":[[[-122.99009426250001,42.652876375],[-122.99009426250001,42.652095125],[-122.989508325,42.652095125],[-122.989508325,42.652876375],[-122.99009426250001,42.652876375]]]}},{"type":"Feature","properties":{"promptIndex":0,"model":"facebook/sam2.1-hiera-tiny","sentinelComposite":"B12/B8A/B04","hotspotObservedAt":"2026-07-17T18:00:00Z","sentinelObservedAt":"2026-07-15T19:12:40.131000Z"},"geometry":{"type":"Polygon","coordinates":[[[-123.04868801250001,42.6485795],[-123.04868801250001,42.648188875],[-123.04927395,42.648188875],[-123.04927395,42.647407625],[-123.04868801250001,42.647407625],[-123.04868801250001,42.647017],[-123.048102075,42.647017],[-123.048102075,42.646626375],[-123.0475161375,42.646626375],[-123.0475161375,42.647017],[-123.0469302,42.647017],[-123.0469302,42.6485795],[-123.04868801250001,42.6485795]]]}},{"type":"Feature","properties":{"promptIndex":0,"model":"facebook/sam2.1-hiera-tiny","sentinelComposite":"B12/B8A/B04","hotspotObservedAt":"2026-07-17T18:00:00Z","sentinelObservedAt":"2026-07-15T19:12:40.131000Z"},"geometry":{"type":"Polygon","coordinates":[[[-123.04868801250001,42.641938875],[-123.04868801250001,42.640376375],[-123.0475161375,42.640376375],[-123.0475161375,42.641938875],[-123.04868801250001,42.641938875]]]}},{"type":"Feature","properties":{"promptIndex":0,"model":"facebook/sam2.1-hiera-tiny","sentinelComposite":"B12/B8A/B04","hotspotObservedAt":"2026-07-17T18:00:00Z","sentinelObservedAt":"2026-07-15T19:12:40.131000Z"},"geometry":{"type":"Polygon","coordinates":[[[-123.0627505125,42.6392045],[-123.0627505125,42.638032625],[-123.062164575,42.638032625],[-123.062164575,42.63842325],[-123.0615786375,42.63842325],[-123.0615786375,42.638813875],[-123.062164575,42.638813875],[-123.062164575,42.6392045],[-123.0627505125,42.6392045]]]}},{"type":"Feature","properties":{"promptIndex":0,"model":"facebook/sam2.1-hiera-tiny","sentinelComposite":"B12/B8A/B04","hotspotObservedAt":"2026-07-17T18:00:00Z","sentinelObservedAt":"2026-07-15T19:12:40.131000Z"},"geometry":{"type":"Polygon","coordinates":[[[-123.0533755125,42.645063875],[-123.0533755125,42.643501375],[-123.052789575,42.643501375],[-123.052789575,42.642720125],[-123.0533755125,42.642720125],[-123.0533755125,42.638813875],[-123.052789575,42.638813875],[-123.052789575,42.638032625],[-123.05161770000001,42.638032625],[-123.05161770000001,42.637642],[-123.0510317625,42.637642],[-123.0510317625,42.63686075],[-123.0498598875,42.63686075],[-123.0498598875,42.637251375],[-123.04927395,42.637251375],[-123.04927395,42.637642],[-123.0469302,42.637642],[-123.0469302,42.639595125],[-123.04868801250001,42.639595125],[-123.04868801250001,42.640376375],[-123.0510317625,42.640376375],[-123.0510317625,42.640767],[-123.05161770000001,42.640767],[-123.05161770000001,42.642720125],[-123.050445825,42.642720125],[-123.050445825,42.643501375],[-123.05161770000001,42.643501375],[-123.05161770000001,42.645063875],[-123.0533755125,42.645063875]]]}},{"type":"Feature","properties":{"promptIndex":0,"model":"facebook/sam2.1-hiera-tiny","sentinelComposite":"B12/B8A/B04","hotspotObservedAt":"2026-07-17T18:00:00Z","sentinelObservedAt":"2026-07-15T19:12:40.131000Z"},"geometry":{"type":"Polygon","coordinates":[[[-123.0463442625,42.637251375],[-123.0463442625,42.63686075],[-123.04458645,42.63686075],[-123.04458645,42.637251375],[-123.0463442625,42.637251375]]]}},{"type":"Feature","properties":{"promptIndex":0,"model":"facebook/sam2.1-hiera-tiny","sentinelComposite":"B12/B8A/B04","hotspotObservedAt":"2026-07-17T18:00:00Z","sentinelObservedAt":"2026-07-15T19:12:40.131000Z"},"geometry":{"type":"Polygon","coordinates":[[[-123.0463442625,42.631001375],[-123.0463442625,42.63061075],[-123.0451723875,42.63061075],[-123.0451723875,42.631001375],[-123.0463442625,42.631001375]]]}},{"type":"Feature","properties":{"promptIndex":0,"model":"facebook/sam2.1-hiera-tiny","sentinelComposite":"B12/B8A/B04","hotspotObservedAt":"2026-07-17T18:00:00Z","sentinelObservedAt":"2026-07-15T19:12:40.131000Z"},"geometry":{"type":"Polygon","coordinates":[[[-123.036383325,42.62748575],[-123.036383325,42.627095125],[-123.0357973875,42.627095125],[-123.0357973875,42.62748575],[-123.036383325,42.62748575]]]}},{"type":"Feature","properties":{"promptIndex":0,"model":"facebook/sam2.1-hiera-tiny","sentinelComposite":"B12/B8A/B04","hotspotObservedAt":"2026-07-17T18:00:00Z","sentinelObservedAt":"2026-07-15T19:12:40.131000Z"},"geometry":{"type":"Polygon","coordinates":[[[-123.0393130125,42.626313875],[-123.0393130125,42.625142],[-123.0381411375,42.625142],[-123.0381411375,42.625532625],[-123.0375552,42.625532625],[-123.0375552,42.626313875],[-123.0393130125,42.626313875]]]}},{"type":"Feature","properties":{"promptIndex":0,"model":"facebook/sam2.1-hiera-tiny","sentinelComposite":"B12/B8A/B04","hotspotObservedAt":"2026-07-17T18:00:00Z","sentinelObservedAt":"2026-07-15T19:12:40.131000Z"},"geometry":{"type":"Polygon","coordinates":[[[-123.00239895,42.6579545],[-123.00239895,42.657563875],[-123.0029848875,42.657563875],[-123.0029848875,42.65717325],[-123.003570825,42.65717325],[-123.003570825,42.656782625],[-123.0041567625,42.656782625],[-123.0041567625,42.65717325],[-123.005914575,42.65717325],[-123.005914575,42.657563875],[-123.0088442625,42.657563875],[-123.0088442625,42.65717325],[-123.0100161375,42.65717325],[-123.0100161375,42.656782625],[-123.0141177,42.656782625],[-123.0141177,42.656392],[-123.0182192625,42.656392],[-123.0182192625,42.656001375],[-123.0188052,42.656001375],[-123.0188052,42.65561075],[-123.019977075,42.65561075],[-123.019977075,42.655220125],[-123.02114895,42.655220125],[-123.02114895,42.6548295],[-123.0229067625,42.6548295],[-123.0229067625,42.654438875],[-123.0240786375,42.654438875],[-123.0240786375,42.65404825],[-123.02525051250001,42.65404825],[-123.02525051250001,42.654438875],[-123.0264223875,42.654438875],[-123.0264223875,42.6548295],[-123.02818020000001,42.6548295],[-123.02818020000001,42.654438875],[-123.0299380125,42.654438875],[-123.0299380125,42.65404825],[-123.03110988750001,42.65404825],[-123.03110988750001,42.653657625],[-123.0346255125,42.653657625],[-123.0346255125,42.65561075],[-123.03521145,42.65561075],[-123.03521145,42.656001375],[-123.0416567625,42.656001375],[-123.0416567625,42.656392],[-123.0422427,42.656392],[-123.0422427,42.656782625],[-123.04282863750001,42.656782625],[-123.04282863750001,42.65717325],[-123.04458645,42.65717325],[-123.04458645,42.656782625],[-123.0463442625,42.656782625],[-123.0463442625,42.65717325],[-123.0475161375,42.65717325],[-123.0475161375,42.657563875],[-123.0498598875,42.657563875],[-123.0498598875,42.65717325],[-123.050445825,42.65717325],[-123.050445825,42.656392],[-123.0510317625,42.656392],[-123.0510317625,42.656001375],[-123.0533755125,42.656001375],[-123.0533755125,42.655220125],[-123.052789575,42.655220125],[-123.052789575,42.6548295],[-123.0522036375,42.6548295],[-123.0522036375,42.654438875],[-123.05161770000001,42.654438875],[-123.05161770000001,42.653657625],[-123.052789575,42.653657625],[-123.052789575,42.653267],[-123.0533755125,42.653267],[-123.0533755125,42.652876375],[-123.05454738750001,42.652876375],[-123.05454738750001,42.65248575],[-123.05396145,42.65248575],[-123.05396145,42.652095125],[-123.052789575,42.652095125],[-123.052789575,42.6517045],[-123.04927395,42.6517045],[-123.04927395,42.651313875],[-123.04868801250001,42.651313875],[-123.04868801250001,42.650532625],[-123.0475161375,42.650532625],[-123.0475161375,42.650142],[-123.0469302,42.650142],[-123.0469302,42.649751375],[-123.0463442625,42.649751375],[-123.0463442625,42.648970125],[-123.0451723875,42.648970125],[-123.0451723875,42.6485795],[-123.04458645,42.6485795],[-123.04458645,42.646626375],[-123.04575832500001,42.646626375],[-123.04575832500001,42.645845125],[-123.043414575,42.645845125],[-123.043414575,42.644282625],[-123.04282863750001,42.644282625],[-123.04282863750001,42.643892],[-123.0422427,42.643892],[-123.0422427,42.6423295],[-123.0416567625,42.6423295],[-123.0416567625,42.641938875],[-123.041070825,42.641938875],[-123.041070825,42.641157625],[-123.0416567625,42.641157625],[-123.0416567625,42.640767],[-123.0422427,42.640767],[-123.0422427,42.639595125],[-123.04282863750001,42.639595125],[-123.04282863750001,42.6392045],[-123.043414575,42.6392045],[-123.043414575,42.638813875],[-123.0440005125,42.638813875],[-123.0440005125,42.63842325],[-123.04458645,42.63842325],[-123.04458645,42.638032625],[-123.0440005125,42.638032625],[-123.0440005125,42.637642],[-123.043414575,42.637642],[-123.043414575,42.637251375],[-123.04282863750001,42.637251375],[-123.04282863750001,42.636470125],[-123.0422427,42.636470125],[-123.0422427,42.635688875],[-123.0416567625,42.635688875],[-123.0416567625,42.634126375],[-123.0422427,42.634126375],[-123.0422427,42.63373575],[-123.0416567625,42.63373575],[-123.0416567625,42.633345125],[-123.041070825,42.633345125],[-123.041070825,42.6329545],[-123.0393130125,42.6329545],[-123.0393130125,42.632563875],[-123.038727075,42.632563875],[-123.038727075,42.63217325],[-123.0381411375,42.63217325],[-123.0381411375,42.631782625],[-123.0375552,42.631782625],[-123.0375552,42.631392],[-123.036383325,42.631392],[-123.036383325,42.631001375],[-123.0357973875,42.631001375],[-123.0357973875,42.631392],[-123.03403957500001,42.631392],[-123.03403957500001,42.631001375],[-123.0334536375,42.631001375],[-123.0334536375,42.630220125],[-123.0328677,42.630220125],[-123.0328677,42.6298295],[-123.0322817625,42.6298295],[-123.0322817625,42.629438875],[-123.03110988750001,42.629438875],[-123.03110988750001,42.628657625],[-123.031695825,42.628657625],[-123.031695825,42.628267],[-123.0322817625,42.628267],[-123.0322817625,42.627876375],[-123.0328677,42.627876375],[-123.0328677,42.625532625],[-123.0322817625,42.625532625],[-123.0322817625,42.62436075],[-123.03110988750001,42.62436075],[-123.03110988750001,42.625532625],[-123.03052395,42.625532625],[-123.03052395,42.62592325],[-123.0299380125,42.62592325],[-123.0299380125,42.626313875],[-123.0287661375,42.626313875],[-123.0287661375,42.6267045],[-123.02818020000001,42.6267045],[-123.02818020000001,42.627095125],[-123.0275942625,42.627095125],[-123.0275942625,42.628267],[-123.027008325,42.628267],[-123.027008325,42.62904825],[-123.0264223875,42.62904825],[-123.0264223875,42.629438875],[-123.02525051250001,42.629438875],[-123.02525051250001,42.6298295],[-123.024664575,42.6298295],[-123.024664575,42.630220125],[-123.02114895,42.630220125],[-123.02114895,42.63061075],[-123.019977075,42.63061075],[-123.019977075,42.631001375],[-123.01939113750001,42.631001375],[-123.01939113750001,42.631392],[-123.0188052,42.631392],[-123.0188052,42.631782625],[-123.0182192625,42.631782625],[-123.0182192625,42.632563875],[-123.0188052,42.632563875],[-123.0188052,42.634517],[-123.0182192625,42.634517],[-123.0182192625,42.63529825],[-123.01646145000001,42.63529825],[-123.01646145000001,42.635688875],[-123.01353176250001,42.635688875],[-123.01353176250001,42.6360795],[-123.01177395,42.6360795],[-123.01177395,42.636470125],[-123.0111880125,42.636470125],[-123.0111880125,42.637251375],[-123.01060207500001,42.637251375],[-123.01060207500001,42.637642],[-123.0100161375,42.637642],[-123.0100161375,42.638032625],[-123.0094302,42.638032625],[-123.0094302,42.63842325],[-123.0088442625,42.63842325],[-123.0088442625,42.638813875],[-123.00767238750001,42.638813875],[-123.00767238750001,42.6392045],[-123.00708645,42.6392045],[-123.00708645,42.63998575],[-123.0065005125,42.63998575],[-123.0065005125,42.64154825],[-123.005914575,42.64154825],[-123.005914575,42.6423295],[-123.0053286375,42.6423295],[-123.0053286375,42.64311075],[-123.00474270000001,42.64311075],[-123.00474270000001,42.643501375],[-123.0041567625,42.643501375],[-123.0041567625,42.64467325],[-123.003570825,42.64467325],[-123.003570825,42.645063875],[-123.001227075,42.645063875],[-123.001227075,42.6454545],[-123.0006411375,42.6454545],[-123.0006411375,42.645845125],[-122.9994692625,42.645845125],[-122.9994692625,42.64623575],[-122.99888332500001,42.64623575],[-122.99888332500001,42.647407625],[-122.9982973875,42.647407625],[-122.9982973875,42.64779825],[-122.99771145,42.64779825],[-122.99771145,42.648188875],[-122.996539575,42.648188875],[-122.996539575,42.6485795],[-122.9947817625,42.6485795],[-122.9947817625,42.648970125],[-122.9936098875,42.648970125],[-122.9936098875,42.650532625],[-122.99302395000001,42.650532625],[-122.99302395000001,42.65092325],[-122.9936098875,42.65092325],[-122.9936098875,42.65248575],[-122.994195825,42.65248575],[-122.994195825,42.653657625],[-122.9947817625,42.653657625],[-122.9947817625,42.6548295],[-122.9953677,42.6548295],[-122.9953677,42.65561075],[-122.99595363750001,42.65561075],[-122.99595363750001,42.656782625],[-122.996539575,42.656782625],[-122.996539575,42.65717325],[-122.99888332500001,42.65717325],[-122.99888332500001,42.657563875],[-122.9994692625,42.657563875],[-122.9994692625,42.6579545],[-123.00239895,42.6579545]],[[-123.0416567625,42.655220125],[-123.0404848875,42.655220125],[-123.0404848875,42.6548295],[-123.03989895000001,42.6548295],[-123.03989895000001,42.654438875],[-123.0393130125,42.654438875],[-123.0393130125,42.653657625],[-123.03989895000001,42.653657625],[-123.03989895000001,42.653267],[-123.0416567625,42.653267],[-123.0416567625,42.653657625],[-123.0422427,42.653657625],[-123.0422427,42.654438875],[-123.0416567625,42.654438875],[-123.0416567625,42.655220125]],[[-122.9994692625,42.654438875],[-122.9982973875,42.654438875],[-122.9982973875,42.653657625],[-122.9994692625,42.653657625],[-122.9994692625,42.654438875]],[[-123.0322817625,42.6423295],[-123.03110988750001,42.6423295],[-123.03110988750001,42.641938875],[-123.03052395,42.641938875],[-123.03052395,42.640767],[-123.03110988750001,42.640767],[-123.03110988750001,42.640376375],[-123.0334536375,42.640376375],[-123.0334536375,42.641938875],[-123.0322817625,42.641938875],[-123.0322817625,42.6423295]],[[-123.03403957500001,42.640376375],[-123.0334536375,42.640376375],[-123.0334536375,42.63998575],[-123.03403957500001,42.63998575],[-123.03403957500001,42.640376375]]]}},{"type":"Feature","properties":{"promptIndex":0,"model":"facebook/sam2.1-hiera-tiny","sentinelComposite":"B12/B8A/B04","hotspotObservedAt":"2026-07-17T18:00:00Z","sentinelObservedAt":"2026-07-15T19:12:40.131000Z"},"geometry":{"type":"Polygon","coordinates":[[[-123.0275942625,42.624751375],[-123.0275942625,42.623970125],[-123.027008325,42.623970125],[-123.027008325,42.624751375],[-123.0275942625,42.624751375]]]}},{"type":"Feature","properties":{"promptIndex":1,"model":"facebook/sam2.1-hiera-tiny","sentinelComposite":"B12/B8A/B04","hotspotObservedAt":"2026-07-17T18:00:00Z","sentinelObservedAt":"2026-07-15T19:12:40.131000Z"},"geometry":{"type":"Polygon","coordinates":[[[-122.9080630125,42.645063875],[-122.9080630125,42.64467325],[-122.90864895,42.64467325],[-122.90864895,42.644282625],[-122.907477075,42.644282625],[-122.907477075,42.643892],[-122.9068911375,42.643892],[-122.9068911375,42.645063875],[-122.9080630125,42.645063875]]]}},{"type":"Feature","properties":{"promptIndex":1,"model":"facebook/sam2.1-hiera-tiny","sentinelComposite":"B12/B8A/B04","hotspotObservedAt":"2026-07-17T18:00:00Z","sentinelObservedAt":"2026-07-15T19:12:40.131000Z"},"geometry":{"type":"Polygon","coordinates":[[[-122.949664575,42.610688875],[-122.949664575,42.61029825],[-122.94907863750001,42.61029825],[-122.94907863750001,42.610688875],[-122.949664575,42.610688875]]]}},{"type":"Feature","properties":{"promptIndex":1,"model":"facebook/sam2.1-hiera-tiny","sentinelComposite":"B12/B8A/B04","hotspotObservedAt":"2026-07-17T18:00:00Z","sentinelObservedAt":"2026-07-15T19:12:40.131000Z"},"geometry":{"type":"Polygon","coordinates":[[[-122.9057192625,42.643501375],[-122.9057192625,42.64311075],[-122.9063052,42.64311075],[-122.9063052,42.642720125],[-122.9068911375,42.642720125],[-122.9068911375,42.6423295],[-122.9080630125,42.6423295],[-122.9080630125,42.641938875],[-122.90864895,42.641938875],[-122.90864895,42.641157625],[-122.9092348875,42.641157625],[-122.9092348875,42.640767],[-122.9104067625,42.640767],[-122.9104067625,42.641157625],[-122.91099270000001,42.641157625],[-122.91099270000001,42.641938875],[-122.9115786375,42.641938875],[-122.9115786375,42.6423295],[-122.91333645,42.6423295],[-122.91333645,42.64154825],[-122.91392238750001,42.64154825],[-122.91392238750001,42.641157625],[-122.914508325,42.641157625],[-122.914508325,42.640767],[-122.9150942625,42.640767],[-122.9150942625,42.640376375],[-122.9162661375,42.640376375],[-122.9162661375,42.6392045],[-122.91685207500001,42.6392045],[-122.91685207500001,42.638032625],[-122.91802395,42.638032625],[-122.91802395,42.637642],[-122.91978176250001,42.637642],[-122.91978176250001,42.63842325],[-122.9203677,42.63842325],[-122.9203677,42.638813875],[-122.9244692625,42.638813875],[-122.9244692625,42.63842325],[-122.92564113750001,42.63842325],[-122.92564113750001,42.638032625],[-122.926227075,42.638032625],[-122.926227075,42.637642],[-122.9268130125,42.637642],[-122.9268130125,42.637251375],[-122.92739895,42.637251375],[-122.92739895,42.63686075],[-122.9279848875,42.63686075],[-122.9279848875,42.636470125],[-122.92857082500001,42.636470125],[-122.92857082500001,42.635688875],[-122.9291567625,42.635688875],[-122.9291567625,42.634517],[-122.9297427,42.634517],[-122.9297427,42.634126375],[-122.9303286375,42.634126375],[-122.9303286375,42.63373575],[-122.930914575,42.63373575],[-122.930914575,42.633345125],[-122.9326723875,42.633345125],[-122.9326723875,42.6329545],[-122.933258325,42.6329545],[-122.933258325,42.632563875],[-122.93443020000001,42.632563875],[-122.93443020000001,42.63217325],[-122.935602075,42.63217325],[-122.935602075,42.631782625],[-122.93677395,42.631782625],[-122.93677395,42.631392],[-122.937945825,42.631392],[-122.937945825,42.631001375],[-122.9391177,42.631001375],[-122.9391177,42.6298295],[-122.9397036375,42.6298295],[-122.9397036375,42.62904825],[-122.94028957500001,42.62904825],[-122.94028957500001,42.628657625],[-122.9408755125,42.628657625],[-122.9408755125,42.628267],[-122.94146145,42.628267],[-122.94146145,42.627876375],[-122.9420473875,42.627876375],[-122.9420473875,42.62748575],[-122.942633325,42.62748575],[-122.942633325,42.627095125],[-122.94321926250001,42.627095125],[-122.94321926250001,42.6267045],[-122.9438052,42.6267045],[-122.9438052,42.626313875],[-122.9443911375,42.626313875],[-122.9443911375,42.62436075],[-122.944977075,42.62436075],[-122.944977075,42.623970125],[-122.94614895000001,42.623970125],[-122.94614895000001,42.623188875],[-122.9467348875,42.623188875],[-122.9467348875,42.622407625],[-122.947320825,42.622407625],[-122.947320825,42.616157625],[-122.9479067625,42.616157625],[-122.9479067625,42.615767],[-122.9484927,42.615767],[-122.9484927,42.615376375],[-122.94907863750001,42.615376375],[-122.94907863750001,42.614595125],[-122.9484927,42.614595125],[-122.9484927,42.6142045],[-122.947320825,42.6142045],[-122.947320825,42.613813875],[-122.9467348875,42.613813875],[-122.9467348875,42.61342325],[-122.94614895000001,42.61342325],[-122.94614895000001,42.611470125],[-122.9467348875,42.611470125],[-122.9467348875,42.609126375],[-122.947320825,42.609126375],[-122.947320825,42.608345125],[-122.9467348875,42.608345125],[-122.9467348875,42.6079545],[-122.94614895000001,42.6079545],[-122.94614895000001,42.607563875],[-122.9455630125,42.607563875],[-122.9455630125,42.60717325],[-122.944977075,42.60717325],[-122.944977075,42.606782625],[-122.9443911375,42.606782625],[-122.9443911375,42.606392],[-122.9438052,42.606392],[-122.9438052,42.606001375],[-122.94321926250001,42.606001375],[-122.94321926250001,42.60561075],[-122.942633325,42.60561075],[-122.942633325,42.605220125],[-122.9408755125,42.605220125],[-122.9408755125,42.6048295],[-122.94028957500001,42.6048295],[-122.94028957500001,42.604438875],[-122.9391177,42.604438875],[-122.9391177,42.60404825],[-122.937945825,42.60404825],[-122.937945825,42.603657625],[-122.93735988750001,42.603657625],[-122.93735988750001,42.603267],[-122.9361880125,42.603267],[-122.9361880125,42.602876375],[-122.9350161375,42.602876375],[-122.9350161375,42.60248575],[-122.93443020000001,42.60248575],[-122.93443020000001,42.6017045],[-122.9338442625,42.6017045],[-122.9338442625,42.601313875],[-122.933258325,42.601313875],[-122.933258325,42.60092325],[-122.9326723875,42.60092325],[-122.9326723875,42.600532625],[-122.93150051250001,42.600532625],[-122.93150051250001,42.600142],[-122.9297427,42.600142],[-122.9297427,42.599751375],[-122.9291567625,42.599751375],[-122.9291567625,42.59936075],[-122.926227075,42.59936075],[-122.926227075,42.599751375],[-122.9232973875,42.599751375],[-122.9232973875,42.600142],[-122.9221255125,42.600142],[-122.9221255125,42.600532625],[-122.9209536375,42.600532625],[-122.9209536375,42.60092325],[-122.9203677,42.60092325],[-122.9203677,42.6017045],[-122.91978176250001,42.6017045],[-122.91978176250001,42.602095125],[-122.919195825,42.602095125],[-122.919195825,42.60248575],[-122.9186098875,42.60248575],[-122.9186098875,42.602876375],[-122.91802395,42.602876375],[-122.91802395,42.603267],[-122.9162661375,42.603267],[-122.9162661375,42.603657625],[-122.9156802,42.603657625],[-122.9156802,42.604438875],[-122.9150942625,42.604438875],[-122.9150942625,42.6048295],[-122.91392238750001,42.6048295],[-122.91392238750001,42.604438875],[-122.91333645,42.604438875],[-122.91333645,42.60404825],[-122.9127505125,42.60404825],[-122.9127505125,42.603657625],[-122.912164575,42.603657625],[-122.912164575,42.603267],[-122.9115786375,42.603267],[-122.9115786375,42.602876375],[-122.91099270000001,42.602876375],[-122.91099270000001,42.6017045],[-122.9115786375,42.6017045],[-122.9115786375,42.601313875],[-122.9127505125,42.601313875],[-122.9127505125,42.6017045],[-122.91392238750001,42.6017045],[-122.91392238750001,42.60248575],[-122.9150942625,42.60248575],[-122.9150942625,42.601313875],[-122.9156802,42.601313875],[-122.9156802,42.60092325],[-122.9150942625,42.60092325],[-122.9150942625,42.600532625],[-122.914508325,42.600532625],[-122.914508325,42.600142],[-122.91392238750001,42.600142],[-122.91392238750001,42.600532625],[-122.9115786375,42.600532625],[-122.9115786375,42.60092325],[-122.9057192625,42.60092325],[-122.9057192625,42.600532625],[-122.9016177,42.600532625],[-122.9016177,42.60092325],[-122.89927395,42.60092325],[-122.89927395,42.600532625],[-122.8969302,42.600532625],[-122.8969302,42.60092325],[-122.895758325,42.60092325],[-122.895758325,42.602876375],[-122.8904848875,42.602876375],[-122.8904848875,42.603267],[-122.8893130125,42.603267],[-122.8893130125,42.603657625],[-122.8881411375,42.603657625],[-122.8881411375,42.60404825],[-122.8875552,42.60404825],[-122.8875552,42.604438875],[-122.8869692625,42.604438875],[-122.8869692625,42.6048295],[-122.88521145,42.6048295],[-122.88521145,42.605220125],[-122.884039575,42.605220125],[-122.884039575,42.606001375],[-122.8834536375,42.606001375],[-122.8834536375,42.6079545],[-122.8828677,42.6079545],[-122.8828677,42.609907625],[-122.8822817625,42.609907625],[-122.8822817625,42.613032625],[-122.881695825,42.613032625],[-122.881695825,42.615767],[-122.8822817625,42.615767],[-122.8822817625,42.6173295],[-122.881695825,42.6173295],[-122.881695825,42.626313875],[-122.8822817625,42.626313875],[-122.8822817625,42.62748575],[-122.8828677,42.62748575],[-122.8828677,42.630220125],[-122.8822817625,42.630220125],[-122.8822817625,42.631001375],[-122.8828677,42.631001375],[-122.8828677,42.632563875],[-122.8834536375,42.632563875],[-122.8834536375,42.6360795],[-122.884039575,42.6360795],[-122.884039575,42.63686075],[-122.8846255125,42.63686075],[-122.8846255125,42.637642],[-122.8857973875,42.637642],[-122.8857973875,42.638032625],[-122.8881411375,42.638032625],[-122.8881411375,42.637642],[-122.888727075,42.637642],[-122.888727075,42.63842325],[-122.8893130125,42.63842325],[-122.8893130125,42.638813875],[-122.88989895,42.638813875],[-122.88989895,42.6392045],[-122.8904848875,42.6392045],[-122.8904848875,42.639595125],[-122.8916567625,42.639595125],[-122.8916567625,42.63998575],[-122.8922427,42.63998575],[-122.8922427,42.640376375],[-122.8928286375,42.640376375],[-122.8928286375,42.640767],[-122.8940005125,42.640767],[-122.8940005125,42.641157625],[-122.8951723875,42.641157625],[-122.8951723875,42.64154825],[-122.895758325,42.64154825],[-122.895758325,42.641938875],[-122.8963442625,42.641938875],[-122.8963442625,42.6423295],[-122.898102075,42.6423295],[-122.898102075,42.642720125],[-122.89927395,42.642720125],[-122.89927395,42.64311075],[-122.900445825,42.64311075],[-122.900445825,42.643501375],[-122.9057192625,42.643501375]]]}},{"type":"Feature","properties":{"promptIndex":2,"model":"facebook/sam2.1-hiera-tiny","sentinelComposite":"B12/B8A/B04","hotspotObservedAt":"2026-07-17T18:00:00Z","sentinelObservedAt":"2026-07-15T19:12:40.131000Z"},"geometry":{"type":"Polygon","coordinates":[[[-122.9057192625,42.652095125],[-122.9057192625,42.6517045],[-122.907477075,42.6517045],[-122.907477075,42.651313875],[-122.90864895,42.651313875],[-122.90864895,42.65092325],[-122.9092348875,42.65092325],[-122.9092348875,42.650532625],[-122.909820825,42.650532625],[-122.909820825,42.650142],[-122.9104067625,42.650142],[-122.9104067625,42.649751375],[-122.91099270000001,42.649751375],[-122.91099270000001,42.648970125],[-122.9104067625,42.648970125],[-122.9104067625,42.6485795],[-122.909820825,42.6485795],[-122.909820825,42.64779825],[-122.9092348875,42.64779825],[-122.9092348875,42.647407625],[-122.90864895,42.647407625],[-122.90864895,42.646626375],[-122.9080630125,42.646626375],[-122.9080630125,42.645845125],[-122.907477075,42.645845125],[-122.907477075,42.6454545],[-122.9068911375,42.6454545],[-122.9068911375,42.645063875],[-122.9063052,42.645063875],[-122.9063052,42.6423295],[-122.9068911375,42.6423295],[-122.9068911375,42.641938875],[-122.907477075,42.641938875],[-122.907477075,42.641157625],[-122.9080630125,42.641157625],[-122.9080630125,42.6392045],[-122.9063052,42.6392045],[-122.9063052,42.639595125],[-122.9033755125,42.639595125],[-122.9033755125,42.63998575],[-122.9022036375,42.63998575],[-122.9022036375,42.640376375],[-122.9016177,42.640376375],[-122.9016177,42.640767],[-122.9010317625,42.640767],[-122.9010317625,42.64311075],[-122.8998598875,42.64311075],[-122.8998598875,42.641938875],[-122.89927395,42.641938875],[-122.89927395,42.640767],[-122.8986880125,42.640767],[-122.8986880125,42.63998575],[-122.8975161375,42.63998575],[-122.8975161375,42.639595125],[-122.8963442625,42.639595125],[-122.8963442625,42.6392045],[-122.8951723875,42.6392045],[-122.8951723875,42.638813875],[-122.89458645,42.638813875],[-122.89458645,42.63686075],[-122.8940005125,42.63686075],[-122.8940005125,42.636470125],[-122.893414575,42.636470125],[-122.893414575,42.6360795],[-122.8922427,42.6360795],[-122.8922427,42.635688875],[-122.891070825,42.635688875],[-122.891070825,42.634907625],[-122.8904848875,42.634907625],[-122.8904848875,42.634517],[-122.88989895,42.634517],[-122.88989895,42.634126375],[-122.8893130125,42.634126375],[-122.8893130125,42.63373575],[-122.888727075,42.63373575],[-122.888727075,42.633345125],[-122.8881411375,42.633345125],[-122.8881411375,42.6329545],[-122.8869692625,42.6329545],[-122.8869692625,42.632563875],[-122.88521145,42.632563875],[-122.88521145,42.63217325],[-122.8834536375,42.63217325],[-122.8834536375,42.632563875],[-122.8828677,42.632563875],[-122.8828677,42.6329545],[-122.8822817625,42.6329545],[-122.8822817625,42.633345125],[-122.881695825,42.633345125],[-122.881695825,42.634907625],[-122.8822817625,42.634907625],[-122.8822817625,42.63529825],[-122.881695825,42.63529825],[-122.881695825,42.64154825],[-122.8822817625,42.64154825],[-122.8822817625,42.64311075],[-122.8828677,42.64311075],[-122.8828677,42.643501375],[-122.8822817625,42.643501375],[-122.8822817625,42.645063875],[-122.8828677,42.645063875],[-122.8828677,42.645845125],[-122.8834536375,42.645845125],[-122.8834536375,42.64623575],[-122.884039575,42.64623575],[-122.884039575,42.646626375],[-122.8875552,42.646626375],[-122.8875552,42.645845125],[-122.886383325,42.645845125],[-122.886383325,42.6454545],[-122.8857973875,42.6454545],[-122.8857973875,42.645063875],[-122.88521145,42.645063875],[-122.88521145,42.64467325],[-122.8857973875,42.64467325],[-122.8857973875,42.644282625],[-122.886383325,42.644282625],[-122.886383325,42.643892],[-122.8881411375,42.643892],[-122.8881411375,42.643501375],[-122.8893130125,42.643501375],[-122.8893130125,42.643892],[-122.88989895,42.643892],[-122.88989895,42.644282625],[-122.891070825,42.644282625],[-122.891070825,42.64467325],[-122.8916567625,42.64467325],[-122.8916567625,42.6454545],[-122.893414575,42.6454545],[-122.893414575,42.645845125],[-122.8951723875,42.645845125],[-122.8951723875,42.648188875],[-122.89458645,42.648188875],[-122.89458645,42.649751375],[-122.8951723875,42.649751375],[-122.8951723875,42.650142],[-122.895758325,42.650142],[-122.895758325,42.650532625],[-122.8969302,42.650532625],[-122.8969302,42.65092325],[-122.8975161375,42.65092325],[-122.8975161375,42.651313875],[-122.89927395,42.651313875],[-122.89927395,42.6517045],[-122.9045473875,42.6517045],[-122.9045473875,42.652095125],[-122.9057192625,42.652095125]]]}},{"type":"Feature","properties":{"promptIndex":3,"model":"facebook/sam2.1-hiera-tiny","sentinelComposite":"B12/B8A/B04","hotspotObservedAt":"2026-07-17T18:00:00Z","sentinelObservedAt":"2026-07-15T19:12:40.131000Z"},"geometry":{"type":"Polygon","coordinates":[[[-122.914508325,42.625142],[-122.914508325,42.62436075],[-122.91392238750001,42.62436075],[-122.91392238750001,42.625142],[-122.914508325,42.625142]]]}},{"type":"Feature","properties":{"promptIndex":3,"model":"facebook/sam2.1-hiera-tiny","sentinelComposite":"B12/B8A/B04","hotspotObservedAt":"2026-07-17T18:00:00Z","sentinelObservedAt":"2026-07-15T19:12:40.131000Z"},"geometry":{"type":"Polygon","coordinates":[[[-122.907477075,42.640376375],[-122.907477075,42.63998575],[-122.9080630125,42.63998575],[-122.9080630125,42.639595125],[-122.90864895,42.639595125],[-122.90864895,42.638813875],[-122.9092348875,42.638813875],[-122.9092348875,42.637642],[-122.909820825,42.637642],[-122.909820825,42.637251375],[-122.9104067625,42.637251375],[-122.9104067625,42.63686075],[-122.91099270000001,42.63686075],[-122.91099270000001,42.636470125],[-122.912164575,42.636470125],[-122.912164575,42.6360795],[-122.9127505125,42.6360795],[-122.9127505125,42.632563875],[-122.91333645,42.632563875],[-122.91333645,42.631392],[-122.91392238750001,42.631392],[-122.91392238750001,42.630220125],[-122.91333645,42.630220125],[-122.91333645,42.628267],[-122.914508325,42.628267],[-122.914508325,42.62748575],[-122.9150942625,42.62748575],[-122.9150942625,42.627095125],[-122.914508325,42.627095125],[-122.914508325,42.626313875],[-122.91392238750001,42.626313875],[-122.91392238750001,42.6267045],[-122.91333645,42.6267045],[-122.91333645,42.627095125],[-122.912164575,42.627095125],[-122.912164575,42.62748575],[-122.9104067625,42.62748575],[-122.9104067625,42.627876375],[-122.91099270000001,42.627876375],[-122.91099270000001,42.62904825],[-122.9104067625,42.62904825],[-122.9104067625,42.629438875],[-122.9092348875,42.629438875],[-122.9092348875,42.62904825],[-122.90864895,42.62904825],[-122.90864895,42.628267],[-122.9092348875,42.628267],[-122.9092348875,42.627095125],[-122.90864895,42.627095125],[-122.90864895,42.626313875],[-122.9080630125,42.626313875],[-122.9080630125,42.625532625],[-122.90864895,42.625532625],[-122.90864895,42.62436075],[-122.9092348875,42.62436075],[-122.9092348875,42.6235795],[-122.909820825,42.6235795],[-122.909820825,42.623188875],[-122.9104067625,42.623188875],[-122.9104067625,42.6235795],[-122.9127505125,42.6235795],[-122.9127505125,42.622407625],[-122.912164575,42.622407625],[-122.912164575,42.622017],[-122.9104067625,42.622017],[-122.9104067625,42.6204545],[-122.91099270000001,42.6204545],[-122.91099270000001,42.619282625],[-122.9104067625,42.619282625],[-122.9104067625,42.618501375],[-122.909820825,42.618501375],[-122.909820825,42.617720125],[-122.90864895,42.617720125],[-122.90864895,42.6173295],[-122.9080630125,42.6173295],[-122.9080630125,42.61654825],[-122.907477075,42.61654825],[-122.907477075,42.616157625],[-122.9057192625,42.616157625],[-122.9057192625,42.615767],[-122.9045473875,42.615767],[-122.9045473875,42.616157625],[-122.9033755125,42.616157625],[-122.9033755125,42.61654825],[-122.902789575,42.61654825],[-122.902789575,42.616938875],[-122.9033755125,42.616938875],[-122.9033755125,42.618501375],[-122.9010317625,42.618501375],[-122.9010317625,42.618892],[-122.900445825,42.618892],[-122.900445825,42.618501375],[-122.8998598875,42.618501375],[-122.8998598875,42.61811075],[-122.89927395,42.61811075],[-122.89927395,42.61654825],[-122.8986880125,42.61654825],[-122.8986880125,42.616157625],[-122.8975161375,42.616157625],[-122.8975161375,42.616938875],[-122.8969302,42.616938875],[-122.8969302,42.617720125],[-122.8951723875,42.617720125],[-122.8951723875,42.61811075],[-122.8940005125,42.61811075],[-122.8940005125,42.618501375],[-122.8928286375,42.618501375],[-122.8928286375,42.617720125],[-122.8922427,42.617720125],[-122.8922427,42.616938875],[-122.891070825,42.616938875],[-122.891070825,42.61654825],[-122.8904848875,42.61654825],[-122.8904848875,42.616157625],[-122.8875552,42.616157625],[-122.8875552,42.61654825],[-122.8869692625,42.61654825],[-122.8869692625,42.616938875],[-122.8857973875,42.616938875],[-122.8857973875,42.61654825],[-122.8846255125,42.61654825],[-122.8846255125,42.616157625],[-122.884039575,42.616157625],[-122.884039575,42.61654825],[-122.8834536375,42.61654825],[-122.8834536375,42.6173295],[-122.8828677,42.6173295],[-122.8828677,42.619282625],[-122.8822817625,42.619282625],[-122.8822817625,42.625532625],[-122.8828677,42.625532625],[-122.8828677,42.627095125],[-122.8834536375,42.627095125],[-122.8834536375,42.628267],[-122.884039575,42.628267],[-122.884039575,42.629438875],[-122.8834536375,42.629438875],[-122.8834536375,42.63217325],[-122.884039575,42.63217325],[-122.884039575,42.632563875],[-122.8846255125,42.632563875],[-122.8846255125,42.6329545],[-122.886383325,42.6329545],[-122.886383325,42.633345125],[-122.8875552,42.633345125],[-122.8875552,42.63373575],[-122.888727075,42.63373575],[-122.888727075,42.634126375],[-122.8893130125,42.634126375],[-122.8893130125,42.634517],[-122.8904848875,42.634517],[-122.8904848875,42.634907625],[-122.891070825,42.634907625],[-122.891070825,42.636470125],[-122.8904848875,42.636470125],[-122.8904848875,42.63686075],[-122.891070825,42.63686075],[-122.891070825,42.638032625],[-122.8916567625,42.638032625],[-122.8916567625,42.638813875],[-122.8922427,42.638813875],[-122.8922427,42.6392045],[-122.8928286375,42.6392045],[-122.8928286375,42.639595125],[-122.8940005125,42.639595125],[-122.8940005125,42.63998575],[-122.8963442625,42.63998575],[-122.8963442625,42.640376375],[-122.907477075,42.640376375]],[[-122.9080630125,42.621626375],[-122.907477075,42.621626375],[-122.907477075,42.62123575],[-122.9080630125,42.62123575],[-122.9080630125,42.621626375]]]}}]}
