{"type":"FeatureCollection","features":[{"type":"Feature","properties":{"promptIndex":0,"model":"facebook/sam2.1-hiera-tiny","sentinelComposite":"B12/B8A/B04","hotspotObservedAt":"2026-07-18T18:00:00Z","sentinelObservedAt":"2026-07-15T19:12:40.131000Z"},"geometry":{"type":"Polygon","coordinates":[[[-122.91099270000001,42.62904825],[-122.91099270000001,42.628657625],[-122.91392238750001,42.628657625],[-122.91392238750001,42.628267],[-122.9156802,42.628267],[-122.9156802,42.627876375],[-122.9162661375,42.627876375],[-122.9162661375,42.627095125],[-122.91685207500001,42.627095125],[-122.91685207500001,42.6267045],[-122.919195825,42.6267045],[-122.919195825,42.627095125],[-122.9203677,42.627095125],[-122.9203677,42.62748575],[-122.9232973875,42.62748575],[-122.9232973875,42.627876375],[-122.9244692625,42.627876375],[-122.9244692625,42.62748575],[-122.926227075,42.62748575],[-122.926227075,42.627095125],[-122.92857082500001,42.627095125],[-122.92857082500001,42.6267045],[-122.9291567625,42.6267045],[-122.9291567625,42.62592325],[-122.9297427,42.62592325],[-122.9297427,42.625532625],[-122.9303286375,42.625532625],[-122.9303286375,42.625142],[-122.930914575,42.625142],[-122.930914575,42.624751375],[-122.93150051250001,42.624751375],[-122.93150051250001,42.622017],[-122.930914575,42.622017],[-122.930914575,42.618892],[-122.93150051250001,42.618892],[-122.93150051250001,42.616157625],[-122.93208645,42.616157625],[-122.93208645,42.61498575],[-122.9326723875,42.61498575],[-122.9326723875,42.614595125],[-122.93208645,42.614595125],[-122.93208645,42.613032625],[-122.93150051250001,42.613032625],[-122.93150051250001,42.612642],[-122.930914575,42.612642],[-122.930914575,42.612251375],[-122.9303286375,42.612251375],[-122.9303286375,42.61186075],[-122.92857082500001,42.61186075],[-122.92857082500001,42.611470125],[-122.92739895,42.611470125],[-122.92739895,42.6110795],[-122.9268130125,42.6110795],[-122.9268130125,42.610688875],[-122.9221255125,42.610688875],[-122.9221255125,42.6110795],[-122.9209536375,42.6110795],[-122.9209536375,42.610688875],[-122.9186098875,42.610688875],[-122.9186098875,42.61029825],[-122.91802395,42.61029825],[-122.91802395,42.609907625],[-122.91685207500001,42.609907625],[-122.91685207500001,42.609517],[-122.9156802,42.609517],[-122.9156802,42.609126375],[-122.9150942625,42.609126375],[-122.9150942625,42.60873575],[-122.9127505125,42.60873575],[-122.9127505125,42.609126375],[-122.9115786375,42.609126375],[-122.9115786375,42.609517],[-122.91099270000001,42.609517],[-122.91099270000001,42.609907625],[-122.9104067625,42.609907625],[-122.9104067625,42.610688875],[-122.907477075,42.610688875],[-122.907477075,42.6110795],[-122.9068911375,42.6110795],[-122.9068911375,42.61186075],[-122.9063052,42.61186075],[-122.9063052,42.612642],[-122.9057192625,42.612642],[-122.9057192625,42.6142045],[-122.905133325,42.6142045],[-122.905133325,42.614595125],[-122.9045473875,42.614595125],[-122.9045473875,42.616157625],[-122.90396145,42.616157625],[-122.90396145,42.617720125],[-122.9033755125,42.617720125],[-122.9033755125,42.619282625],[-122.902789575,42.619282625],[-122.902789575,42.620063875],[-122.9022036375,42.620063875],[-122.9022036375,42.620845125],[-122.9016177,42.620845125],[-122.9016177,42.621626375],[-122.9022036375,42.621626375],[-122.9022036375,42.622407625],[-122.902789575,42.622407625],[-122.902789575,42.62279825],[-122.9033755125,42.62279825],[-122.9033755125,42.622017],[-122.9045473875,42.622017],[-122.9045473875,42.621626375],[-122.905133325,42.621626375],[-122.905133325,42.622017],[-122.9057192625,42.622017],[-122.9057192625,42.62279825],[-122.9063052,42.62279825],[-122.9063052,42.627876375],[-122.9068911375,42.627876375],[-122.9068911375,42.62904825],[-122.91099270000001,42.62904825]],[[-122.9291567625,42.62279825],[-122.92857082500001,42.62279825],[-122.92857082500001,42.622407625],[-122.9291567625,42.622407625],[-122.9291567625,42.62279825]]]}},{"type":"Feature","properties":{"promptIndex":1,"model":"facebook/sam2.1-hiera-tiny","sentinelComposite":"B12/B8A/B04","hotspotObservedAt":"2026-07-18T18:00:00Z","sentinelObservedAt":"2026-07-15T19:12:40.131000Z"},"geometry":{"type":"Polygon","coordinates":[[[-122.94028957500001,42.6767045],[-122.94028957500001,42.676313875],[-122.9408755125,42.676313875],[-122.9408755125,42.675142],[-122.94028957500001,42.675142],[-122.94028957500001,42.673970125],[-122.9397036375,42.673970125],[-122.9397036375,42.67436075],[-122.9391177,42.67436075],[-122.9391177,42.676313875],[-122.9397036375,42.676313875],[-122.9397036375,42.6767045],[-122.94028957500001,42.6767045]]]}},{"type":"Feature","properties":{"promptIndex":1,"model":"facebook/sam2.1-hiera-tiny","sentinelComposite":"B12/B8A/B04","hotspotObservedAt":"2026-07-18T18:00:00Z","sentinelObservedAt":"2026-07-15T19:12:40.131000Z"},"geometry":{"type":"Polygon","coordinates":[[[-122.93208645,42.69467325],[-122.93208645,42.694282625],[-122.9338442625,42.694282625],[-122.9338442625,42.693892],[-122.93443020000001,42.693892],[-122.93443020000001,42.693501375],[-122.9350161375,42.693501375],[-122.9350161375,42.69311075],[-122.935602075,42.69311075],[-122.935602075,42.691938875],[-122.9361880125,42.691938875],[-122.9361880125,42.690767],[-122.93677395,42.690767],[-122.93677395,42.6892045],[-122.9361880125,42.6892045],[-122.9361880125,42.688032625],[-122.93677395,42.688032625],[-122.93677395,42.687251375],[-122.93735988750001,42.687251375],[-122.93735988750001,42.68686075],[-122.937945825,42.68686075],[-122.937945825,42.686470125],[-122.93735988750001,42.686470125],[-122.93735988750001,42.6860795],[-122.93677395,42.6860795],[-122.93677395,42.684907625],[-122.9361880125,42.684907625],[-122.9361880125,42.684126375],[-122.935602075,42.684126375],[-122.935602075,42.683345125],[-122.9361880125,42.683345125],[-122.9361880125,42.682563875],[-122.93677395,42.682563875],[-122.93677395,42.681001375],[-122.9361880125,42.681001375],[-122.9361880125,42.680220125],[-122.93677395,42.680220125],[-122.93677395,42.678657625],[-122.9361880125,42.678657625],[-122.9361880125,42.677876375],[-122.935602075,42.677876375],[-122.935602075,42.6767045],[-122.9361880125,42.6767045],[-122.9361880125,42.675142],[-122.935602075,42.675142],[-122.935602075,42.674751375],[-122.9350161375,42.674751375],[-122.9350161375,42.67436075],[-122.935602075,42.67436075],[-122.935602075,42.673970125],[-122.93677395,42.673970125],[-122.93677395,42.672017],[-122.9361880125,42.672017],[-122.9361880125,42.67123575],[-122.935602075,42.67123575],[-122.935602075,42.6704545],[-122.9350161375,42.6704545],[-122.9350161375,42.670063875],[-122.93443020000001,42.670063875],[-122.93443020000001,42.66967325],[-122.9338442625,42.66967325],[-122.9338442625,42.668892],[-122.933258325,42.668892],[-122.933258325,42.66654825],[-122.93208645,42.66654825],[-122.93208645,42.666157625],[-122.92739895,42.666157625],[-122.92739895,42.665767],[-122.92564113750001,42.665767],[-122.92564113750001,42.665376375],[-122.9244692625,42.665376375],[-122.9244692625,42.66498575],[-122.923883325,42.66498575],[-122.923883325,42.664595125],[-122.9221255125,42.664595125],[-122.9221255125,42.66498575],[-122.91978176250001,42.66498575],[-122.91978176250001,42.665376375],[-122.9162661375,42.665376375],[-122.9162661375,42.665767],[-122.9156802,42.665767],[-122.9156802,42.666157625],[-122.914508325,42.666157625],[-122.914508325,42.66654825],[-122.91333645,42.66654825],[-122.91333645,42.666938875],[-122.912164575,42.666938875],[-122.912164575,42.667720125],[-122.91099270000001,42.667720125],[-122.91099270000001,42.668501375],[-122.9115786375,42.668501375],[-122.9115786375,42.669282625],[-122.912164575,42.669282625],[-122.912164575,42.66967325],[-122.9115786375,42.66967325],[-122.9115786375,42.670063875],[-122.9104067625,42.670063875],[-122.9104067625,42.6704545],[-122.907477075,42.6704545],[-122.907477075,42.67123575],[-122.9068911375,42.67123575],[-122.9068911375,42.671626375],[-122.9063052,42.671626375],[-122.9063052,42.672017],[-122.9057192625,42.672017],[-122.9057192625,42.67279825],[-122.905133325,42.67279825],[-122.905133325,42.673188875],[-122.9045473875,42.673188875],[-122.9045473875,42.673970125],[-122.90396145,42.673970125],[-122.90396145,42.675142],[-122.9033755125,42.675142],[-122.9033755125,42.675532625],[-122.902789575,42.675532625],[-122.902789575,42.676313875],[-122.9022036375,42.676313875],[-122.9022036375,42.67904825],[-122.902789575,42.67904825],[-122.902789575,42.679438875],[-122.9033755125,42.679438875],[-122.9033755125,42.6798295],[-122.9045473875,42.6798295],[-122.9045473875,42.680220125],[-122.9063052,42.680220125],[-122.9063052,42.68061075],[-122.907477075,42.68061075],[-122.907477075,42.681392],[-122.9068911375,42.681392],[-122.9068911375,42.682563875],[-122.907477075,42.682563875],[-122.907477075,42.6829545],[-122.909820825,42.6829545],[-122.909820825,42.683345125],[-122.91099270000001,42.683345125],[-122.91099270000001,42.68373575],[-122.912164575,42.68373575],[-122.912164575,42.684517],[-122.9127505125,42.684517],[-122.9127505125,42.684907625],[-122.91333645,42.684907625],[-122.91333645,42.68529825],[-122.91392238750001,42.68529825],[-122.91392238750001,42.685688875],[-122.91333645,42.685688875],[-122.91333645,42.6860795],[-122.9127505125,42.6860795],[-122.9127505125,42.686470125],[-122.912164575,42.686470125],[-122.912164575,42.68686075],[-122.9127505125,42.68686075],[-122.9127505125,42.687251375],[-122.914508325,42.687251375],[-122.914508325,42.688032625],[-122.9150942625,42.688032625],[-122.9150942625,42.688813875],[-122.914508325,42.688813875],[-122.914508325,42.689595125],[-122.912164575,42.689595125],[-122.912164575,42.68998575],[-122.9127505125,42.68998575],[-122.9127505125,42.690376375],[-122.9150942625,42.690376375],[-122.9150942625,42.690767],[-122.9156802,42.690767],[-122.9156802,42.691157625],[-122.9162661375,42.691157625],[-122.9162661375,42.69154825],[-122.91802395,42.69154825],[-122.91802395,42.691157625],[-122.9232973875,42.691157625],[-122.9232973875,42.690767],[-122.9250552,42.690767],[-122.9250552,42.691157625],[-122.9297427,42.691157625],[-122.9297427,42.691938875],[-122.9268130125,42.691938875],[-122.9268130125,42.6923295],[-122.926227075,42.6923295],[-122.926227075,42.693501375],[-122.9268130125,42.693501375],[-122.9268130125,42.693892],[-122.9291567625,42.693892],[-122.9291567625,42.694282625],[-122.9303286375,42.694282625],[-122.9303286375,42.69467325],[-122.93208645,42.69467325]]]}},{"type":"Feature","properties":{"promptIndex":2,"model":"facebook/sam2.1-hiera-tiny","sentinelComposite":"B12/B8A/B04","hotspotObservedAt":"2026-07-18T18:00:00Z","sentinelObservedAt":"2026-07-15T19:12:40.131000Z"},"geometry":{"type":"Polygon","coordinates":[[[-122.9057192625,42.640376375],[-122.9057192625,42.63998575],[-122.9045473875,42.63998575],[-122.9045473875,42.640376375],[-122.9057192625,42.640376375]]]}},{"type":"Feature","properties":{"promptIndex":2,"model":"facebook/sam2.1-hiera-tiny","sentinelComposite":"B12/B8A/B04","hotspotObservedAt":"2026-07-18T18:00:00Z","sentinelObservedAt":"2026-07-15T19:12:40.131000Z"},"geometry":{"type":"Polygon","coordinates":[[[-122.8940005125,42.632563875],[-122.8940005125,42.631782625],[-122.8928286375,42.631782625],[-122.8928286375,42.63217325],[-122.8922427,42.63217325],[-122.8922427,42.632563875],[-122.8940005125,42.632563875]]]}},{"type":"Feature","properties":{"promptIndex":2,"model":"facebook/sam2.1-hiera-tiny","sentinelComposite":"B12/B8A/B04","hotspotObservedAt":"2026-07-18T18:00:00Z","sentinelObservedAt":"2026-07-15T19:12:40.131000Z"},"geometry":{"type":"Polygon","coordinates":[[[-122.8893130125,42.6298295],[-122.8893130125,42.629438875],[-122.88989895,42.629438875],[-122.88989895,42.62904825],[-122.8893130125,42.62904825],[-122.8893130125,42.628657625],[-122.8881411375,42.628657625],[-122.8881411375,42.6298295],[-122.8893130125,42.6298295]]]}},{"type":"Feature","properties":{"promptIndex":2,"model":"facebook/sam2.1-hiera-tiny","sentinelComposite":"B12/B8A/B04","hotspotObservedAt":"2026-07-18T18:00:00Z","sentinelObservedAt":"2026-07-15T19:12:40.131000Z"},"geometry":{"type":"Polygon","coordinates":[[[-122.8834536375,42.652876375],[-122.8834536375,42.65248575],[-122.8846255125,42.65248575],[-122.8846255125,42.652095125],[-122.88521145,42.652095125],[-122.88521145,42.65092325],[-122.8857973875,42.65092325],[-122.8857973875,42.650142],[-122.886383325,42.650142],[-122.886383325,42.649751375],[-122.8875552,42.649751375],[-122.8875552,42.64936075],[-122.8881411375,42.64936075],[-122.8881411375,42.648970125],[-122.888727075,42.648970125],[-122.888727075,42.6485795],[-122.8893130125,42.6485795],[-122.8893130125,42.648970125],[-122.88989895,42.648970125],[-122.88989895,42.649751375],[-122.8963442625,42.649751375],[-122.8963442625,42.650142],[-122.8975161375,42.650142],[-122.8975161375,42.650532625],[-122.8998598875,42.650532625],[-122.8998598875,42.650142],[-122.900445825,42.650142],[-122.900445825,42.650532625],[-122.9016177,42.650532625],[-122.9016177,42.65092325],[-122.90396145,42.65092325],[-122.90396145,42.650532625],[-122.905133325,42.650532625],[-122.905133325,42.650142],[-122.9057192625,42.650142],[-122.9057192625,42.649751375],[-122.9063052,42.649751375],[-122.9063052,42.64936075],[-122.9068911375,42.64936075],[-122.9068911375,42.6485795],[-122.907477075,42.6485795],[-122.907477075,42.647407625],[-122.9068911375,42.647407625],[-122.9068911375,42.647017],[-122.9063052,42.647017],[-122.9063052,42.646626375],[-122.9057192625,42.646626375],[-122.9057192625,42.645845125],[-122.905133325,42.645845125],[-122.905133325,42.6454545],[-122.9045473875,42.6454545],[-122.9045473875,42.64467325],[-122.90396145,42.64467325],[-122.90396145,42.643892],[-122.9045473875,42.643892],[-122.9045473875,42.641157625],[-122.90396145,42.641157625],[-122.90396145,42.640767],[-122.9016177,42.640767],[-122.9016177,42.640376375],[-122.9010317625,42.640376375],[-122.9010317625,42.63998575],[-122.900445825,42.63998575],[-122.900445825,42.639595125],[-122.8998598875,42.639595125],[-122.8998598875,42.6392045],[-122.89927395,42.6392045],[-122.89927395,42.638813875],[-122.8986880125,42.638813875],[-122.8986880125,42.638032625],[-122.8975161375,42.638032625],[-122.8975161375,42.637642],[-122.8969302,42.637642],[-122.8969302,42.637251375],[-122.8963442625,42.637251375],[-122.8963442625,42.6360795],[-122.8951723875,42.6360795],[-122.8951723875,42.635688875],[-122.89458645,42.635688875],[-122.89458645,42.634907625],[-122.8940005125,42.634907625],[-122.8940005125,42.634517],[-122.8922427,42.634517],[-122.8922427,42.634126375],[-122.8916567625,42.634126375],[-122.8916567625,42.63373575],[-122.891070825,42.63373575],[-122.891070825,42.633345125],[-122.8904848875,42.633345125],[-122.8904848875,42.63217325],[-122.88989895,42.63217325],[-122.88989895,42.631782625],[-122.8893130125,42.631782625],[-122.8893130125,42.631392],[-122.8875552,42.631392],[-122.8875552,42.631001375],[-122.886383325,42.631001375],[-122.886383325,42.63061075],[-122.88521145,42.63061075],[-122.88521145,42.629438875],[-122.8857973875,42.629438875],[-122.8857973875,42.62904825],[-122.88521145,42.62904825],[-122.88521145,42.627876375],[-122.8846255125,42.627876375],[-122.8846255125,42.62748575],[-122.8828677,42.62748575],[-122.8828677,42.627095125],[-122.881695825,42.627095125],[-122.881695825,42.6267045],[-122.8811098875,42.6267045],[-122.8811098875,42.627095125],[-122.8799380125,42.627095125],[-122.8799380125,42.62748575],[-122.879352075,42.62748575],[-122.879352075,42.628267],[-122.8787661375,42.628267],[-122.8787661375,42.6298295],[-122.8781802,42.6298295],[-122.8781802,42.63061075],[-122.8775942625,42.63061075],[-122.8775942625,42.631001375],[-122.877008325,42.631001375],[-122.877008325,42.631392],[-122.8740786375,42.631392],[-122.8740786375,42.632563875],[-122.874664575,42.632563875],[-122.874664575,42.6329545],[-122.8752505125,42.6329545],[-122.8752505125,42.637251375],[-122.87583645,42.637251375],[-122.87583645,42.648188875],[-122.8752505125,42.648188875],[-122.8752505125,42.649751375],[-122.87583645,42.649751375],[-122.87583645,42.650532625],[-122.877008325,42.650532625],[-122.877008325,42.65092325],[-122.8781802,42.65092325],[-122.8781802,42.651313875],[-122.8787661375,42.651313875],[-122.8787661375,42.6517045],[-122.8799380125,42.6517045],[-122.8799380125,42.652095125],[-122.88052395,42.652095125],[-122.88052395,42.65248575],[-122.8811098875,42.65248575],[-122.8811098875,42.652876375],[-122.8834536375,42.652876375]],[[-122.891070825,42.6485795],[-122.8904848875,42.6485795],[-122.8904848875,42.648188875],[-122.88989895,42.648188875],[-122.88989895,42.64779825],[-122.8904848875,42.64779825],[-122.8904848875,42.647407625],[-122.8916567625,42.647407625],[-122.8916567625,42.648188875],[-122.891070825,42.648188875],[-122.891070825,42.6485795]],[[-122.900445825,42.648188875],[-122.8998598875,42.648188875],[-122.8998598875,42.64779825],[-122.900445825,42.64779825],[-122.900445825,42.648188875]],[[-122.8963442625,42.648188875],[-122.8951723875,42.648188875],[-122.8951723875,42.647017],[-122.895758325,42.647017],[-122.895758325,42.646626375],[-122.8963442625,42.646626375],[-122.8963442625,42.648188875]]]}}]}
