{"type":"FeatureCollection","features":[{"type":"Feature","properties":{"promptIndex":0,"model":"facebook/sam2.1-hiera-tiny","sentinelComposite":"B12/B8A/B04","hotspotObservedAt":"2026-07-20T21:00:00Z","sentinelObservedAt":"2026-07-15T19:12:40.131000Z"},"geometry":{"type":"Polygon","coordinates":[[[-122.8875552,42.602876375],[-122.8875552,42.60248575],[-122.8881411375,42.60248575],[-122.8881411375,42.602095125],[-122.888727075,42.602095125],[-122.888727075,42.6017045],[-122.88989895,42.6017045],[-122.88989895,42.602095125],[-122.891070825,42.602095125],[-122.891070825,42.601313875],[-122.8916567625,42.601313875],[-122.8916567625,42.600532625],[-122.8922427,42.600532625],[-122.8922427,42.599751375],[-122.893414575,42.599751375],[-122.893414575,42.59936075],[-122.8940005125,42.59936075],[-122.8940005125,42.599751375],[-122.8963442625,42.599751375],[-122.8963442625,42.59936075],[-122.8969302,42.59936075],[-122.8969302,42.59779825],[-122.895758325,42.59779825],[-122.895758325,42.597407625],[-122.8963442625,42.597407625],[-122.8963442625,42.595845125],[-122.8969302,42.595845125],[-122.8969302,42.5954545],[-122.8975161375,42.5954545],[-122.8975161375,42.595063875],[-122.8986880125,42.595063875],[-122.8986880125,42.594282625],[-122.898102075,42.594282625],[-122.898102075,42.593892],[-122.8975161375,42.593892],[-122.8975161375,42.5923295],[-122.898102075,42.5923295],[-122.898102075,42.591157625],[-122.8975161375,42.591157625],[-122.8975161375,42.590376375],[-122.8969302,42.590376375],[-122.8969302,42.58998575],[-122.8975161375,42.58998575],[-122.8975161375,42.5892045],[-122.898102075,42.5892045],[-122.898102075,42.588813875],[-122.8986880125,42.588813875],[-122.8986880125,42.58842325],[-122.898102075,42.58842325],[-122.898102075,42.588032625],[-122.8969302,42.588032625],[-122.8969302,42.587641999999995],[-122.8963442625,42.587641999999995],[-122.8963442625,42.58686075],[-122.895758325,42.58686075],[-122.895758325,42.586470125],[-122.89458645,42.586470125],[-122.89458645,42.58686075],[-122.893414575,42.58686075],[-122.893414575,42.586470125],[-122.8922427,42.586470125],[-122.8922427,42.5860795],[-122.8904848875,42.5860795],[-122.8904848875,42.585688874999995],[-122.8893130125,42.585688874999995],[-122.8893130125,42.58529825],[-122.8869692625,42.58529825],[-122.8869692625,42.584907625],[-122.881695825,42.584907625],[-122.881695825,42.584517],[-122.88052395,42.584517],[-122.88052395,42.584126375],[-122.8787661375,42.584126375],[-122.8787661375,42.584517],[-122.8775942625,42.584517],[-122.8775942625,42.584907625],[-122.874664575,42.584907625],[-122.874664575,42.58529825],[-122.8740786375,42.58529825],[-122.8740786375,42.585688874999995],[-122.8734927,42.585688874999995],[-122.8734927,42.586470125],[-122.8729067625,42.586470125],[-122.8729067625,42.587641999999995],[-122.8734927,42.587641999999995],[-122.8734927,42.58998575],[-122.8729067625,42.58998575],[-122.8729067625,42.590376375],[-122.8734927,42.590376375],[-122.8734927,42.591938875],[-122.8729067625,42.591938875],[-122.8729067625,42.592720125],[-122.872320825,42.592720125],[-122.872320825,42.593892],[-122.8717348875,42.593892],[-122.8717348875,42.595845125],[-122.87114895,42.595845125],[-122.87114895,42.596626375],[-122.8717348875,42.596626375],[-122.8717348875,42.597017],[-122.872320825,42.597017],[-122.872320825,42.597407625],[-122.8729067625,42.597407625],[-122.8729067625,42.598188875],[-122.872320825,42.598188875],[-122.872320825,42.5985795],[-122.8717348875,42.5985795],[-122.8717348875,42.599751375],[-122.8734927,42.599751375],[-122.8734927,42.600142],[-122.874664575,42.600142],[-122.874664575,42.600532625],[-122.87583645,42.600532625],[-122.87583645,42.600142],[-122.8775942625,42.600142],[-122.8775942625,42.600532625],[-122.8781802,42.600532625],[-122.8781802,42.60092325],[-122.8787661375,42.60092325],[-122.8787661375,42.6017045],[-122.88052395,42.6017045],[-122.88052395,42.601313875],[-122.8811098875,42.601313875],[-122.8811098875,42.60092325],[-122.8822817625,42.60092325],[-122.8822817625,42.6017045],[-122.8834536375,42.6017045],[-122.8834536375,42.602095125],[-122.884039575,42.602095125],[-122.884039575,42.60248575],[-122.88521145,42.60248575],[-122.88521145,42.602876375],[-122.8875552,42.602876375]]]}}]}
