{"type":"FeatureCollection","features":[{"type":"Feature","properties":{"promptIndex":0,"model":"facebook/sam2.1-hiera-tiny","sentinelComposite":"B12/B8A/B04","hotspotObservedAt":"2026-07-19T18:00:00Z","sentinelObservedAt":"2026-07-15T19:12:40.131000Z"},"geometry":{"type":"Polygon","coordinates":[[[-122.921539575,42.60717325],[-122.921539575,42.606782625],[-122.9209536375,42.606782625],[-122.9209536375,42.60717325],[-122.921539575,42.60717325]]]}},{"type":"Feature","properties":{"promptIndex":0,"model":"facebook/sam2.1-hiera-tiny","sentinelComposite":"B12/B8A/B04","hotspotObservedAt":"2026-07-19T18:00:00Z","sentinelObservedAt":"2026-07-15T19:12:40.131000Z"},"geometry":{"type":"Polygon","coordinates":[[[-122.921539575,42.604438875],[-122.921539575,42.60404825],[-122.9209536375,42.60404825],[-122.9209536375,42.604438875],[-122.921539575,42.604438875]]]}},{"type":"Feature","properties":{"promptIndex":0,"model":"facebook/sam2.1-hiera-tiny","sentinelComposite":"B12/B8A/B04","hotspotObservedAt":"2026-07-19T18:00:00Z","sentinelObservedAt":"2026-07-15T19:12:40.131000Z"},"geometry":{"type":"Polygon","coordinates":[[[-122.8857973875,42.607563875],[-122.8857973875,42.60717325],[-122.8869692625,42.60717325],[-122.8869692625,42.606782625],[-122.8875552,42.606782625],[-122.8875552,42.606001375],[-122.8881411375,42.606001375],[-122.8881411375,42.60561075],[-122.888727075,42.60561075],[-122.888727075,42.605220125],[-122.8893130125,42.605220125],[-122.8893130125,42.60561075],[-122.88989895,42.60561075],[-122.88989895,42.606001375],[-122.8922427,42.606001375],[-122.8922427,42.60561075],[-122.8928286375,42.60561075],[-122.8928286375,42.605220125],[-122.89458645,42.605220125],[-122.89458645,42.60561075],[-122.895758325,42.60561075],[-122.895758325,42.606001375],[-122.8969302,42.606001375],[-122.8969302,42.60561075],[-122.8986880125,42.60561075],[-122.8986880125,42.603657625],[-122.89927395,42.603657625],[-122.89927395,42.603267],[-122.9010317625,42.603267],[-122.9010317625,42.603657625],[-122.9016177,42.603657625],[-122.9016177,42.605220125],[-122.900445825,42.605220125],[-122.900445825,42.606001375],[-122.9022036375,42.606001375],[-122.9022036375,42.606392],[-122.902789575,42.606392],[-122.902789575,42.606782625],[-122.9045473875,42.606782625],[-122.9045473875,42.60717325],[-122.9068911375,42.60717325],[-122.9068911375,42.606782625],[-122.9092348875,42.606782625],[-122.9092348875,42.606392],[-122.9115786375,42.606392],[-122.9115786375,42.606001375],[-122.9127505125,42.606001375],[-122.9127505125,42.606392],[-122.91392238750001,42.606392],[-122.91392238750001,42.606782625],[-122.9156802,42.606782625],[-122.9156802,42.60717325],[-122.9174380125,42.60717325],[-122.9174380125,42.606782625],[-122.91802395,42.606782625],[-122.91802395,42.606392],[-122.9186098875,42.606392],[-122.9186098875,42.606001375],[-122.9203677,42.606001375],[-122.9203677,42.60561075],[-122.9209536375,42.60561075],[-122.9209536375,42.6048295],[-122.91978176250001,42.6048295],[-122.91978176250001,42.604438875],[-122.9186098875,42.604438875],[-122.9186098875,42.603657625],[-122.9203677,42.603657625],[-122.9203677,42.60248575],[-122.9209536375,42.60248575],[-122.9209536375,42.602095125],[-122.9232973875,42.602095125],[-122.9232973875,42.60248575],[-122.9244692625,42.60248575],[-122.9244692625,42.602095125],[-122.923883325,42.602095125],[-122.923883325,42.600532625],[-122.9250552,42.600532625],[-122.9250552,42.60092325],[-122.926227075,42.60092325],[-122.926227075,42.599751375],[-122.9268130125,42.599751375],[-122.9268130125,42.597017],[-122.926227075,42.597017],[-122.926227075,42.596626375],[-122.92564113750001,42.596626375],[-122.92564113750001,42.595845125],[-122.926227075,42.595845125],[-122.926227075,42.5954545],[-122.9268130125,42.5954545],[-122.9268130125,42.594282625],[-122.92739895,42.594282625],[-122.92739895,42.593892],[-122.9279848875,42.593892],[-122.9279848875,42.593501375],[-122.92857082500001,42.593501375],[-122.92857082500001,42.59311075],[-122.9279848875,42.59311075],[-122.9279848875,42.592720125],[-122.9268130125,42.592720125],[-122.9268130125,42.5923295],[-122.926227075,42.5923295],[-122.926227075,42.591938875],[-122.923883325,42.591938875],[-122.923883325,42.590767],[-122.9244692625,42.590767],[-122.9244692625,42.589595124999995],[-122.923883325,42.589595124999995],[-122.923883325,42.588813875],[-122.9232973875,42.588813875],[-122.9232973875,42.58842325],[-122.92271145000001,42.58842325],[-122.92271145000001,42.588032625],[-122.921539575,42.588032625],[-122.921539575,42.587641999999995],[-122.9209536375,42.587641999999995],[-122.9209536375,42.58686075],[-122.9203677,42.58686075],[-122.9203677,42.586470125],[-122.91978176250001,42.586470125],[-122.91978176250001,42.5860795],[-122.9186098875,42.5860795],[-122.9186098875,42.585688874999995],[-122.91802395,42.585688874999995],[-122.91802395,42.58529825],[-122.9174380125,42.58529825],[-122.9174380125,42.584907625],[-122.9162661375,42.584907625],[-122.9162661375,42.58529825],[-122.9150942625,42.58529825],[-122.9150942625,42.585688874999995],[-122.914508325,42.585688874999995],[-122.914508325,42.5860795],[-122.912164575,42.5860795],[-122.912164575,42.586470125],[-122.9115786375,42.586470125],[-122.9115786375,42.587251375],[-122.91099270000001,42.587251375],[-122.91099270000001,42.587641999999995],[-122.909820825,42.587641999999995],[-122.909820825,42.588032625],[-122.9080630125,42.588032625],[-122.9080630125,42.58842325],[-122.9068911375,42.58842325],[-122.9068911375,42.588032625],[-122.905133325,42.588032625],[-122.905133325,42.587641999999995],[-122.90396145,42.587641999999995],[-122.90396145,42.58686075],[-122.9033755125,42.58686075],[-122.9033755125,42.586470125],[-122.9022036375,42.586470125],[-122.9022036375,42.58686075],[-122.9010317625,42.58686075],[-122.9010317625,42.587251375],[-122.898102075,42.587251375],[-122.898102075,42.58686075],[-122.8969302,42.58686075],[-122.8969302,42.586470125],[-122.8951723875,42.586470125],[-122.8951723875,42.5860795],[-122.88989895,42.5860795],[-122.88989895,42.585688874999995],[-122.886383325,42.585688874999995],[-122.886383325,42.5860795],[-122.8846255125,42.5860795],[-122.8846255125,42.586470125],[-122.8834536375,42.586470125],[-122.8834536375,42.58686075],[-122.8822817625,42.58686075],[-122.8822817625,42.587641999999995],[-122.881695825,42.587641999999995],[-122.881695825,42.592720125],[-122.8811098875,42.592720125],[-122.8811098875,42.596626375],[-122.881695825,42.596626375],[-122.881695825,42.597017],[-122.8822817625,42.597017],[-122.8822817625,42.598188875],[-122.881695825,42.598188875],[-122.881695825,42.59936075],[-122.8811098875,42.59936075],[-122.8811098875,42.60092325],[-122.881695825,42.60092325],[-122.881695825,42.60248575],[-122.8822817625,42.60248575],[-122.8822817625,42.603267],[-122.8828677,42.603267],[-122.8828677,42.603657625],[-122.8846255125,42.603657625],[-122.8846255125,42.60404825],[-122.88521145,42.60404825],[-122.88521145,42.604438875],[-122.8846255125,42.604438875],[-122.8846255125,42.60561075],[-122.884039575,42.60561075],[-122.884039575,42.606392],[-122.8834536375,42.606392],[-122.8834536375,42.60717325],[-122.884039575,42.60717325],[-122.884039575,42.607563875],[-122.8857973875,42.607563875]],[[-122.8963442625,42.6048295],[-122.895758325,42.6048295],[-122.895758325,42.604438875],[-122.8951723875,42.604438875],[-122.8951723875,42.60404825],[-122.895758325,42.60404825],[-122.895758325,42.603657625],[-122.8963442625,42.603657625],[-122.8963442625,42.6048295]],[[-122.8916567625,42.6048295],[-122.8904848875,42.6048295],[-122.8904848875,42.604438875],[-122.88989895,42.604438875],[-122.88989895,42.60404825],[-122.8904848875,42.60404825],[-122.8904848875,42.603657625],[-122.8916567625,42.603657625],[-122.8916567625,42.6048295]]]}}]}
